,title,author,city,country,page,city_country,city_location,country_location,city_country_location,best_location,lat,lon,address
0,"Ducks, Newburyport",,Newburyport,,"Ducks, Newburyport",,"Newburyport, Essex County, Massachusetts, 01950, United States",,,"Newburyport, Essex County, Massachusetts, 01950, United States",42.8132845,-70.8819188,"Newburyport, Essex County, Massachusetts, 01950, United States"
20,The Comfort of Strangers,Ian McEwan,Venice,,The Comfort of Strangers,,"Venezia, Veneto, 30121-30176, Italia",,,"Venezia, Veneto, 30121-30176, Italia",45.4371908,12.3345898,"Venezia, Veneto, 30121-30176, Italia"
29,The Unlikely Pilgrimage of Harold Fry,Rachel Joyce,Berwick,,The Unlikely Pilgrimage of Harold Fry,,"Berwick-upon-Tweed, Northumberland, North of Tyne, England, United Kingdom",,,"Berwick-upon-Tweed, Northumberland, North of Tyne, England, United Kingdom",55.7692442,-2.0026472,"Berwick-upon-Tweed, Northumberland, North of Tyne, England, United Kingdom"
46,If Nobody Speaks of Remarkable Things,Jon McGregor,Bradford,,If Nobody Speaks of Remarkable Things,,"Bradford, West Yorkshire, England, United Kingdom",,,"Bradford, West Yorkshire, England, United Kingdom",53.7944229,-1.7519186,"Bradford, West Yorkshire, England, United Kingdom"
68,The Birds on the Trees,Nina Bawden,London,,The Birds on the Trees,,"London, Greater London, England, United Kingdom",,,"London, Greater London, England, United Kingdom",51.5074456,-0.1277653,"London, Greater London, England, United Kingdom"
90,The Fortune Men,Nadifa Mohamed,Cardiff,,The Fortune Men,,"Cardiff, Cymru / Wales, CF10 2AF, United Kingdom",,,"Cardiff, Cymru / Wales, CF10 2AF, United Kingdom",51.4816546,-3.1791934,"Cardiff, Cymru / Wales, CF10 2AF, United Kingdom"
95,Nice Work,David Lodge,Rummidge,,Nice Work,,,,,,,,
117,Breakfast on Pluto,Patrick McCabe,Piccadilly Circus,,Breakfast on Pluto,,"Piccadilly Circus, Saint Giles, Bloomsbury, City of Westminster, Greater London, England, W1J 9HT, United Kingdom",,,"Piccadilly Circus, Saint Giles, Bloomsbury, City of Westminster, Greater London, England, W1J 9HT, United Kingdom",51.5097922,-0.13442883634595293,"Piccadilly Circus, Saint Giles, Bloomsbury, City of Westminster, Greater London, England, W1J 9HT, United Kingdom"
130,Bruno's Dream,Iris Murdoch,London,,Bruno's Dream,,"London, Greater London, England, United Kingdom",,,"London, Greater London, England, United Kingdom",51.5074456,-0.1277653,"London, Greater London, England, United Kingdom"
173,I'll Go to Bed at Noon,Gerard Woodward,Palmers Green,,I'll Go to Bed at Noon,,"Palmers Green, London Borough of Enfield, London, Greater London, England, N13 4PX, United Kingdom",,,"Palmers Green, London Borough of Enfield, London, Greater London, England, N13 4PX, United Kingdom",51.6222544,-0.1127378,"Palmers Green, London Borough of Enfield, London, Greater London, England, N13 4PX, United Kingdom"
198,His Bloody Project: Documents relating to the case of Roderick Macrae,Graeme Macrae Burnet,Culduie,,His Bloody Project,,"Culduie, Highland, Alba / Scotland, IV54 8LX, United Kingdom",,,"Culduie, Highland, Alba / Scotland, IV54 8LX, United Kingdom",57.3960516,-5.8030235,"Culduie, Highland, Alba / Scotland, IV54 8LX, United Kingdom"
211,The Children of Dynmouth,William Trevor,Dynmouth,,The Children of Dynmouth,,,,,,,,
223,Woodstock,,Woodstock,,Woodstock (novel),,"Woodstock, McHenry County, Illinois, 60098, United States",,,"Woodstock, McHenry County, Illinois, 60098, United States",42.3147529,-88.4474302,"Woodstock, McHenry County, Illinois, 60098, United States"
226,An Instance of the Fingerpost,Iain Pears,Oxford,,An Instance of the Fingerpost,,"Oxford, Oxfordshire, England, United Kingdom",,,"Oxford, Oxfordshire, England, United Kingdom",51.7520131,-1.2578499,"Oxford, Oxfordshire, England, United Kingdom"
249,The Finkler Question,Howard Jacobson,London,,The Finkler Question,,"London, Greater London, England, United Kingdom",,,"London, Greater London, England, United Kingdom",51.5074456,-0.1277653,"London, Greater London, England, United Kingdom"
293,On Chesil Beach,Ian McEwan,Dorset,,On Chesil Beach,,"Dorset, England, United Kingdom",,,"Dorset, England, United Kingdom",50.79683685,-2.34473226124306,"Dorset, England, United Kingdom"
294,I'm the King of the Castle,Susan Hill,Leydell,,I'm the King of the Castle,,,,,,,,
339,The Good Apprentice,Iris Murdoch,London,,The Good Apprentice,,"London, Greater London, England, United Kingdom",,,"London, Greater London, England, United Kingdom",51.5074456,-0.1277653,"London, Greater London, England, United Kingdom"
341,Thyl Ulenspiegel,Joost van der Vondel,Damme,,The Legend of Thyl Ulenspiegel and Lamme Goedzak,,"Damme, Brugge, West-Vlaanderen, België / Belgique / Belgien",,,"Damme, Brugge, West-Vlaanderen, België / Belgique / Belgien",51.2553021,3.2920911130761956,"Damme, Brugge, West-Vlaanderen, België / Belgique / Belgien"
346,The Old Devils,Kingsley Amis,Wales,,The Old Devils,,"Cymru / Wales, United Kingdom",,,"Cymru / Wales, United Kingdom",52.2928116,-3.73893,"Cymru / Wales, United Kingdom"
354,The Count of Monte Cristo,Alexandre Dumas,Paris,,The Count of Monte Cristo,,"Paris, Île-de-France, France métropolitaine, France",,,"Paris, Île-de-France, France métropolitaine, France",48.8534951,2.3483915,"Paris, Île-de-France, France métropolitaine, France"
368,Nightcrawling,Leila Mottley,Oakland,,Nightcrawling,,"Oakland, Alameda County, California, United States",,,"Oakland, Alameda County, California, United States",37.8044557,-122.271356,"Oakland, Alameda County, California, United States"
399,To Rise Again at a Decent Hour,Joshua Ferris,New York City,,To Rise Again at a Decent Hour,,"City of New York, New York, United States",,,"City of New York, New York, United States",40.7127281,-74.0060152,"City of New York, New York, United States"
406,Vernon God Little,DBC Pierre,Martirio,,Vernon God Little,,"Martirio, Palmira, Cantón de Cañas, Provincia de Guanacaste, 50602, Costa Rica",,,"Martirio, Palmira, Cantón de Cañas, Provincia de Guanacaste, 50602, Costa Rica",10.6232733,-85.0512956,"Martirio, Palmira, Cantón de Cañas, Provincia de Guanacaste, 50602, Costa Rica"
453,Loitering with Intent,Muriel Spark,London,,Loitering with Intent,,"London, Greater London, England, United Kingdom",,,"London, Greater London, England, United Kingdom",51.5074456,-0.1277653,"London, Greater London, England, United Kingdom"
479,A Body in the Bath House,Lindsey Davis,Rome and Britannia,,A Body in the Bath House,,,,,,,,
528,The Road To Lichfield,Penelope Lively,Lichfield,,The Road to Lichfield,,"Lichfield, Staffordshire, England, United Kingdom",,,"Lichfield, Staffordshire, England, United Kingdom",52.68064,-1.8243991722405983,"Lichfield, Staffordshire, England, United Kingdom"
570,A Long Long Way,Sebastian Barry,Flanders,,A Long Long Way,,"Vlaanderen, België / Belgique / Belgien",,,"Vlaanderen, België / Belgique / Belgien",51.096246199999996,4.178629103169916,"Vlaanderen, België / Belgique / Belgien"
589,Il gattopardo,,Palma di Montechiaro,,The Leopard,,"Palma di Montechiaro, Agrigento, Sicilia, 92044, Italia",,,"Palma di Montechiaro, Agrigento, Sicilia, 92044, Italia",37.1916637,13.7637141,"Palma di Montechiaro, Agrigento, Sicilia, 92044, Italia"
591,Hotel du Lac,Anita Brookner,Lake Geneva,,Hotel du Lac,,"Le Léman, Haute-Savoie, Auvergne-Rhône-Alpes, France métropolitaine, France",,,"Le Léman, Haute-Savoie, Auvergne-Rhône-Alpes, France métropolitaine, France",46.361350200000004,6.393247037248148,"Le Léman, Haute-Savoie, Auvergne-Rhône-Alpes, France métropolitaine, France"
612,A fekete város,Kálmán Mikszáth,Levoča,,A fekete város,,"Levoča, okres Levoča, Prešovský kraj, Východné Slovensko, 054 01, Slovensko",,,"Levoča, okres Levoča, Prešovský kraj, Východné Slovensko, 054 01, Slovensko",49.0251116,20.587999,"Levoča, okres Levoča, Prešovský kraj, Východné Slovensko, 054 01, Slovensko"
633,Judith,Brian Cleeve,London,,Judith (novel),,"London, Greater London, England, United Kingdom",,,"London, Greater London, England, United Kingdom",51.5074456,-0.1277653,"London, Greater London, England, United Kingdom"
641,Grace Notes,Bernard MacLaverty,Scotland,,Grace Notes,,"Alba / Scotland, United Kingdom",,,"Alba / Scotland, United Kingdom",56.7861112,-4.1140518,"Alba / Scotland, United Kingdom"
647,Barnaby Rudge,,London,,Barnaby Rudge: A Tale of the Riots of 'Eighty,,"London, Greater London, England, United Kingdom",,,"London, Greater London, England, United Kingdom",51.5074456,-0.1277653,"London, Greater London, England, United Kingdom"
671,The Essence of the Thing,Madeleine St John,London,,The Essence of the Thing,,"London, Greater London, England, United Kingdom",,,"London, Greater London, England, United Kingdom",51.5074456,-0.1277653,"London, Greater London, England, United Kingdom"
3,The Famished Road,Ben Okri,,Nigeria,The Famished Road,,,,,,,,
6,Bring Larks and Heroes,Thomas Keneally,,Australia,Bring Larks and Heroes,,,,,,,,
10,The Colour of Blood,Brian Moore,,Poland,The Colour of Blood,,,,,,,,
14,The Last Empress,Anchee Min,,China,The Last Empress (novel),,,,,,,,
15,"Fasting, Feasting",Anita Desai,,India,"Fasting, Feasting",,,,,,,,
36,As minas de prata,José de Alencar,,Brazil,As Minas de Prata,,,,,,,,
40,Shahab Nama,Qudrat Ullah Shahab,,Pakistan,Shahab Nama,,,,,,,,
43,Devil's Brood,Sharon Kay Penman,,England,The Devil's Brood,,,,,,,,
45,The Family,Mario Puzo,,Italy,The Family (Mario Puzo novel),,,,,,,,
47,Angélique,Anne Golon,,France,Angelique (French series),,,,,,,,
53,Lies of Silence,Brian Moore,,Northern Ireland,Lies of Silence,,,,,,,,
55,The Memoirs of Cleopatra,Margaret George,,Egypt,The Memoirs of Cleopatra,,,,,,,,
56,The Baroque Cycle,Neal Stephenson,,Europe,The Baroque Cycle,,,,,,,,
59,The Woman Who Had Two Navels,Nick Joaquín,,Philippines,The Woman Who had Two Navels,,,,,,,,
60,The Afghan Campaign,Steven Pressfield,,Afghanistan,The Afghan Campaign,,,,,,,,
67,The Redundancy of Courage,Timothy Mo,,Danu,The Redundancy of Courage,,,,,,,,
70,The Forest House,Marion Zimmer Bradley and Diana L. Paxson,,Britain,The Forest House,,,,,,,,
72,The Lotus Eaters,Tatjana Soli,,Vietnam,The Lotus Eaters (novel),,,,,,,,
77,The Spinning Heart,Donal Ryan,,Ireland,The Spinning Heart,,,,,,,,
79,Jalna,Mazo de la Roche,,Canada,Jalna (novel series),,,,,,,,
81,The March: A Novel,E. L. Doctorow,,United States,The March (novel),,,,,,,,
84,The Curious Incident of the Dog in the Night-Time,Mark Haddon,,UK,The Curious Incident of the Dog in the Night-Time,,,,,,,,
85,Solomon Gursky Was Here,Mordecai Richler,,Canada,Solomon Gursky Was Here,,,,,,,,
88,Unless,Carol Shields,,Canada,Unless,,,,,,,,
89,We Need New Names,NoViolet Bulawayo,,Zimbabwe,We Need New Names,,,,,,,,
91,Dirt Music,Tim Winton,,Australia,Dirt Music,,,,,,,,
94,The English Patient,Michael Ondaatje,,North Africa,The English Patient,,,,,,,,
96,The Islands of Unwisdom,Robert Graves,,Solomon Islands,The Islands of Unwisdom,,,,,,,,
97,Theft: A Love Story,Peter Carey,,Australia,Theft: A Love Story,,,,,,,,
99,Max Havelaar of De koffiveilingen der Nederlandsche Handelmaatschappij,Multatuli,,Netherlands,Max Havelaar,,,,,,,,
100,An Instant in the Wind,André Brink,,South Africa,An Instant in the Wind,,,,,,,,
105,Shōgun,James Clavell,,Japan,Shōgun (novel),,,,,,,,
109,Child 44,Tom Rob Smith,,Soviet Union,Child 44,,,,,,,,
113,Jonathan Strange & Mr Norrell,Susanna Clarke,,England,Jonathan Strange & Mr Norrell,,,,,,,,
114,Hunger's Brides,W. Paul Anderson,,Mexico,Hunger's Brides,,,,,,,,
115,Here Be Dragons,Sharon Kay Penman,,Wales,Here Be Dragons,,,,,,,,
118,Illywhacker,Peter Carey,,Australia,Illywhacker,,,,,,,,
119,Cold Mountain,Charles Frazier,,USA,Cold Mountain (novel),,,,,,,,
125,Anthills of the Savannah,Chinua Achebe,,West Africa,Anthills of the Savannah,,,,,,,,
133,Memoirs of Hadrian,Marguerite Yourcenar,,Roman Empire,Memoirs of Hadrian,,,,,,,,
138,Small Things like These,Claire Keegan,,Ireland,Small Things Like These,,,,,,,,
144,Empire of the Moghul,Alex Rutherford (pen name for Diana and Michael Preston),,India,Empire of the Moghul,,,,,,,,
148,The Dream of the Red Chamber,,,China,The Story of the Stone,,,,,,,,
151,The Deer and the Cauldron,,,China,The Deer and the Cauldron,,,,,,,,
156,If I Survive You,Jonathan Escoffery,,United States,If I Survive You,,,,,,,,
160,Cartucho,Nellie Campobello,,Mexico,Cartucho,,,,,,,,
167,The Knights of the Cross,Henryk Sienkiewicz,,Poland,The Knights of the Cross,,,,,,,,
176,The Greenlanders,Jane Smiley,,Greenland,The Greenlanders,,,,,,,,
178,The Home and the World,Rabindranath Tagore,,India,The Home and the World,,,,,,,,
183,Les Misérables,"{'name': 'The author of this book had in his hands, in 1848, the special report on this subject made to the Prefect of Police in 1832.'}",,France,Les Misérables,,,,,,,,
186,The Life of Klim Samgin,Maksim Gorky,,Russia,The Life of Klim Samgin,,,,,,,,
187,The Orenda,,,Canada,The Orenda,,,,,,,,
188,The Glory,Herman Wouk,,Israel,The Glory,,,,,,,,
190,Russka,Edward Rutherfurd,,Russia,Russka (novel),,,,,,,,
192,Silence,Shūsaku Endō,,Japan,Silence (Endō novel),,,,,,,,
207,The Red Badge of Courage,Stephen Crane,,United States,The Red Badge of Courage,,,,,,,,
209,The Hope,Herman Wouk,,Israel,The Hope (novel),,,,,,,,
210,And Quiet Flows the Don,Mikhail Aleksandrovich Sholokhov,,Russia,And Quiet Flows the Don,,,,,,,,
212,The Fort,Bernard Cornwell,,United States,The Fort (novel),,,,,,,,
214,The Haj,Leon Uris,,Near East,The Haj (novel),,,,,,,,
224,English Passengers,Matthew Kneale,,Tasmania,English Passengers,,,,,,,,
225,Redgauntlet,Walter Scott,,Scotland,Redgauntlet,,,,,,,,
242,The Book of Evidence,John Banville,,Ireland,The Book of Evidence,,,,,,,,
244,In a Strange Room,Damon Galgut,,South Africa,In a Strange Room,,,,,,,,
246,War and Peace,Leo Tolstoy,,Russia,War and Peace,,,,,,,,
250,"Life in the Argentine Republic in the Days of the Tyrants; or, Civilization and Barbarism",Domingo Sarmiento,,Argentina,Facundo,,,,,,,,
253,The Riders,Tim Winton,,Ireland,The Riders,,,,,,,,
254,Child of All Nations,Pramoedya Ananta Toer,,Indonesia,Anak Semua Bangsa,,,,,,,,
258,El Conde Lucanor,Don Juan Manuel,,Spain,Tales of Count Lucanor,,,,,,,,
259,River God,Wilbur Smith,,Egypt,River God,,,,,,,,
260,The Remains of the Day,Kazuo Ishiguro,,United Kingdom,The Remains of the Day,,,,,,,,
263,Figures in a Landscape,Barry England,,Unnamed country in the tropics,Figures in a Landscape,,,,,,,,
264,The Big Chapel,Thomas Kilroy,,Ireland,The Big Chapel,,,,,,,,
267,The Tale of the Heike,Unknown (Wikipedia article about a book),,Japan,The Tale of the Heike,,,,,,,,
274,Captain Blood,Rafael Sabatini,,Caribbean,Captain Blood (novel),,,,,,,,
287,Iracema,José de Alencar,,Brazil,Iracema,,,,,,,,
289,Les Rois maudits,Maurice Druon,,France,Les Rois maudits,,,,,,,,
304,Count Belisarius,Robert Graves,,Byzantine Empire,Count Belisarius,,,,,,,,
309,An Artist of the Floating World,Kazuo Ishiguro,,Japan,An Artist of the Floating World,,,,,,,,
312,My Theodosia,Anya Seton,,United States,My Theodosia,,,,,,,,
314,The Lost Dog,Michelle de Kretser,,Australia,The Lost Dog,,,,,,,,
316,Ninety-Three,Victor Hugo,,France,Ninety-Three,,,,,,,,
317,Kristin Lavransdatter,Sigrid Undset,,Norway,Kristin Lavransdatter,,,,,,,,
320,If Nobody Speaks of Remarkable Things,Jon McGregor,,UK,Reservoir 13,,,,,,,,
324,Rumours of Rain,André Brink,,South Africa,Rumours of Rain,,,,,,,,
335,The Known World,Edward P. Jones,,USA,Chesapeake (novel),,,,,,,,
340,A Place of Greater Safety,Hilary Mantel,,France,A Place of Greater Safety,,,,,,,,
351,Whirlwind,James Clavell,,Iran,Whirlwind (novel),,,,,,,,
359,A Spell of Good Things,Ayọ̀bámi Adébáyọ̀,,Nigeria,A Spell of Good Things,,,,,,,,
360,The Seven Moons of Maali Almeida,Shehan Karunatilaka,,Sri Lanka,The Seven Moons of Maali Almeida,,,,,,,,
361,The Fencing Master,Arturo Pérez-Reverte,,Spain,The Fencing Master,,,,,,,,
362,Black Dogs,Ian McEwan,,France,Black Dogs,,,,,,,,
376,Cézanne's Quarry,Barbara Corrado Pope,,France,Cézanne’s Quarry,,,,,,,,
379,Royal Flash,George MacDonald Fraser,,Asia,Flashman (novel),,,,,,,,
382,The Sunne in Splendour,Sharon Kay Penman,,England,The Sunne in Splendour,,,,,,,,
401,The Red Wheel,Aleksandr Solzhenitsyn,,Russia,The Red Wheel,,,,,,,,
405,Musashi,Eiji Yoshikawa,,Japan,Musashi (novel),,,,,,,,
407,I promessi sposi,Alessandro Manzoni,,Italy,The Betrothed (Manzoni novel),,,,,,,,
408,The Episodios Nacionales,Benito Pérez Galdós,,Spain,Episodios Nacionales,,,,,,,,
410,A Brief History of Seven Killings,Marlon James,,Jamaica,A Brief History of Seven Killings,,,,,,,,
411,Lion of Ireland,Morgan Llywelyn,,Ireland,Lion of Ireland,,,,,,,,
414,Khaak Aur Khoon,Nasīm Ḥijāzī,,Pakistan,Khaak aur Khoon,,,,,,,,
419,Masters of Rome,Colleen McCullough,,Rome,Masters of Rome,,,,,,,,
441,Shadow Sisters,unknown (as per Wikipedia article),,China,Chia Black Dragon,,,,,,,,
442,God on the Rocks,Jane Gardam,,England,God on the Rocks,,,,,,,,
455,Wolf Hall,Hilary Mantel,,England,Wolf Hall,,,,,,,,
456,Maps for Lost Lovers,Nadeem Aslam,,England,Maps for Lost Lovers,,,,,,,,
458,The Year of the Runaways,Sunjeev Sahota,,UK,The Year of the Runaways,,,,,,,,
459,Babouk,Guy Endore,,US,Babouk,,,,,,,,
461,The Colony of Unrequited Dreams,Wayne Johnston,,Canada,The Colony of Unrequited Dreams,,,,,,,,
471,Chanakya's Chant,Ashwin Sanghi,,India,Chanakya's Chant,,,,,,,,
474,Romance of the Three Kingdoms,Luo Guanzhong,,China,Romance of the Three Kingdoms,,,,,,,,
478,The Master of Hestviken,Sigrid Undset,,Norway,The Master of Hestviken,,,,,,,,
482,Aangan,Khadija Mastoor,,Pakistan,Aangan (novel),,,,,,,,
487,Baltasar and Blimunda,José Saramago,,Portugal,Baltasar and Blimunda,,,,,,,,
495,The Pickup,Nadine Gordimer,,South Africa,The Pickup,,,,,,,,
501,The Vivisector,Patrick White,,Australia,The Vivisector,,,,,,,,
503,The Chant of Jimmie Blacksmith,Thomas Keneally,,Australia,The Chant of Jimmie Blacksmith,,,,,,,,
505,The Ghost Road,Pat Barker,,Melanesia,The Ghost Road,,,,,,,,
508,The Death of Crispin Dingle,Peter Carey,,Australia,Remembering Babylon,,,,,,,,
515,This Earth of Mankind,Pramoedya Ananta Toer,,Indonesia,Bumi Manusia,,,,,,,,
540,Season of the Jew,Maurice Shadbolt,,New Zealand,Season of the Jew,,,,,,,,
546,Texas,James Michener,,United States,Texas (novel),,,,,,,,
551,Santa Evita,Tomás Eloy Martínez,,Argentina,Santa Evita,,,,,,,,
568,Imperial Woman,Pearl S. Buck,,China,Imperial Woman,,,,,,,,
569,Vengeance,George Jonas,,Israel,Vengeance (Jonas book),,,,,,,,
575,The Restraint of Beasts,Magnus Mills,,Scotland,The Restraint of Beasts,,,,,,,,
576,The Black Coat,,,Bangladesh,The Black Coat,,,,,,,,
578,The Luminaries,Eleanor Catton,,New Zealand,The Luminaries,,,,,,,,
592,Caballero: A Historical Novel,Jovita González and Eve Raleigh,,Mexico,Caballero: A Historical Novel,,,,,,,,
593,The Sorrow of War,Bảo Ninh,,Vietnam,The Sorrow of War,,,,,,,,
598,The Long Song,Andrea Levy,,Jamaica,The Long Song,,,,,,,,
599,The Conservationist,Nadine Gordimer,,South Africa,The Conservationist,,,,,,,,
602,Sixty Lights,Gail Jones,,Australia,Sixty Lights,,,,,,,,
604,The Long Take,Robin Robertson,,United States,The Long Take,,,,,,,,
606,the bone people,Keri Hulme,,New Zealand,The Bone People,,,,,,,,
626,The Little Stranger,Sarah Waters,,United Kingdom,The Little Stranger,,,,,,,,
631,The Testaments,Margaret Atwood,,Canada,The Testaments,,,,,,,,
634,Skios,Michael Frayn,,Greece,Skios,,,,,,,,
637,Katherine,Anya Seton,,England,Katherine (Seton novel),,,,,,,,
639,La vida y hechos de Estebanillo González,Unknown,,Spain,Estebanillo González,,,,,,,,
642,What's Bred in the Bone,Robertson Davies,,Canada,What's Bred in the Bone,,,,,,,,
646,The Wake,Paul Kingsnorth,,England,The Wake (novel),,,,,,,,
650,Bring Up the Bodies,Hilary Mantel,,England,Bring Up the Bodies,,,,,,,,
651,Under the Frog,Tibor Fischer,,Hungary,Under the Frog,,,,,,,,
654,Lost Children Archive,Valeria Luiselli,,U.S.,Lost Children Archive,,,,,,,,
663,From Scenes Like These,Gordon Williams,,Scotland,From Scenes Like These,,,,,,,,
672,Aag Ka Darya,Qurratulain Hyder,,India,Aag Ka Darya,,,,,,,,
675,The Kingdom of This World,Alejo Carpentier,,Haiti,The Kingdom of This World,,,,,,,,
1,The Mars Room,Rachel Kushner,San Francisco,United States,The Mars Room,"San Francisco, United States","San Francisco, California, United States",United States,"San Francisco, California, United States","San Francisco, California, United States",37.7792588,-122.4193286,"San Francisco, California, United States"
2,The Missing Italian Girl,Barbara Corrado Pope,Paris,France,The Missing Italian Girl,"Paris, France","Paris, Île-de-France, France métropolitaine, France",France,"Paris, Île-de-France, France métropolitaine, France","Paris, Île-de-France, France métropolitaine, France",48.8534951,2.3483915,"Paris, Île-de-France, France métropolitaine, France"
4,Brazil Red,Jean-Christophe Rufin,Rio de Janeiro,Brazil,Brazil Red,"Rio de Janeiro, Brazil","Rio de Janeiro, Região Geográfica Imediata do Rio de Janeiro, Região Metropolitana do Rio de Janeiro, Região Geográfica Intermediária do Rio de Janeiro, Rio de Janeiro, Região Sudeste, Brasil",Brasil,"Rio de Janeiro, Região Geográfica Imediata do Rio de Janeiro, Região Metropolitana do Rio de Janeiro, Região Geográfica Intermediária do Rio de Janeiro, Rio de Janeiro, Região Sudeste, Brasil","Rio de Janeiro, Região Geográfica Imediata do Rio de Janeiro, Região Metropolitana do Rio de Janeiro, Região Geográfica Intermediária do Rio de Janeiro, Rio de Janeiro, Região Sudeste, Brasil",-22.9110137,-43.2093727,"Rio de Janeiro, Região Geográfica Imediata do Rio de Janeiro, Região Metropolitana do Rio de Janeiro, Região Geográfica Intermediária do Rio de Janeiro, Rio de Janeiro, Região Sudeste, Brasil"
5,New York: A Novel,Edward Rutherfurd,New York City,United States,New York (novel),"New York City, United States","City of New York, New York, United States",United States,"City of New York, New York, United States","City of New York, New York, United States",40.7127281,-74.0060152,"City of New York, New York, United States"
7,According to Mark,Penelope Lively,London,England,According to Mark,"London, England","London, Greater London, England, United Kingdom","England, United Kingdom","London, Greater London, England, United Kingdom","London, Greater London, England, United Kingdom",51.5074456,-0.1277653,"London, Greater London, England, United Kingdom"
8,Briefing for a Descent into Hell,Doris Lessing,London,United Kingdom,Briefing for a Descent into Hell,"London, United Kingdom","London, Greater London, England, United Kingdom",United Kingdom,"London, Greater London, England, United Kingdom","London, Greater London, England, United Kingdom",51.5074456,-0.1277653,"London, Greater London, England, United Kingdom"
9,Alaska,James Michener,Nome,United States,Alaska (novel),"Nome, United States","Nome, Unorganized Borough, Alaska, United States",United States,"Nome, Unorganized Borough, Alaska, United States","Nome, Unorganized Borough, Alaska, United States",64.51282,-165.4242538141349,"Nome, Unorganized Borough, Alaska, United States"
11,Mrs. Eckdorf in O'Neill's Hotel,William Trevor,Dublin,Ireland,Mrs Eckdorf in O'Neill's Hotel,"Dublin, Ireland","Dublin, County Dublin, Leinster, Éire / Ireland",Éire / Ireland,"Dublin, County Dublin, Leinster, Éire / Ireland","Dublin, County Dublin, Leinster, Éire / Ireland",53.3493795,-6.2605593,"Dublin, County Dublin, Leinster, Éire / Ireland"
13,St. Urbain's Horseman,Mordecai Richler,London and Montreal,Canada,St. Urbain's Horseman,"London and Montreal, Canada",,Canada,,Canada,61.0666922,-107.991707,Canada
19,Empress,Shan Sa,Beijing,China,Empress (novel),"Beijing, China","北京市, 中国",中国,"北京市, 中国","北京市, 中国",40.190632,116.412144,"北京市, 中国"
21,The Playmaker,Thomas Keneally,Sydney Cove,Australia,The Playmaker,"Sydney Cove, Australia","Sydney Cove, Quay Quarter, Sydney, New South Wales, 2000, Australia",Australia,"Sydney Cove, Quay Quarter, Sydney, New South Wales, 2000, Australia","Sydney Cove, Quay Quarter, Sydney, New South Wales, 2000, Australia",-33.85808355,151.2121015347458,"Sydney Cove, Quay Quarter, Sydney, New South Wales, 2000, Australia"
22,Noble House,James Clavell,Hong Kong,Hong Kong (British Crown Colony),Noble House (book),"Hong Kong, Hong Kong (British Crown Colony)","香港 Hong Kong, 中国",,,"香港 Hong Kong, 中国",22.350627,114.1849161,"香港 Hong Kong, 中国"
24,The Rover,Joseph Conrad,Hyères,France,The Rover (novel),"Hyères, France","Hyères, Toulon, Var, Provence-Alpes-Côte d'Azur, France métropolitaine, 83400, France",France,"Hyères, Toulon, Var, Provence-Alpes-Côte d'Azur, France métropolitaine, 83400, France","Hyères, Toulon, Var, Provence-Alpes-Côte d'Azur, France métropolitaine, 83400, France",43.1202573,6.1301614,"Hyères, Toulon, Var, Provence-Alpes-Côte d'Azur, France métropolitaine, 83400, France"
26,The Emigrants,Vilhelm Moberg,Karlshamn,Sweden,The Emigrants (novels),"Karlshamn, Sweden","Karlshamn, Karlshamns kommun, Blekinge län, 374 36, Sverige",Sverige,"Karlshamns kommun, Blekinge län, Sverige","Karlshamns kommun, Blekinge län, Sverige",56.25,14.866667,"Karlshamns kommun, Blekinge län, Sverige"
28,Martin Dressler: The Tale of an American Dreamer,Steven Millhauser,New York City,United States,Martin Dressler: The Tale of an American Dreamer,"New York City, United States","City of New York, New York, United States",United States,"City of New York, New York, United States","City of New York, New York, United States",40.7127281,-74.0060152,"City of New York, New York, United States"
30,Love and Summer,William Trevor,Rathmoye,Ireland,Love and Summer,"Rathmoye, Ireland",,Éire / Ireland,,Éire / Ireland,52.865196,-7.9794599,Éire / Ireland
32,La regenta,"Leopoldo Alas, also known as Clarín",Vetusta,Spain,La regenta,"Vetusta, Spain","Vetusta, Calle Jovellanos, Colonia Marqués de San Feliz, Casco Antiguo, Centro y casco histórico, Oviedo, Asturias / Asturies, 33080, España",España,"Vetusta, Calle Vetusta, Fozaneldi, San Lázaro y Otero, Oviedo, 33010, España","Vetusta, Calle Vetusta, Fozaneldi, San Lázaro y Otero, Oviedo, 33010, España",43.3613944,-5.8323669,"Vetusta, Calle Vetusta, Fozaneldi, San Lázaro y Otero, Oviedo, 33010, España"
34,The Faithful River,Stefan Żeromski,Warsaw,Poland,The Faithful River,"Warsaw, Poland","Warszawa, województwo mazowieckie, Polska",Polska,"Warszawa, województwo mazowieckie, Polska","Warszawa, województwo mazowieckie, Polska",52.2337172,21.071432235636493,"Warszawa, województwo mazowieckie, Polska"
37,Troubles,J. G. Farrell,Kilnalough (fictional),Ireland,Troubles (novel),"Kilnalough (fictional), Ireland",,Éire / Ireland,,Éire / Ireland,52.865196,-7.9794599,Éire / Ireland
39,El Buscón,,Toledo,Spain,El Buscón,"Toledo, Spain","Toledo, Castilla-La Mancha, España",España,"Toledo, Castilla-La Mancha, España","Toledo, Castilla-La Mancha, España",39.8560679,-4.0239568,"Toledo, Castilla-La Mancha, España"
41,Mexico,James A. Michener,Toledo,Mexico,Mexico (novel),"Toledo, Mexico","Toledo, Castilla-La Mancha, España","Ciudad de México, Cuauhtémoc, Ciudad de México, México","Toledo, San Juan del Río, Durango, 34480, México","Toledo, San Juan del Río, Durango, 34480, México",24.8007984,-104.4644063,"Toledo, San Juan del Río, Durango, 34480, México"
44,Ivanhoe,Walter Scott,Ashby-De-La-Zouch,England,Ivanhoe,"Ashby-De-La-Zouch, England","Ashby-de-la-Zouch, North West Leicestershire, Leicestershire, England, United Kingdom","England, United Kingdom","Ashby-de-la-Zouch, North West Leicestershire, Leicestershire, England, United Kingdom","Ashby-de-la-Zouch, North West Leicestershire, Leicestershire, England, United Kingdom",52.7471344,-1.4712148,"Ashby-de-la-Zouch, North West Leicestershire, Leicestershire, England, United Kingdom"
49,Kydd,Julian Stockwin,Guildford,United Kingdom,Kydd (novel),"Guildford, United Kingdom","Guildford, Surrey, England, United Kingdom",United Kingdom,"Guildford, Surrey, England, United Kingdom","Guildford, Surrey, England, United Kingdom",51.2356068,-0.5732063,"Guildford, Surrey, England, United Kingdom"
50,The History of Henry Esmond,William Makepeace Thackeray,Virginia,Great Britain,The History of Henry Esmond,"Virginia, Great Britain","Virginia, United States","Great Britain, United Kingdom",,"Virginia, United States",37.1232245,-78.4927721,"Virginia, United States"
54,The Lady of the Wheel,Angelo F. Coniglio,Racalmuto,Sicily,The Lady of the Wheel,"Racalmuto, Sicily","Racalmuto, Agrigento, Sicilia, 92020, Italia","Sicilia, Italia","Racalmuto, Agrigento, Sicilia, 92020, Italia","Racalmuto, Agrigento, Sicilia, 92020, Italia",37.4089397,13.7324019,"Racalmuto, Agrigento, Sicilia, 92020, Italia"
57,O Arquipélago,Erico Verissimo,Santa Fé,Brazil,O Tempo e o Vento,"Santa Fé, Brazil","Santa Fe, Santa Fe County, New Mexico, United States",Brasil,"Santa Fé, Região Geográfica Imediata de Maringá, Região Geográfica Intermediária de Maringá, Paraná, Região Sul, 86770-000, Brasil","Santa Fé, Região Geográfica Imediata de Maringá, Região Geográfica Intermediária de Maringá, Paraná, Região Sul, 86770-000, Brasil",-23.039993,-51.808014,"Santa Fé, Região Geográfica Imediata de Maringá, Região Geográfica Intermediária de Maringá, Paraná, Região Sul, 86770-000, Brasil"
62,A Thousand Splendid Suns,Khaled Hosseini,Lahore,Pakistan,A Case of Exploding Mangoes,"Lahore, Pakistan","لاہور, ضلع لاہور, لاہور ڈویژن, پنجاب, 54500, پاکستان",پاکستان,"لاہور, ضلع لاہور, لاہور ڈویژن, پنجاب, 54500, پاکستان","لاہور, ضلع لاہور, لاہور ڈویژن, پنجاب, 54500, پاکستان",31.5656822,74.3141829,"لاہور, ضلع لاہور, لاہور ڈویژن, پنجاب, 54500, پاکستان"
63,Ragtime,E. L. Doctorow,California,USA,Ragtime (novel),"California, USA","California, United States",United States,"California, United States","California, United States",36.7014631,-118.755997,"California, United States"
64,Jamrach's Menagerie,Carol Birch,London,United Kingdom,Jamrach's Menagerie,"London, United Kingdom","London, Greater London, England, United Kingdom",United Kingdom,"London, Greater London, England, United Kingdom","London, Greater London, England, United Kingdom",51.5074456,-0.1277653,"London, Greater London, England, United Kingdom"
65,The Source,James A. Michener,Makor,Israel,The Source (novel),"Makor, Israel","Makor, Martap, Vina, Adamaoua, Cameroun",ישראל,"המקור, נחלת גנים, רמת גן, נפת תל אביב, מחוז תל אביב, 5255230, ישראל","המקור, נחלת גנים, רמת גן, נפת תל אביב, מחוז תל אביב, 5255230, ישראל",32.0914311,34.8174146,"המקור, נחלת גנים, רמת גן, נפת תל אביב, מחוז תל אביב, 5255230, ישראל"
66,How Late It Was How Late,James Kelman,Glasgow,Scotland,"How late it was, how late","Glasgow, Scotland","Glasgow, Glasgow City, Alba / Scotland, G2 1DY, United Kingdom","Alba / Scotland, United Kingdom","Glasgow, Glasgow City, Alba / Scotland, G2 1DY, United Kingdom","Glasgow, Glasgow City, Alba / Scotland, G2 1DY, United Kingdom",55.861155,-4.2501687,"Glasgow, Glasgow City, Alba / Scotland, G2 1DY, United Kingdom"
71,The Sicilian,,Palermo,Italy,The Sicilian,"Palermo, Italy","Palermo, Sicilia, Italia",Italia,"Palermo, Sicilia, Italia","Palermo, Sicilia, Italia",38.1112268,13.3524434,"Palermo, Sicilia, Italia"
73,The Book Thief,Zusak,Germany (Görlitz),Germany,The Book Thief,"Germany (Görlitz), Germany","Görlitz, Sachsen, Deutschland",Deutschland,,"Görlitz, Sachsen, Deutschland",51.1563185,14.991018,"Görlitz, Sachsen, Deutschland"
74,Exit West,Mohsin Hamid,"London- proper and Marin County, California (and other fictional locations)","Global, various countries",Exit West,"London- proper and Marin County, California (and other fictional locations), Global, various countries",,,,,,,
75,The Heretic: A Novel of the Inquisition,Miguel Delibes,Valladolid,Spain,The Heretic: A Novel of the Inquisition,"Valladolid, Spain","Valladolid, Castilla y León, España",España,"Valladolid, Castilla y León, España","Valladolid, Castilla y León, España",41.6521807,-4.728605,"Valladolid, Castilla y León, España"
76,Sarum,Edward Rutherfurd,Salisbury,England,Sarum (novel),"Salisbury, England","Salisbury, Wiltshire, England, United Kingdom","England, United Kingdom","Salisbury, Wiltshire, England, United Kingdom","Salisbury, Wiltshire, England, United Kingdom",51.0690613,-1.7954134,"Salisbury, Wiltshire, England, United Kingdom"
78,The Sense of an Ending,Julian Barnes,London,United Kingdom,The Sense of an Ending,"London, United Kingdom","London, Greater London, England, United Kingdom",United Kingdom,"London, Greater London, England, United Kingdom","London, Greater London, England, United Kingdom",51.5074456,-0.1277653,"London, Greater London, England, United Kingdom"
80,The Mask of Apollo,Mary Renault,Syracuse,Greece,The Mask of Apollo,"Syracuse, Greece","City of Syracuse, Onondaga County, New York, United States",Ελλάς,,"City of Syracuse, Onondaga County, New York, United States",43.0481221,-76.1474244,"City of Syracuse, Onondaga County, New York, United States"
83,Purple Hibiscus,Chimamanda Ngozi Adichie,Enugu,Nigeria,Purple Hibiscus,"Enugu, Nigeria","Enugu, Nigeria",Nigeria,"Enugu, Nigeria","Enugu, Nigeria",6.5536094,7.4143061,"Enugu, Nigeria"
86,Slow Man,J.M. Coetzee,Adelaide,Australia,Slow Man,"Adelaide, Australia","Adelaide, Adelaide City Council, South Australia, Australia",Australia,"Adelaide, Adelaide City Council, South Australia, Australia","Adelaide, Adelaide City Council, South Australia, Australia",-34.9281805,138.5999312,"Adelaide, Adelaide City Council, South Australia, Australia"
87,Shalimar the Clown,Salman Rushdie,Srinagar,India,Shalimar the Clown,"Srinagar, India","Srinagar, Srinagar (South), Srinagar, Jammu and Kashmir, 190001, India",India,"Srinagar, Srinagar (South), Srinagar, Jammu and Kashmir, 190001, India","Srinagar, Srinagar (South), Srinagar, Jammu and Kashmir, 190001, India",34.0747444,74.8204443,"Srinagar, Srinagar (South), Srinagar, Jammu and Kashmir, 190001, India"
93,The Feast of the Goat,Mario Vargas Llosa,Santo Domingo,Dominican Republic,The Feast of the Goat,"Santo Domingo, Dominican Republic","Santo Domingo de Guzmán, Distrito Nacional, República Dominicana",República Dominicana,"Santo Domingo de Guzmán, Distrito Nacional, República Dominicana","Santo Domingo de Guzmán, Distrito Nacional, República Dominicana",18.4801972,-69.942111,"Santo Domingo de Guzmán, Distrito Nacional, República Dominicana"
98,Sea of Poppies,Amitav Ghosh,Calcutta,India,Sea of Poppies,"Calcutta, India","Kolkata, West Bengal, India",India,"Kolkata, West Bengal, India","Kolkata, West Bengal, India",22.5726459,88.3638953,"Kolkata, West Bengal, India"
102,Hawksmoor,Peter Ackroyd,London,United Kingdom,Hawksmoor (novel),"London, United Kingdom","London, Greater London, England, United Kingdom",United Kingdom,"London, Greater London, England, United Kingdom","London, Greater London, England, United Kingdom",51.5074456,-0.1277653,"London, Greater London, England, United Kingdom"
103,The Sorrow of Belgium,Hugo Claus,Kortrijk,Belgium,The Sorrow of Belgium,"Kortrijk, Belgium","Kortrijk, West-Vlaanderen, Vlaanderen, België / Belgique / Belgien",België / Belgique / Belgien,"Kortrijk, West-Vlaanderen, Vlaanderen, België / Belgique / Belgien","Kortrijk, West-Vlaanderen, Vlaanderen, België / Belgique / Belgien",50.8276429,3.2659884,"Kortrijk, West-Vlaanderen, Vlaanderen, België / Belgique / Belgien"
107,The Last Kabbalist of Lisbon,Richard Zimler,Lisbon,Portugal,The Last Kabbalist of Lisbon,"Lisbon, Portugal","Lisboa, Portugal",Portugal,"Lisboa, Portugal","Lisboa, Portugal",38.7077507,-9.1365919,"Lisboa, Portugal"
111,Sword at Sunset,Rosemary Sutcliff,Arfon,United Kingdom,Sword at Sunset,"Arfon, United Kingdom","Arfon, Tryfar, Harlech, Gwynedd, Cymru / Wales, LL46 2YW, United Kingdom",United Kingdom,"Arfon, Tryfar, Harlech, Gwynedd, Cymru / Wales, LL46 2YW, United Kingdom","Arfon, Tryfar, Harlech, Gwynedd, Cymru / Wales, LL46 2YW, United Kingdom",52.857932149999996,-4.109417096003719,"Arfon, Tryfar, Harlech, Gwynedd, Cymru / Wales, LL46 2YW, United Kingdom"
112,Forever Amber,Kenneth Anger,London,England,Forever Amber (novel),"London, England","London, Greater London, England, United Kingdom","England, United Kingdom","London, Greater London, England, United Kingdom","London, Greater London, England, United Kingdom",51.5074456,-0.1277653,"London, Greater London, England, United Kingdom"
116,When We Were Orphans,Kazuo Ishiguro,Shanghai,China,When We Were Orphans,"Shanghai, China","上海市, 黄浦区, 上海市, 200001, 中国",中国,"上海市, 中国","上海市, 中国",31.2312707,121.4700152,"上海市, 中国"
122,In the Country of Men,Hisham Matar,Tripoli,Libya,In the Country of Men,"Tripoli, Libya","طرابلس, ليبيا",ليبيا,"طرابلس, ليبيا","طرابلس, ليبيا",32.896672,13.1777923,"طرابلس, ليبيا"
124,Gai-Jin,James Clavell,Hiroshima,Japan,Gai-Jin (novel),"Hiroshima, Japan","広島市, 広島県, 日本",日本,"広島市, 広島県, 日本","広島市, 広島県, 日本",34.3917241,132.4517589,"広島市, 広島県, 日本"
128,The Roman Mysteries,Caroline Lawrence,Ostia Antica,Roman Empire,The Roman Mysteries,"Ostia Antica, Roman Empire","Ostia Antica, Via Guido Calza, Ostia Antica, Municipio Roma X, Lido di Ostia, Roma, Roma Capitale, Lazio, 00119, Italia","New Lotus House, 485, Roman Road, Old Ford, Bow, London Borough of Tower Hamlets, London, Greater London, England, E3 5LX, United Kingdom",,"Ostia Antica, Via Guido Calza, Ostia Antica, Municipio Roma X, Lido di Ostia, Roma, Roma Capitale, Lazio, 00119, Italia",41.75363735,12.28573991132103,"Ostia Antica, Via Guido Calza, Ostia Antica, Municipio Roma X, Lido di Ostia, Roma, Roma Capitale, Lazio, 00119, Italia"
129,A Passage North,Anuk Arudpragasam,Colombo,Sri Lanka,A Passage North,"Colombo, Sri Lanka","Colombo, Colombo District, Western Province, ශ්‍රී ලංකාව இலங்கை",ශ්‍රී ලංකාව இலங்கை,"Colombo, Colombo District, Western Province, ශ්‍රී ලංකාව இலங்கை","Colombo, Colombo District, Western Province, ශ්‍රී ලංකාව இலங்கை",6.9388614,79.8542005,"Colombo, Colombo District, Western Province, ශ්‍රී ලංකාව இலங்கை"
131,Lee and Grant at Appomattox,MacKinlay Kantor,Appomattox Court House,United States,Lee and Grant at Appomattox,"Appomattox Court House, United States","Appomattox Court House, Old Richmond-Lynchburg Stage Road, Appomattox County, Virginia, 24522, United States",United States,"Appomattox Court House, Old Richmond-Lynchburg Stage Road, Appomattox County, Virginia, 24522, United States","Appomattox Court House, Old Richmond-Lynchburg Stage Road, Appomattox County, Virginia, 24522, United States",37.3760915,-78.8031417,"Appomattox Court House, Old Richmond-Lynchburg Stage Road, Appomattox County, Virginia, 24522, United States"
132,The Antagonists,Ernest K. Gann,Masada,Israel,The Antagonists (Gann novel),"Masada, Israel","מצדה, שביל הסוללה, מועצה אזורית תמר, נפת באר שבע, מחוז הדרום, ישראל",ישראל,"מצדה, שביל הסוללה, מועצה אזורית תמר, נפת באר שבע, מחוז הדרום, ישראל","מצדה, שביל הסוללה, מועצה אזורית תמר, נפת באר שבע, מחוז הדרום, ישראל",31.31564025,35.35389434396094,"מצדה, שביל הסוללה, מועצה אזורית תמר, נפת באר שבע, מחוז הדרום, ישראל"
134,Cue for Treason,T.H. Ruggles Rea,London,England,Cue for Treason,"London, England","London, Greater London, England, United Kingdom","England, United Kingdom","London, Greater London, England, United Kingdom","London, Greater London, England, United Kingdom",51.5074456,-0.1277653,"London, Greater London, England, United Kingdom"
135,The White Guard,Mikhail Bulgakov,Kiev,Ukraine,The White Guard,"Kiev, Ukraine","Київ, Україна",Україна,"Київ, Україна","Київ, Україна",50.4500336,30.5241361,"Київ, Україна"
136,The Stone Carvers,Jane Urquhart,Canada,Canada,The Stone Carvers,"Canada, Canada",Canada,Canada,Canada,Canada,61.0666922,-107.991707,Canada
137,Cry of the Peacock,Gina B. Nahai,Esfahan,Persia/Iran,Cry of the Peacock (novel),"Esfahan, Persia/Iran","اصفهان, بخش مرکزی شهرستان اصفهان, شهرستان اصفهان, استان اصفهان, ایران",ایران,,"اصفهان, بخش مرکزی شهرستان اصفهان, شهرستان اصفهان, استان اصفهان, ایران",32.6707877,51.6650002,"اصفهان, بخش مرکزی شهرستان اصفهان, شهرستان اصفهان, استان اصفهان, ایران"
141,Time to Depart,Lindsey Davis,Londinium,Britannia,The Jupiter Myth,"Londinium, Britannia","London, Greater London, England, United Kingdom","HMY Britannia, Whisky Quay, North Leith, Leith, City of Edinburgh, Alba / Scotland, EH6 6FH, United Kingdom","Britannia, 299, Mare Street, Hackney, London Borough of Hackney, London, Greater London, England, E8 1EJ, United Kingdom","Britannia, 299, Mare Street, Hackney, London Borough of Hackney, London, Greater London, England, E8 1EJ, United Kingdom",51.54587755,-0.05550315727771903,"Britannia, 299, Mare Street, Hackney, London Borough of Hackney, London, Greater London, England, E8 1EJ, United Kingdom"
142,Dragon Seed,Pearl S. Buck,Nanjing,China,Dragon Seed (novel),"Nanjing, China","南京市, 江苏省, 中国",中国,"南京市, 江苏省, 中国","南京市, 江苏省, 中国",32.0438284,118.7788631,"南京市, 江苏省, 中国"
145,The Best of Times,,Bombay,India,A Fine Balance,"Bombay, India","Mumbai Suburban, Maharashtra, India",India,"Mumbai City, Maharashtra, India","Mumbai City, Maharashtra, India",18.9733536,72.82810491917377,"Mumbai City, Maharashtra, India"
147,The Guarani: Brazilian Romance,José de Alencar,Rio,Brazil,The Guarani,"Rio, Brazil","Rio de Janeiro, Região Geográfica Imediata do Rio de Janeiro, Região Metropolitana do Rio de Janeiro, Região Geográfica Intermediária do Rio de Janeiro, Rio de Janeiro, Região Sudeste, Brasil",Brasil,"Rio de Janeiro, Região Geográfica Imediata do Rio de Janeiro, Região Metropolitana do Rio de Janeiro, Região Geográfica Intermediária do Rio de Janeiro, Rio de Janeiro, Região Sudeste, Brasil","Rio de Janeiro, Região Geográfica Imediata do Rio de Janeiro, Região Metropolitana do Rio de Janeiro, Região Geográfica Intermediária do Rio de Janeiro, Rio de Janeiro, Região Sudeste, Brasil",-22.9110137,-43.2093727,"Rio de Janeiro, Região Geográfica Imediata do Rio de Janeiro, Região Metropolitana do Rio de Janeiro, Região Geográfica Intermediária do Rio de Janeiro, Rio de Janeiro, Região Sudeste, Brasil"
150,Jasper Jones,,Corrigan,Australia,Jasper Jones,"Corrigan, Australia","Corrigan, Polk County, Texas, 75939, United States",Australia,"Corrigan, Rainbow Flat, Mid-Coast Council, New South Wales, 2430, Australia","Corrigan, Rainbow Flat, Mid-Coast Council, New South Wales, 2430, Australia",-32.065,152.4677778,"Corrigan, Rainbow Flat, Mid-Coast Council, New South Wales, 2430, Australia"
152,Moon Tiger,Penelope Lively,Cairo,Egypt,Moon Tiger,"Cairo, Egypt","القاهرة, مصر",مصر,"القاهرة, مصر","القاهرة, مصر",30.0443879,31.2357257,"القاهرة, مصر"
153,The House of Doors,Tan Twan Eng,Penang,Federated Malay States,The House of Doors,"Penang, Federated Malay States","Pulau Pinang, Malaysia",,,"Pulau Pinang, Malaysia",5.4065013,100.2559077,"Pulau Pinang, Malaysia"
154,Paddy Clarke Ha Ha Ha,Roddy Doyle,Barrytown,Ireland,Paddy Clarke Ha Ha Ha,"Barrytown, Ireland","Barrytown, Town of Red Hook, Dutchess County, New York, 12507, United States",Éire / Ireland,,"Barrytown, Town of Red Hook, Dutchess County, New York, 12507, United States",41.9998626,-73.9247822,"Barrytown, Town of Red Hook, Dutchess County, New York, 12507, United States"
158,Noli Me Tángere,José Rizal,Manila,Philippines,Noli Me Tángere (novel),"Manila, Philippines","Manila, Capital District, Metro Manila, Pilipinas",Pilipinas,"Manila, Capital District, Metro Manila, Pilipinas","Manila, Capital District, Metro Manila, Pilipinas",14.5906346,120.9799964,"Manila, Capital District, Metro Manila, Pilipinas"
159,The Element of Water,Stevie Davies,Lake Plön,Germany,The Element of Water,"Lake Plön, Germany","Lake House Plön, 1, Fegetasche, Plön, Schleswig-Holstein, 24306, Deutschland",Deutschland,"Lake House Plön, 1, Fegetasche, Plön, Schleswig-Holstein, 24306, Deutschland","Lake House Plön, 1, Fegetasche, Plön, Schleswig-Holstein, 24306, Deutschland",54.153189499999996,10.450517211719745,"Lake House Plön, 1, Fegetasche, Plön, Schleswig-Holstein, 24306, Deutschland"
161,Reading in the Dark,Seamus Deane,Derry,Northern Ireland,Reading in the Dark,"Derry, Northern Ireland","Derry/Londonderry, County Londonderry, Northern Ireland / Tuaisceart Éireann, BT48 6BU, United Kingdom","Northern Ireland / Tuaisceart Éireann, United Kingdom","Derry/Londonderry, County Londonderry, Northern Ireland / Tuaisceart Éireann, BT48 6BU, United Kingdom","Derry/Londonderry, County Londonderry, Northern Ireland / Tuaisceart Éireann, BT48 6BU, United Kingdom",54.9978678,-7.3213056,"Derry/Londonderry, County Londonderry, Northern Ireland / Tuaisceart Éireann, BT48 6BU, United Kingdom"
162,The Travels of Jaimie McPheeters,Robert Lewis Taylor,"St. Louis, Missouri",United States,The Travels of Jaimie McPheeters,"St. Louis, Missouri, United States","Saint Louis, Missouri, United States",United States,"Saint Louis, Missouri, United States","Saint Louis, Missouri, United States",38.6280278,-90.1910154,"Saint Louis, Missouri, United States"
163,Po-on,F. Sionil José,Bagumbayan (now known as Rizal Park),Philippines,Po-on (novel),"Bagumbayan (now known as Rizal Park), Philippines",,Pilipinas,,Pilipinas,12.7503486,122.7312101,Pilipinas
164,The Thousand Autumns of Jacob de Zoet,David Mitchell,Nagasaki,Japan,The Thousand Autumns of Jacob de Zoet,"Nagasaki, Japan","長崎県, 日本",日本,"長崎県, 日本","長崎県, 日本",33.1154683,129.7874339,"長崎県, 日本"
166,The Inheritance of Loss,Kiran Desai,Kalimpong,India,The Inheritance of Loss,"Kalimpong, India","Kalimpong, Kalimpong -I, Kalimpong, West Bengal, 734316, India",India,"Kalimpong, Kalimpong -I, Kalimpong, West Bengal, 734316, India","Kalimpong, Kalimpong -I, Kalimpong, West Bengal, 734316, India",27.0702869,88.4723676,"Kalimpong, Kalimpong -I, Kalimpong, West Bengal, 734316, India"
169,Night Boat to Tangier,Kevin Barry,Algeciras,Spain,Night Boat to Tangier,"Algeciras, Spain","Algeciras, Campo de Gibraltar, Cádiz, Andalucía, España",España,"Algeciras, Campo de Gibraltar, Cádiz, Andalucía, España","Algeciras, Campo de Gibraltar, Cádiz, Andalucía, España",36.1311725,-5.4473991,"Algeciras, Campo de Gibraltar, Cádiz, Andalucía, España"
170,Don Quixote of La Mancha,Miguel de Cervantes,La Mancha,Spain,Don Quixote,"La Mancha, Spain","La Mancha, Guerrero, Chihuahua, México",España,"La Mancha, Castilla-La Mancha, España","La Mancha, Castilla-La Mancha, España",39.08328815,-3.327201452922372,"La Mancha, Castilla-La Mancha, España"
171,Lydia Bailey,Kenneth Roberts,Haiti,Haiti,Lydia Bailey (novel),"Haiti, Haiti",Ayiti,Ayiti,Ayiti,Ayiti,19.1399952,-72.3570972,Ayiti
172,Bila Yarrudhanggalangdhuray,Anita Heiss,Gundagai,Australia,Bila Yarrudhanggalangdhuray,"Gundagai, Australia","Gundagai, Cootamundra-Gundagai Regional Council, New South Wales, 2722, Australia",Australia,"Gundagai, Cootamundra-Gundagai Regional Council, New South Wales, 2722, Australia","Gundagai, Cootamundra-Gundagai Regional Council, New South Wales, 2722, Australia",-35.0614045,148.1059794,"Gundagai, Cootamundra-Gundagai Regional Council, New South Wales, 2722, Australia"
175,The Other Side of the Bridge,Mary Lawson,Struan,Canada,The Other Side of the Bridge,"Struan, Canada","Struan, Highland, Alba / Scotland, IV56 8FN, United Kingdom",Canada,"Struan, Eagle Creek No. 376, Saskatchewan, Canada","Struan, Eagle Creek No. 376, Saskatchewan, Canada",52.3193493,-107.596559,"Struan, Eagle Creek No. 376, Saskatchewan, Canada"
179,My Left Foot,Christy Brown,Dublin,Ireland,Down All the Days,"Dublin, Ireland","Dublin, County Dublin, Leinster, Éire / Ireland",Éire / Ireland,"Dublin, County Dublin, Leinster, Éire / Ireland","Dublin, County Dublin, Leinster, Éire / Ireland",53.3493795,-6.2605593,"Dublin, County Dublin, Leinster, Éire / Ireland"
180,The Public Image,Muriel Spark,Rome,Italy,The Public Image,"Rome, Italy","Roma, Roma Capitale, Lazio, Italia",Italia,"Roma, Roma Capitale, Lazio, Italia","Roma, Roma Capitale, Lazio, Italia",41.8933203,12.4829321,"Roma, Roma Capitale, Lazio, Italia"
181,Shaheen,Naseem Hijazi,Granada,Spain,Shaheen (novel),"Granada, Spain","Granada, Comarca de la Vega de Granada, Granada, Andalucía, España",España,"Granada, Comarca de la Vega de Granada, Granada, Andalucía, España","Granada, Comarca de la Vega de Granada, Granada, Andalucía, España",37.1734995,-3.5995337,"Granada, Comarca de la Vega de Granada, Granada, Andalucía, España"
182,King Solomon's Mines,H. Rider Haggard,Kukuanaland (NA),Zambia/Democratic Republic of Congo,King Solomon's Mines,"Kukuanaland (NA), Zambia/Democratic Republic of Congo",,"Embassy of the Democratic Republic Of Congo, Parirenyetwa Road, Fairview, Lusaka, Lusaka District, Lusaka Province, Zambia",,"Embassy of the Democratic Republic Of Congo, Parirenyetwa Road, Fairview, Lusaka, Lusaka District, Lusaka Province, Zambia",-15.4139213,28.289698,"Embassy of the Democratic Republic Of Congo, Parirenyetwa Road, Fairview, Lusaka, Lusaka District, Lusaka Province, Zambia"
184,The Reader,Bernhard Schlink,Berlin,Germany,Earthly Powers,"Berlin, Germany","Berlin, Deutschland",Deutschland,"Berlin, Deutschland","Berlin, Deutschland",52.5108638,13.3989421,"Berlin, Deutschland"
185,Washington Black,Esi Edugyan,Marrakesh,Morocco,Washington Black,"Marrakesh, Morocco","Marrakech ⵎⵕⵕⴰⴽⵯⵛ مراكش, arrondissement de Marrakech-Medina مراكش المدينة, Pachalik de Marrakech, Préfecture de Marrakech عمالة مراكش, Marrakech-Safi ⵎⵕⵕⴰⴽⵛ-ⴰⵙⴼⵉ مراكش-أسفي, Maroc ⵍⵎⵖⵔⵉⴱ المغرب","Maroc / ⵍⵎⵖⵔⵉⴱ / المغرب, Maroc ⵍⵎⵖⵔⵉⴱ المغرب","Marrakech ⵎⵕⵕⴰⴽⵯⵛ مراكش, arrondissement de Marrakech-Medina مراكش المدينة, Pachalik de Marrakech, Préfecture de Marrakech عمالة مراكش, Marrakech-Safi ⵎⵕⵕⴰⴽⵛ-ⴰⵙⴼⵉ مراكش-أسفي, Maroc ⵍⵎⵖⵔⵉⴱ المغرب","Marrakech ⵎⵕⵕⴰⴽⵯⵛ مراكش, arrondissement de Marrakech-Medina مراكش المدينة, Pachalik de Marrakech, Préfecture de Marrakech عمالة مراكش, Marrakech-Safi ⵎⵕⵕⴰⴽⵛ-ⴰⵙⴼⵉ مراكش-أسفي, Maroc ⵍⵎⵖⵔⵉⴱ المغرب",31.6258257,-7.9891608,"Marrakech ⵎⵕⵕⴰⴽⵯⵛ مراكش, arrondissement de Marrakech-Medina مراكش المدينة, Pachalik de Marrakech, Préfecture de Marrakech عمالة مراكش, Marrakech-Safi ⵎⵕⵕⴰⴽⵛ-ⴰⵙⴼⵉ مراكش-أسفي, Maroc ⵍⵎⵖⵔⵉⴱ المغرب"
189,Skippy Dies,Paul Murray,Dublin,Ireland,Skippy Dies,"Dublin, Ireland","Dublin, County Dublin, Leinster, Éire / Ireland",Éire / Ireland,"Dublin, County Dublin, Leinster, Éire / Ireland","Dublin, County Dublin, Leinster, Éire / Ireland",53.3493795,-6.2605593,"Dublin, County Dublin, Leinster, Éire / Ireland"
191,La Reine Margot,"Alexandre Dumas, père",Paris,France,La Reine Margot (novel),"Paris, France","Paris, Île-de-France, France métropolitaine, France",France,"Paris, Île-de-France, France métropolitaine, France","Paris, Île-de-France, France métropolitaine, France",48.8534951,2.3483915,"Paris, Île-de-France, France métropolitaine, France"
193,Poland,James A. Michener,Bukowo,Poland,Poland (novel),"Bukowo, Poland","Bukowo, gmina Bartoszyce, powiat bartoszycki, województwo warmińsko-mazurskie, 11-200, Polska",Polska,"Bukowo, gmina Bartoszyce, powiat bartoszycki, województwo warmińsko-mazurskie, 11-200, Polska","Bukowo, gmina Bartoszyce, powiat bartoszycki, województwo warmińsko-mazurskie, 11-200, Polska",54.19744,20.75296,"Bukowo, gmina Bartoszyce, powiat bartoszycki, województwo warmińsko-mazurskie, 11-200, Polska"
194,The Fair Maid of Perth,Sir Walter Scott,Perth,Scotland,The Fair Maid of Perth,"Perth, Scotland","Perth, City of Perth, Western Australia, 6000, Australia","Alba / Scotland, United Kingdom","Perth, Perth and Kinross, Alba / Scotland, PH1 5SU, United Kingdom","Perth, Perth and Kinross, Alba / Scotland, PH1 5SU, United Kingdom",56.3958186,-3.4286805,"Perth, Perth and Kinross, Alba / Scotland, PH1 5SU, United Kingdom"
196,An Ice-Cream War,William Boyd,Dar es Salaam,Tanzania,An Ice-Cream War,"Dar es Salaam, Tanzania","Dar es-Salaam, Coastal Zone, Tanzania",Tanzania,"Dar es-Salaam, Coastal Zone, Tanzania","Dar es-Salaam, Coastal Zone, Tanzania",-6.8160837,39.2803583,"Dar es-Salaam, Coastal Zone, Tanzania"
201,Last Orders,Graham Swift,London,United Kingdom,Last Orders,"London, United Kingdom","London, Greater London, England, United Kingdom",United Kingdom,"London, Greater London, England, United Kingdom","London, Greater London, England, United Kingdom",51.5074456,-0.1277653,"London, Greater London, England, United Kingdom"
203,The War of the End of the World,Mario Vargas Llosa,Canudos,Brazil,The War of the End of the World,"Canudos, Brazil","Canudos, Região Geográfica Imediata de Euclides da Cunha, Região Geográfica Intermediária de Paulo Afonso, Bahia, Região Nordeste, Brasil",Brasil,"Canudos, Região Geográfica Imediata de Euclides da Cunha, Região Geográfica Intermediária de Paulo Afonso, Bahia, Região Nordeste, Brasil","Canudos, Região Geográfica Imediata de Euclides da Cunha, Região Geográfica Intermediária de Paulo Afonso, Bahia, Região Nordeste, Brasil",-9.8948692,-39.0266244,"Canudos, Região Geográfica Imediata de Euclides da Cunha, Região Geográfica Intermediária de Paulo Afonso, Bahia, Região Nordeste, Brasil"
205,Unburnable,Marie-Elena John,"Washington, D.C.",United States,Unburnable,"Washington, D.C., United States","Washington, District of Columbia, United States",United States,"Washington, District of Columbia, United States","Washington, District of Columbia, United States",38.8950368,-77.0365427,"Washington, District of Columbia, United States"
213,"My Sister, the Serial Killer",Oyinkan Braithwaite,Lagos,Nigeria,"My Sister, the Serial Killer","Lagos, Nigeria","Lagos, Lagos Island, Lagos, 100242, Nigeria",Nigeria,"Lagos, Lagos Island, Lagos, 100242, Nigeria","Lagos, Lagos Island, Lagos, 100242, Nigeria",6.4550575,3.3941795,"Lagos, Lagos Island, Lagos, 100242, Nigeria"
215,Silk,Alessandro Baricco,Edo Bay,Japan,Silk (novel),"Edo Bay, Japan","東京湾, 川崎区, 川崎市, 神奈川県, 日本",日本,"東京湾, 川崎区, 川崎市, 神奈川県, 日本","東京湾, 川崎区, 川崎市, 神奈川県, 日本",35.4169,139.771,"東京湾, 川崎区, 川崎市, 神奈川県, 日本"
216,Push Not the River,James Conroyd Martin,Warsaw,Poland,Push Not the River,"Warsaw, Poland","Warszawa, województwo mazowieckie, Polska",Polska,"Warszawa, województwo mazowieckie, Polska","Warszawa, województwo mazowieckie, Polska",52.2337172,21.071432235636493,"Warszawa, województwo mazowieckie, Polska"
218,Veyi Padagalu,Viswanatha Satyanarayana,Subbannapeta,India,Veyipadagalu,"Subbannapeta, India","Subbannapeta, Nandigam, Bhogapuram, Vizianagaram, Andhra Pradesh, 535216, India",India,"Subbannapeta, Nandigam, Bhogapuram, Vizianagaram, Andhra Pradesh, 535216, India","Subbannapeta, Nandigam, Bhogapuram, Vizianagaram, Andhra Pradesh, 535216, India",18.0202262,83.5482365,"Subbannapeta, Nandigam, Bhogapuram, Vizianagaram, Andhra Pradesh, 535216, India"
219,Eagle in the Snow,Wallace Breem,Mainz,Germany,Eagle in the Snow,"Mainz, Germany","Mainz, Rheinland-Pfalz, Deutschland",Deutschland,"Mainz, Rheinland-Pfalz, Deutschland","Mainz, Rheinland-Pfalz, Deutschland",50.0012314,8.2762513,"Mainz, Rheinland-Pfalz, Deutschland"
220,The Load of Unicorn,Cynthia Harnett,London,England,The Load of Unicorn,"London, England","London, Greater London, England, United Kingdom","England, United Kingdom","London, Greater London, England, United Kingdom","London, Greater London, England, United Kingdom",51.5074456,-0.1277653,"London, Greater London, England, United Kingdom"
222,The Eagle of the Ninth,Rosemary Sutcliff,Hadrian's Wall,Roman Britain,The Eagle of the Ninth,"Hadrian's Wall, Roman Britain","Hadrian's Wall, Military Road, Haydon, Northumberland, North of Tyne, England, NE47 7AL, United Kingdom",,,"Hadrian's Wall, Military Road, Haydon, Northumberland, North of Tyne, England, NE47 7AL, United Kingdom",55.0288124,-2.287535,"Hadrian's Wall, Military Road, Haydon, Northumberland, North of Tyne, England, NE47 7AL, United Kingdom"
227,Old Mortality,Sir Walter Scott,Scotland,Scotland,A Tale of Old Mortality,"Scotland, Scotland","Alba / Scotland, United Kingdom","Alba / Scotland, United Kingdom","Scotland, Hacketstown ED, The Municipal District of Tullow, County Carlow, Leinster, Éire / Ireland","Scotland, Hacketstown ED, The Municipal District of Tullow, County Carlow, Leinster, Éire / Ireland",52.8645129,-6.5446592,"Scotland, Hacketstown ED, The Municipal District of Tullow, County Carlow, Leinster, Éire / Ireland"
228,Andersonville,MacKinlay Kantor,Andersonville,United States,Andersonville (novel),"Andersonville, United States","Andersonville, Sumter County, Georgia, 31711, United States",United States,"Andersonville, Sumter County, Georgia, 31711, United States","Andersonville, Sumter County, Georgia, 31711, United States",32.1959947,-84.1399085,"Andersonville, Sumter County, Georgia, 31711, United States"
229,Durgeshnandini,Bankim Chandra Chattopadhyay,"Mandaran (Hooghly district, West Bengal)",India,Durgeshnandini,"Mandaran (Hooghly district, West Bengal), India","Primary Health Centre, Mandaran, NH116A, Khirpai, Goghat - II, Hooghly, West Bengal, 712612, India",India,"Primary Health Centre, Mandaran, NH116A, Khirpai, Goghat - II, Hooghly, West Bengal, 712612, India","Primary Health Centre, Mandaran, NH116A, Khirpai, Goghat - II, Hooghly, West Bengal, 712612, India",22.8788799,87.6641534,"Primary Health Centre, Mandaran, NH116A, Khirpai, Goghat - II, Hooghly, West Bengal, 712612, India"
232,Pigeon English,Stephen Kelman,London,United Kingdom,Pigeon English,"London, United Kingdom","London, Greater London, England, United Kingdom",United Kingdom,"London, Greater London, England, United Kingdom","London, Greater London, England, United Kingdom",51.5074456,-0.1277653,"London, Greater London, England, United Kingdom"
234,A Tale of Two Cities,Charles Dickens,London and Paris,England and France,A Tale of Two Cities,"London and Paris, England and France",,"France, Legoland Windsor, Government Lodge, Windsor, Windsor and Maidenhead, England, SL4 4AU, United Kingdom",,"France, Legoland Windsor, Government Lodge, Windsor, Windsor and Maidenhead, England, SL4 4AU, United Kingdom",51.4644439,-0.6520573027777781,"France, Legoland Windsor, Government Lodge, Windsor, Windsor and Maidenhead, England, SL4 4AU, United Kingdom"
235,The Reckoning,Sharon Kay Penman,Abergwyngregyn,Wales,The Reckoning (1991 novel),"Abergwyngregyn, Wales","Abergwyngregyn, Gwynedd, Cymru / Wales, LL33 0LF, United Kingdom","Cymru / Wales, United Kingdom","Abergwyngregyn, Gwynedd, Cymru / Wales, LL33 0LF, United Kingdom","Abergwyngregyn, Gwynedd, Cymru / Wales, LL33 0LF, United Kingdom",53.2342415,-4.0147306,"Abergwyngregyn, Gwynedd, Cymru / Wales, LL33 0LF, United Kingdom"
237,Tales of the Alhambra,Washington Irving,Granada,Spain,Tales of the Alhambra,"Granada, Spain","Granada, Comarca de la Vega de Granada, Granada, Andalucía, España",España,"Granada, Comarca de la Vega de Granada, Granada, Andalucía, España","Granada, Comarca de la Vega de Granada, Granada, Andalucía, España",37.1734995,-3.5995337,"Granada, Comarca de la Vega de Granada, Granada, Andalucía, España"
238,Island Beneath the Sea,Isabel Allende,Port-au-Prince,Haiti,Island Beneath the Sea,"Port-au-Prince, Haiti","Arrondissement de Port-au-Prince, Département de l'Ouest, Ayiti",Ayiti,"Arrondissement de Port-au-Prince, Département de l'Ouest, Ayiti","Arrondissement de Port-au-Prince, Département de l'Ouest, Ayiti",18.547327,-72.3395928,"Arrondissement de Port-au-Prince, Département de l'Ouest, Ayiti"
239,The Reluctant Fundamentalist,Mohsin Hamid,Lahore,Pakistan,The Reluctant Fundamentalist,"Lahore, Pakistan","لاہور, ضلع لاہور, لاہور ڈویژن, پنجاب, 54500, پاکستان",پاکستان,"لاہور, ضلع لاہور, لاہور ڈویژن, پنجاب, 54500, پاکستان","لاہور, ضلع لاہور, لاہور ڈویژن, پنجاب, 54500, پاکستان",31.5656822,74.3141829,"لاہور, ضلع لاہور, لاہور ڈویژن, پنجاب, 54500, پاکستان"
240,A Star Called Henry,Roddy Doyle,Dublin,Ireland,A Star Called Henry,"Dublin, Ireland","Dublin, County Dublin, Leinster, Éire / Ireland",Éire / Ireland,"Dublin, County Dublin, Leinster, Éire / Ireland","Dublin, County Dublin, Leinster, Éire / Ireland",53.3493795,-6.2605593,"Dublin, County Dublin, Leinster, Éire / Ireland"
241,Clear Light of Day,,Delhi,India,Clear Light of Day,"Delhi, India","Delhi, India",India,"Delhi, India","Delhi, India",28.6273928,77.1716954,"Delhi, India"
243,The Known World,Edward P. Jones,Virginia,United States,The Known World,"Virginia, United States","Virginia, United States",United States,"Virginia, United States","Virginia, United States",37.1232245,-78.4927721,"Virginia, United States"
245,Prague,,Budapest,Hungary,Prague (novel),"Budapest, Hungary","Budapest, Közép-Magyarország, Magyarország",Magyarország,"Budapest, Közép-Magyarország, Magyarország","Budapest, Közép-Magyarország, Magyarország",47.4978789,19.0402383,"Budapest, Közép-Magyarország, Magyarország"
247,Lady of the Glen: A Novel of 17th-Century Scotland and the Massacre of Glencoe,Jennifer Roberson,Glencoe,Scotland,Lady of the Glen,"Glencoe, Scotland","Glencoe, New Trier Township, Cook County, Illinois, 60022, United States","Alba / Scotland, United Kingdom","Glencoe, Highland, Alba / Scotland, PH49 4HS, United Kingdom","Glencoe, Highland, Alba / Scotland, PH49 4HS, United Kingdom",56.6827647,-5.1014552,"Glencoe, Highland, Alba / Scotland, PH49 4HS, United Kingdom"
248,Caravans,James A. Michener,Kabul,Afghanistan,Caravans (novel),"Kabul, Afghanistan","کابل, کابل ښاروالۍ, ولایت كابل, 1001, افغانستان",افغانستان,"کابل, کابل ښاروالۍ, ولایت كابل, 1001, افغانستان","کابل, کابل ښاروالۍ, ولایت كابل, 1001, افغانستان",34.5260109,69.1776838,"کابل, کابل ښاروالۍ, ولایت كابل, 1001, افغانستان"
252,Shiloh: A Novel,Shelby Foote,Pittsburg Landing,United States,Shiloh (Foote novel),"Pittsburg Landing, United States","Pittsburg Landing, Hardin County, West Tennessee, Tennessee, United States",United States,"Pittsburg Landing, Hardin County, West Tennessee, Tennessee, United States","Pittsburg Landing, Hardin County, West Tennessee, Tennessee, United States",35.1503154,-88.3230504,"Pittsburg Landing, Hardin County, West Tennessee, Tennessee, United States"
256,Fingersmith,Sarah Waters,London,United Kingdom,Fingersmith (novel),"London, United Kingdom","London, Greater London, England, United Kingdom",United Kingdom,"London, Greater London, England, United Kingdom","London, Greater London, England, United Kingdom",51.5074456,-0.1277653,"London, Greater London, England, United Kingdom"
257,Sleeping on Jupiter,Anuradha Roy,Jarmuli,India,Sleeping on Jupiter,"Jarmuli, India",,India,,India,22.3511148,78.6677428,India
269,History of Wolves,,Minnesota,USA,History of Wolves,"Minnesota, USA","Minnesota, United States",United States,"Minnesota, United States","Minnesota, United States",45.9896587,-94.6113288,"Minnesota, United States"
270,Kay the Left-Handed,Leslie Barringer,York,England,Kay the Left-Handed,"York, England","York, England, YO1 8RS, United Kingdom","England, United Kingdom","York, England, United Kingdom","York, England, United Kingdom",53.96565785,-1.0743052444639218,"York, England, United Kingdom"
271,Scaramouche,Rafael Sabatini,Paris,France,Scaramouche (novel),"Paris, France","Paris, Île-de-France, France métropolitaine, France",France,"Paris, Île-de-France, France métropolitaine, France","Paris, Île-de-France, France métropolitaine, France",48.8534951,2.3483915,"Paris, Île-de-France, France métropolitaine, France"
272,Five Star Billionaire,Tash Aw,Shanghai,China,Five Star Billionaire,"Shanghai, China","上海市, 黄浦区, 上海市, 200001, 中国",中国,"上海市, 中国","上海市, 中国",31.2312707,121.4700152,"上海市, 中国"
273,Ein Kampf um Rom,Felix Dahn,Rome,Italy,A Struggle for Rome,"Rome, Italy","Roma, Roma Capitale, Lazio, Italia",Italia,"Roma, Roma Capitale, Lazio, Italia","Roma, Roma Capitale, Lazio, Italia",41.8933203,12.4829321,"Roma, Roma Capitale, Lazio, Italia"
280,Footsteps,Pramoedya Ananta Toer,Batavia (NA),Dutch East Indies (now Indonesia),Footsteps (novel),"Batavia (NA), Dutch East Indies (now Indonesia)","Batavia, Nijmegen-Nieuw-West, Nijmegen, Gelderland, Nederland, 6541 GB, Nederland",,,"Batavia, Nijmegen-Nieuw-West, Nijmegen, Gelderland, Nederland, 6541 GB, Nederland",51.8549678,5.8418333,"Batavia, Nijmegen-Nieuw-West, Nijmegen, Gelderland, Nederland, 6541 GB, Nederland"
281,Something to Answer For,P. H. Newby,"Port Said, Cairo",Egypt,Something to Answer For,"Port Said, Cairo, Egypt","Cairo Tower, 3, شارع نهضة مصر, العزب, فاروك, بورسعيد, 42519, مصر",مصر,"شارع بورسعيد, العدوى, الظاهر, القاهرة, 11558, مصر","شارع بورسعيد, العدوى, الظاهر, القاهرة, 11558, مصر",30.0590779,31.2596911,"شارع بورسعيد, العدوى, الظاهر, القاهرة, 11558, مصر"
283,A Short History of Tractors in Ukrainian,Marina Lewycka,Peterborough,England,A Short History of Tractors in Ukrainian,"Peterborough, England","Peterborough, City of Peterborough, Cambridgeshire and Peterborough, England, PE1 1XH, United Kingdom","England, United Kingdom","Peterborough, City of Peterborough, Cambridgeshire and Peterborough, England, PE1 1XH, United Kingdom","Peterborough, City of Peterborough, Cambridgeshire and Peterborough, England, PE1 1XH, United Kingdom",52.5725769,-0.2427336,"Peterborough, City of Peterborough, Cambridgeshire and Peterborough, England, PE1 1XH, United Kingdom"
284,Animal's People,Indra Sinha,Bhopal,India,Animal's People,"Bhopal, India","Bhopal, Huzur Tahsil, Bhopal, Madhya Pradesh, 462001, India",India,"Bhopal, Huzur Tahsil, Bhopal, Madhya Pradesh, 462001, India","Bhopal, Huzur Tahsil, Bhopal, Madhya Pradesh, 462001, India",23.2584857,77.401989,"Bhopal, Huzur Tahsil, Bhopal, Madhya Pradesh, 462001, India"
285,Fortunata y Jacinta,,Madrid,Spain,Fortunata y Jacinta,"Madrid, Spain","Madrid, Comunidad de Madrid, España",España,"Madrid, Comunidad de Madrid, España","Madrid, Comunidad de Madrid, España",40.4167047,-3.7035825,"Madrid, Comunidad de Madrid, España"
286,Prophet Song,Paul Lynch,Dublin,Ireland,Prophet Song,"Dublin, Ireland","Dublin, County Dublin, Leinster, Éire / Ireland",Éire / Ireland,"Dublin, County Dublin, Leinster, Éire / Ireland","Dublin, County Dublin, Leinster, Éire / Ireland",53.3493795,-6.2605593,"Dublin, County Dublin, Leinster, Éire / Ireland"
288,The Children of Men,A.S. Byatt,London,United Kingdom,The Children's Book,"London, United Kingdom","London, Greater London, England, United Kingdom",United Kingdom,"London, Greater London, England, United Kingdom","London, Greater London, England, United Kingdom",51.5074456,-0.1277653,"London, Greater London, England, United Kingdom"
290,Outlaw,Angus Donald,Nottingham,England,Outlaw (novel),"Nottingham, England","City of Nottingham, Nottinghamshire, England, United Kingdom","England, United Kingdom","City of Nottingham, Nottinghamshire, England, United Kingdom","City of Nottingham, Nottinghamshire, England, United Kingdom",52.9534193,-1.1496461,"City of Nottingham, Nottinghamshire, England, United Kingdom"
291,True Women,Janice Woods Windle,"Austin, San Antonio, and McDade, Texas",United States,True Women,"Austin, San Antonio, and McDade, Texas, United States",,United States,,United States,39.7837304,-100.445882,United States
295,Death Comes for the Archbishop,Willa Cather,Santa Fe,United States,Death Comes for the Archbishop,"Santa Fe, United States","Santa Fe, Argentina",United States,"Santa Fe, Santa Fe County, New Mexico, United States","Santa Fe, Santa Fe County, New Mexico, United States",35.6876096,-105.938456,"Santa Fe, Santa Fe County, New Mexico, United States"
296,The Beginning of Spring,Penelope Fitzgerald,Moscow,Russia,The Beginning of Spring,"Moscow, Russia","Москва, Центральный федеральный округ, Россия",Россия,"Москва, Центральный федеральный округ, Россия","Москва, Центральный федеральный округ, Россия",55.625578,37.6063916,"Москва, Центральный федеральный округ, Россия"
297,The Garden of Evening Mists,Tan Twinkler,Malaysia,Malaysia,The Garden of Evening Mists,"Malaysia, Malaysia",Malaysia,Malaysia,Malaysia,Malaysia,4.5693754,102.2656823,Malaysia
298,Ramage,Dudley Pope,Monte Argentario,Italy,Ramage (novel),"Monte Argentario, Italy","Monte Argentario, Grosseto, Toscana, Italia",Italia,"Monte Argentario, Grosseto, Toscana, Italia","Monte Argentario, Grosseto, Toscana, Italia",42.407352,11.1503838,"Monte Argentario, Grosseto, Toscana, Italia"
302,Out of the Shelter,David Lodge,Heidelberg,Germany,Out of the Shelter,"Heidelberg, Germany","Heidelberg, Baden-Württemberg, Deutschland",Deutschland,"Heidelberg, Baden-Württemberg, Deutschland","Heidelberg, Baden-Württemberg, Deutschland",49.4093582,8.694724,"Heidelberg, Baden-Württemberg, Deutschland"
306,Romola,George Eliot,Florence,Italy,Romola,"Florence, Italy","Firenze, Toscana, Italia",Italia,"Firenze, Toscana, Italia","Firenze, Toscana, Italia",43.7697955,11.2556404,"Firenze, Toscana, Italia"
307,The Bay of Noon,Shirley Hazzard,Naples,Italy,The Bay of Noon,"Naples, Italy","Napoli, Campania, Italia",Italia,"Napoli, Campania, Italia","Napoli, Campania, Italia",40.8358846,14.2487679,"Napoli, Campania, Italia"
308,Shuggie Bain,Douglas Stuart,Glasgow,Scotland,Shuggie Bain,"Glasgow, Scotland","Glasgow, Glasgow City, Alba / Scotland, G2 1DY, United Kingdom","Alba / Scotland, United Kingdom","Glasgow, Glasgow City, Alba / Scotland, G2 1DY, United Kingdom","Glasgow, Glasgow City, Alba / Scotland, G2 1DY, United Kingdom",55.861155,-4.2501687,"Glasgow, Glasgow City, Alba / Scotland, G2 1DY, United Kingdom"
315,The Birth of Venus: A Novel,Sarah Dunant,Florence,Italy,The Birth of Venus (novel),"Florence, Italy","Firenze, Toscana, Italia",Italia,"Firenze, Toscana, Italia","Firenze, Toscana, Italia",43.7697955,11.2556404,"Firenze, Toscana, Italia"
321,The Moor's Last Sigh,Salman Rushdie,Bombay and Cochin,India,The Moor's Last Sigh,"Bombay and Cochin, India",,India,,India,22.3511148,78.6677428,India
322,Master Georgie,Beryl Bainbridge,"Liverpool, Sevastopol","England, Ukraine",Master Georgie,"Liverpool, Sevastopol, England, Ukraine",,"Embassy of Ukraine, 60, Holland Park, Notting Hill, Royal Borough of Kensington and Chelsea, London, Greater London, England, W11 3SJ, United Kingdom",,"Embassy of Ukraine, 60, Holland Park, Notting Hill, Royal Borough of Kensington and Chelsea, London, Greater London, England, W11 3SJ, United Kingdom",51.50610605,-0.20816926637591013,"Embassy of Ukraine, 60, Holland Park, Notting Hill, Royal Borough of Kensington and Chelsea, London, Greater London, England, W11 3SJ, United Kingdom"
325,Seek the Fair Land,Walter Macken,Drogheda,Ireland,The Silent People,"Drogheda, Ireland","Drogheda, County Louth, Leinster, Éire / Ireland",Éire / Ireland,"Drogheda, County Louth, Leinster, Éire / Ireland","Drogheda, County Louth, Leinster, Éire / Ireland",53.7149877,-6.3524183,"Drogheda, County Louth, Leinster, Éire / Ireland"
327,The Wishing Game,Patrick Redmond,Norwich,England,The Wishing Game,"Norwich, England","Norwich, Norfolk, England, United Kingdom","England, United Kingdom","Norwich, Norfolk, England, United Kingdom","Norwich, Norfolk, England, United Kingdom",52.6285576,1.2923954,"Norwich, Norfolk, England, United Kingdom"
329,The Silver Pigs,Lindsey Davis,Rome,Roman Empire,The Silver Pigs,"Rome, Roman Empire","Roma, Roma Capitale, Lazio, Italia","New Lotus House, 485, Roman Road, Old Ford, Bow, London Borough of Tower Hamlets, London, Greater London, England, E3 5LX, United Kingdom",,"Roma, Roma Capitale, Lazio, Italia",41.8933203,12.4829321,"Roma, Roma Capitale, Lazio, Italia"
331,The Bookshop,Penelope Fitzgerald,"Hardborough, Suffolk",England,The Bookshop,"Hardborough, Suffolk, England",,"England, United Kingdom",,"England, United Kingdom",52.5310214,-1.2649062,"England, United Kingdom"
332,The Ides of March,Thornton Wilder,Rome,Roman Republic,Ides of March (novel),"Rome, Roman Republic","Roma, Roma Capitale, Lazio, Italia","Roman, Promitheos, Κάτω Πάφος, Δήμος Πάφου, Επαρχία Πάφου, Κύπρος, 8040, Κύπρος - Kıbrıs",,"Roma, Roma Capitale, Lazio, Italia",41.8933203,12.4829321,"Roma, Roma Capitale, Lazio, Italia"
333,Alfarrábios,José de Alencar,Rio de Janeiro,Brazil,Alfarrábios,"Rio de Janeiro, Brazil","Rio de Janeiro, Região Geográfica Imediata do Rio de Janeiro, Região Metropolitana do Rio de Janeiro, Região Geográfica Intermediária do Rio de Janeiro, Rio de Janeiro, Região Sudeste, Brasil",Brasil,"Rio de Janeiro, Região Geográfica Imediata do Rio de Janeiro, Região Metropolitana do Rio de Janeiro, Região Geográfica Intermediária do Rio de Janeiro, Rio de Janeiro, Região Sudeste, Brasil","Rio de Janeiro, Região Geográfica Imediata do Rio de Janeiro, Região Metropolitana do Rio de Janeiro, Região Geográfica Intermediária do Rio de Janeiro, Rio de Janeiro, Região Sudeste, Brasil",-22.9110137,-43.2093727,"Rio de Janeiro, Região Geográfica Imediata do Rio de Janeiro, Região Metropolitana do Rio de Janeiro, Região Geográfica Intermediária do Rio de Janeiro, Rio de Janeiro, Região Sudeste, Brasil"
334,The Man Without Qualities,Robert Musil,Vienna,Austria-Hungary,The Man Without Qualities,"Vienna, Austria-Hungary","Wien, Österreich","Ungarn, Erinnerungsstraße, Brunngraben, Mauthausen, Bezirk Perg, Oberösterreich, 4310, Österreich",,"Wien, Österreich",48.2083537,16.3725042,"Wien, Österreich"
336,Girl with a Pearl Earring,Tracy Chevalier,Delft,Netherlands,Girl with a Pearl Earring (novel),"Delft, Netherlands","Delft, Zuid-Holland, Nederland",Nederland,"Delft, Zuid-Holland, Nederland","Delft, Zuid-Holland, Nederland",52.0114017,4.35839,"Delft, Zuid-Holland, Nederland"
338,The Nice and the Good,Iris Murdoch,Whitehall,Dorset,The Nice and the Good,"Whitehall, Dorset","Whitehall, Westminster, Millbank, City of Westminster, Greater London, England, SW1A 2NH, United Kingdom","Dorset, England, United Kingdom","Dorset Court, Newington, Ramsgate, Westwood, Thanet, Kent, England, CT12 6PH, United Kingdom","Dorset Court, Newington, Ramsgate, Westwood, Thanet, Kent, England, CT12 6PH, United Kingdom",51.3485314,1.3962508,"Dorset Court, Newington, Ramsgate, Westwood, Thanet, Kent, England, CT12 6PH, United Kingdom"
343,The Four Horsemen of The Apocalypse,Vicente Blasco Ibáñez,Paris,France,The Four Horsemen of the Apocalypse (Spanish novel),"Paris, France","Paris, Île-de-France, France métropolitaine, France",France,"Paris, Île-de-France, France métropolitaine, France","Paris, Île-de-France, France métropolitaine, France",48.8534951,2.3483915,"Paris, Île-de-France, France métropolitaine, France"
344,Bitter Fruit,Achmat Dangor,Johannesburg,South Africa,Bitter Fruit,"Johannesburg, South Africa","Johannesburg, City of Johannesburg Metropolitan Municipality, Gauteng, 2001, South Africa",South Africa,"Johannesburg, City of Johannesburg Metropolitan Municipality, Gauteng, 2001, South Africa","Johannesburg, City of Johannesburg Metropolitan Municipality, Gauteng, 2001, South Africa",-26.205,28.049722,"Johannesburg, City of Johannesburg Metropolitan Municipality, Gauteng, 2001, South Africa"
345,The Bee Sting,Paul Murray,Dublin,Ireland,The Bee Sting,"Dublin, Ireland","Dublin, County Dublin, Leinster, Éire / Ireland",Éire / Ireland,"Dublin, County Dublin, Leinster, Éire / Ireland","Dublin, County Dublin, Leinster, Éire / Ireland",53.3493795,-6.2605593,"Dublin, County Dublin, Leinster, Éire / Ireland"
347,All That Matters,Wayson Choy,Vancouver,Canada,All That Matters (novel),"Vancouver, Canada","Vancouver, Metro Vancouver Regional District, British Columbia, Canada",Canada,"Vancouver, Metro Vancouver Regional District, British Columbia, Canada","Vancouver, Metro Vancouver Regional District, British Columbia, Canada",49.2608724,-123.113952,"Vancouver, Metro Vancouver Regional District, British Columbia, Canada"
348,Know Ye Not Agincourt?,Leslie Barringer,Agincourt,France,Know Ye Not Agincourt?,"Agincourt, France","Agincourt, Nancy, Meurthe-et-Moselle, Grand Est, France métropolitaine, 54770, France",France,"Agincourt, Nancy, Meurthe-et-Moselle, Grand Est, France métropolitaine, 54770, France","Agincourt, Nancy, Meurthe-et-Moselle, Grand Est, France métropolitaine, 54770, France",48.7323472,6.236384,"Agincourt, Nancy, Meurthe-et-Moselle, Grand Est, France métropolitaine, 54770, France"
349,World Without End,Ken Follett,South-central England (Kingsbridge and Shiring),England,World Without End (Follett novel),"South-central England (Kingsbridge and Shiring), England",,"England, United Kingdom",,"England, United Kingdom",52.5310214,-1.2649062,"England, United Kingdom"
352,The Blind Assassin,Margaret Atwood,Port Ticonderoga and Toronto,Canada,The Blind Assassin,"Port Ticonderoga and Toronto, Canada",,Canada,,Canada,61.0666922,-107.991707,Canada
355,Cryptonomicon,Neal Stephenson,Philippines,Philippines,Cryptonomicon,"Philippines, Philippines",Pilipinas,Pilipinas,Pilipinas,Pilipinas,12.7503486,122.7312101,Pilipinas
356,The Memoirs of Aaron Burr,"['Matthew Livingston Davis', 'Aaron Burr']",New York City,United States,Burr (novel),"New York City, United States","City of New York, New York, United States",United States,"City of New York, New York, United States","City of New York, New York, United States",40.7127281,-74.0060152,"City of New York, New York, United States"
357,Staying On,Paul Scott,Pankot,India,Staying On,"Pankot, India","pankot, Govindpur, Almora, Uttarakhand, 263655, India",India,"pankot, Govindpur, Almora, Uttarakhand, 263655, India","pankot, Govindpur, Almora, Uttarakhand, 263655, India",29.6917809,79.5766783,"pankot, Govindpur, Almora, Uttarakhand, 263655, India"
358,Come Rack! Come Rope!,Robert Hugh Benson,England,England,Come Rack! Come Rope!,"England, England","England, United Kingdom","England, United Kingdom","England, Buch am Erlbach, Landkreis Landshut, Bayern, 84172, Deutschland","England, Buch am Erlbach, Landkreis Landshut, Bayern, 84172, Deutschland",48.428501,12.056571,"England, Buch am Erlbach, Landkreis Landshut, Bayern, 84172, Deutschland"
363,The Sweetness of Water,Nathan Harris,Old Ox,Georgia,The Sweetness of Water,"Old Ox, Georgia","Old Ox, Greaves Lane, Oxton CP, Newark and Sherwood, Nottinghamshire, England, NG22 8BN, United Kingdom","Georgia, United States",,"Old Ox, Greaves Lane, Oxton CP, Newark and Sherwood, Nottinghamshire, England, NG22 8BN, United Kingdom",53.072063650000004,-1.054840275974086,"Old Ox, Greaves Lane, Oxton CP, Newark and Sherwood, Nottinghamshire, England, NG22 8BN, United Kingdom"
365,Normal People,Sally Rooney,Sligo,Ireland,Normal People,"Sligo, Ireland","County Sligo, Connacht, Éire / Ireland",Éire / Ireland,"County Sligo, Connacht, Éire / Ireland","County Sligo, Connacht, Éire / Ireland",54.19298605,-8.7305426729522,"County Sligo, Connacht, Éire / Ireland"
367,The Good Terrorist,Doris Lessing,London,United Kingdom,The Good Terrorist,"London, United Kingdom","London, Greater London, England, United Kingdom",United Kingdom,"London, Greater London, England, United Kingdom","London, Greater London, England, United Kingdom",51.5074456,-0.1277653,"London, Greater London, England, United Kingdom"
369,The Bridge on the Drina,Ivo Andrić,Višegrad,Bosnia and Herzegovina,The Bridge on the Drina,"Višegrad, Bosnia and Herzegovina","Višegrad, Opština Višegrad, Република Српска / Republika Srpska, 73240, Bosna i Hercegovina / Босна и Херцеговина",Bosna i Hercegovina / Босна и Херцеговина,"Višegrad, Opština Višegrad, Република Српска / Republika Srpska, 73240, Bosna i Hercegovina / Босна и Херцеговина","Višegrad, Opština Višegrad, Република Српска / Republika Srpska, 73240, Bosna i Hercegovina / Босна и Херцеговина",43.7864291,19.294097,"Višegrad, Opština Višegrad, Република Српска / Republika Srpska, 73240, Bosna i Hercegovina / Босна и Херцеговина"
371,The Orchard on Fire,Shena Mackay,Stonebridge,Kent,The Orchard on Fire,"Stonebridge, Kent","Stonebridge, Wretham, East Wretham, Breckland, Norfolk, England, IP24 1QS, United Kingdom","Kent, England, United Kingdom","Stonebridge, Brook, Ashford, Kent, England, TN25 5PJ, United Kingdom","Stonebridge, Brook, Ashford, Kent, England, TN25 5PJ, United Kingdom",51.1595171,0.9506735,"Stonebridge, Brook, Ashford, Kent, England, TN25 5PJ, United Kingdom"
372,The Blackwater Lightship,Colm Tóibín,Dublin,Ireland,The Blackwater Lightship,"Dublin, Ireland","Dublin, County Dublin, Leinster, Éire / Ireland",Éire / Ireland,"Dublin, County Dublin, Leinster, Éire / Ireland","Dublin, County Dublin, Leinster, Éire / Ireland",53.3493795,-6.2605593,"Dublin, County Dublin, Leinster, Éire / Ireland"
374,A Disaffection,James Kelman,Glasgow,Scotland,A Disaffection,"Glasgow, Scotland","Glasgow, Glasgow City, Alba / Scotland, G2 1DY, United Kingdom","Alba / Scotland, United Kingdom","Glasgow, Glasgow City, Alba / Scotland, G2 1DY, United Kingdom","Glasgow, Glasgow City, Alba / Scotland, G2 1DY, United Kingdom",55.861155,-4.2501687,"Glasgow, Glasgow City, Alba / Scotland, G2 1DY, United Kingdom"
375,The Covenant,James Michener,South Africa,South Africa,The Covenant (novel),"South Africa, South Africa",South Africa,South Africa,South Africa,South Africa,-28.8166236,24.991639,South Africa
380,Goat Song,Frank Yerby,Sparta,Greece,Goat Song,"Sparta, Greece","Sparta, Δήμος Σπάρτης, Περιφερειακή Ενότητα Λακωνίας, Περιφέρεια Πελοποννήσου, Αποκεντρωμένη Διοίκηση Πελοποννήσου, Δυτικής Ελλάδας και Ιονίου, 231 00, Ελλάς",Ελλάς,"Sparta, Δήμος Σπάρτης, Περιφερειακή Ενότητα Λακωνίας, Περιφέρεια Πελοποννήσου, Αποκεντρωμένη Διοίκηση Πελοποννήσου, Δυτικής Ελλάδας και Ιονίου, 231 00, Ελλάς","Sparta, Δήμος Σπάρτης, Περιφερειακή Ενότητα Λακωνίας, Περιφέρεια Πελοποννήσου, Αποκεντρωμένη Διοίκηση Πελοποννήσου, Δυτικής Ελλάδας και Ιονίου, 231 00, Ελλάς",37.0744494,22.4301778,"Sparta, Δήμος Σπάρτης, Περιφερειακή Ενότητα Λακωνίας, Περιφέρεια Πελοποννήσου, Αποκεντρωμένη Διοίκηση Πελοποννήσου, Δυτικής Ελλάδας και Ιονίου, 231 00, Ελλάς"
381,In the Skin of a Lion,Michael Ondaatje,Toronto,Canada,In the Skin of a Lion,"Toronto, Canada","Toronto, Golden Horseshoe, Ontario, Canada",Canada,"Toronto, Golden Horseshoe, Ontario, Canada","Toronto, Golden Horseshoe, Ontario, Canada",43.6534817,-79.3839347,"Toronto, Golden Horseshoe, Ontario, Canada"
384,Micah Clarke,Arthur Conan Doyle,Sedgemoor,England,Micah Clarke,"Sedgemoor, England","Sedgemoor, Somerset, England, United Kingdom","England, United Kingdom","Sedgemoor, Somerset, England, United Kingdom","Sedgemoor, Somerset, England, United Kingdom",51.186833899999996,-2.96842123193061,"Sedgemoor, Somerset, England, United Kingdom"
385,Middlesex,Jeffrey Eugenides,Detroit,United States,Middlesex (novel),"Detroit, United States","Detroit, Wayne County, Michigan, United States",United States,"Detroit, Wayne County, Michigan, United States","Detroit, Wayne County, Michigan, United States",42.3315509,-83.0466403,"Detroit, Wayne County, Michigan, United States"
386,Il Gattopardo,Giuseppe Tomasi di Lampedusa,Palma di Montechiaro and Santa Margherita Belice (Donnafugata),"Sicily, Italy",Il Gattopardo,"Palma di Montechiaro and Santa Margherita Belice (Donnafugata), Sicily, Italy",,"Sicilia, Italia",,"Sicilia, Italia",37.587794,14.155048,"Sicilia, Italia"
388,Prince of Foxes,C.S. Forester,Rome,Italy,Prince of Foxes,"Rome, Italy","Roma, Roma Capitale, Lazio, Italia",Italia,"Roma, Roma Capitale, Lazio, Italia","Roma, Roma Capitale, Lazio, Italia",41.8933203,12.4829321,"Roma, Roma Capitale, Lazio, Italia"
391,Danza del principe Genji,,Lucca,Italy,The Tale of Genji,"Lucca, Italy","Lucca, Toscana, Italia",Italia,"Lucca, Toscana, Italia","Lucca, Toscana, Italia",44.017763900000006,10.454430026192636,"Lucca, Toscana, Italia"
392,Arthur & George,Julian Barnes,Birmingham,England,Arthur & George,"Birmingham, England","Birmingham, West Midlands Combined Authority, England, United Kingdom","England, United Kingdom","Birmingham, West Midlands Combined Authority, England, United Kingdom","Birmingham, West Midlands Combined Authority, England, United Kingdom",52.4796992,-1.9026911,"Birmingham, West Midlands Combined Authority, England, United Kingdom"
393,Kamienie na szaniec,Aleksander Kamiński,Warsaw,Poland,Kamienie na szaniec,"Warsaw, Poland","Warszawa, województwo mazowieckie, Polska",Polska,"Warszawa, województwo mazowieckie, Polska","Warszawa, województwo mazowieckie, Polska",52.2337172,21.071432235636493,"Warszawa, województwo mazowieckie, Polska"
395,Shadow Country,Peter Matthiessen,Chokoloskee Island,United States,Shadow Country,"Chokoloskee Island, United States","Chokoloskee Island, Chokoloskee, Collier County, Florida, United States",United States,"Chokoloskee Island, Chokoloskee, Collier County, Florida, United States","Chokoloskee Island, Chokoloskee, Collier County, Florida, United States",25.8238706,-81.35972717542958,"Chokoloskee Island, Chokoloskee, Collier County, Florida, United States"
396,Morgan's Run,Colleen McCullough,Norfolk Island,Australia,Morgan's Run,"Norfolk Island, Australia","Norfolk Island, Australia",Australia,"Norfolk Island, Australia","Norfolk Island, Australia",-29.0328038,167.9483137,"Norfolk Island, Australia"
397,Laura Blundy,Julie Myerson,London,United Kingdom,Laura Blundy,"London, United Kingdom","London, Greater London, England, United Kingdom",United Kingdom,"London, Greater London, England, United Kingdom","London, Greater London, England, United Kingdom",51.5074456,-0.1277653,"London, Greater London, England, United Kingdom"
398,A Council of Dolls,Mona Susan Power (Standing Rock Sioux),Minneapolis,United States,A Council of Dolls,"Minneapolis, United States","Minneapolis, Hennepin County, Minnesota, United States",United States,"Minneapolis, Hennepin County, Minnesota, United States","Minneapolis, Hennepin County, Minnesota, United States",44.9772995,-93.2654692,"Minneapolis, Hennepin County, Minnesota, United States"
400,The Folding Star,Alan Hollinghurst,Ostend,Belgium,The Folding Star,"Ostend, Belgium","Oostende, West-Vlaanderen, Vlaanderen, 8400, België / Belgique / Belgien",België / Belgique / Belgien,"Oostende, West-Vlaanderen, Vlaanderen, 8400, België / Belgique / Belgien","Oostende, West-Vlaanderen, Vlaanderen, 8400, België / Belgique / Belgien",51.2258565,2.919496,"Oostende, West-Vlaanderen, Vlaanderen, 8400, België / Belgique / Belgien"
402,The Power and the Glory,Graham Greene,Tabasco,Mexico,The Power and the Glory,"Tabasco, Mexico","Tabasco, México","Ciudad de México, Cuauhtémoc, Ciudad de México, México","Tabasco, México","Tabasco, México",17.9999288,-92.6681659,"Tabasco, México"
403,Os Sertões,Euclides da Cunha,Canudos,Brazil,Os Sertões,"Canudos, Brazil","Canudos, Região Geográfica Imediata de Euclides da Cunha, Região Geográfica Intermediária de Paulo Afonso, Bahia, Região Nordeste, Brasil",Brasil,"Canudos, Região Geográfica Imediata de Euclides da Cunha, Região Geográfica Intermediária de Paulo Afonso, Bahia, Região Nordeste, Brasil","Canudos, Região Geográfica Imediata de Euclides da Cunha, Região Geográfica Intermediária de Paulo Afonso, Bahia, Região Nordeste, Brasil",-9.8948692,-39.0266244,"Canudos, Região Geográfica Imediata de Euclides da Cunha, Região Geográfica Intermediária de Paulo Afonso, Bahia, Região Nordeste, Brasil"
404,The Siege of Krishnapur,J. G. Farrell,Krishnapur,India,The Siege of Krishnapur,"Krishnapur, India","Krishnapur, Chandurbazar, Amravati, Maharashtra, India",India,"Krishnapur, Krishnpur, Maihar Tahsil, Maihar, Madhya Pradesh, India","Krishnapur, Krishnpur, Maihar Tahsil, Maihar, Madhya Pradesh, India",24.1051895,80.8776393379353,"Krishnapur, Krishnpur, Maihar Tahsil, Maihar, Madhya Pradesh, India"
412,Number the Stars,Lois Lowry,Copenhagen,Denmark,Number the Stars,"Copenhagen, Denmark","København, Københavns Kommune, Indre By, Region Hovedstaden, 1357, Danmark",Danmark,"København, Københavns Kommune, Indre By, Region Hovedstaden, 1357, Danmark","København, Københavns Kommune, Indre By, Region Hovedstaden, 1357, Danmark",55.6867243,12.5700724,"København, Københavns Kommune, Indre By, Region Hovedstaden, 1357, Danmark"
413,Year of Wonders,Geraldine Brooks,Eyam,England,Year of Wonders,"Eyam, England","Eyam CP, Derbyshire Dales, Derbyshire, England, United Kingdom","England, United Kingdom","Eyam CP, Derbyshire Dales, Derbyshire, England, United Kingdom","Eyam CP, Derbyshire Dales, Derbyshire, England, United Kingdom",53.2837249,-1.6725141,"Eyam CP, Derbyshire Dales, Derbyshire, England, United Kingdom"
416,Life & Times of Michael K,J. M. Coetzee,Cape Town,South Africa,Life & Times of Michael K,"Cape Town, South Africa","Cape Town, City of Cape Town, Western Cape, 8001, South Africa",South Africa,"Cape Town, City of Cape Town, Western Cape, 8001, South Africa","Cape Town, City of Cape Town, Western Cape, 8001, South Africa",-33.928992,18.417396,"Cape Town, City of Cape Town, Western Cape, 8001, South Africa"
418,The Lowland,Jhumpa Lahiri,Rhode Island,USA,The Lowland,"Rhode Island, USA","Rhode Island, United States",United States,"Rhode Island, United States","Rhode Island, United States",41.7962409,-71.5992372,"Rhode Island, United States"
421,The Silver Branch,Rosemary Sutcliff,Rutupiae,Roman Britain,The Silver Branch (Sutcliff novel),"Rutupiae, Roman Britain","Richborough Fort, Richborough Road, Ash, Richborough, Dover, Kent, England, CT13 9JQ, United Kingdom",,,"Richborough Fort, Richborough Road, Ash, Richborough, Dover, Kent, England, CT13 9JQ, United Kingdom",51.2929004,1.3318387681341721,"Richborough Fort, Richborough Road, Ash, Richborough, Dover, Kent, England, CT13 9JQ, United Kingdom"
422,Midnight's Children,Salman Rushdie,"Multiple cities including Bombay, Lahore and Dhaka (and various other cities in India and Pakistan)",India,Midnight's Children,"Multiple cities including Bombay, Lahore and Dhaka (and various other cities in India and Pakistan), India",,India,,India,22.3511148,78.6677428,India
423,"Valperga; or, The Life and Adventures of Castruccio, Prince of Lucca",Mary Shelley,Lucca,Italy,Valperga (novel),"Lucca, Italy","Lucca, Toscana, Italia",Italia,"Lucca, Toscana, Italia","Lucca, Toscana, Italia",44.017763900000006,10.454430026192636,"Lucca, Toscana, Italia"
425,An Officer and a Spy,Robert Harris,Paris,France,An Officer and a Spy,"Paris, France","Paris, Île-de-France, France métropolitaine, France",France,"Paris, Île-de-France, France métropolitaine, France","Paris, Île-de-France, France métropolitaine, France",48.8534951,2.3483915,"Paris, Île-de-France, France métropolitaine, France"
428,What Was Lost,Catherine O'Flynn,Birmingham,England,What Was Lost,"Birmingham, England","Birmingham, West Midlands Combined Authority, England, United Kingdom","England, United Kingdom","Birmingham, West Midlands Combined Authority, England, United Kingdom","Birmingham, West Midlands Combined Authority, England, United Kingdom",52.4796992,-1.9026911,"Birmingham, West Midlands Combined Authority, England, United Kingdom"
429,"Tengo miedo, torero",Pedro Lemebel,Santiago,Chile,My Tender Matador,"Santiago, Chile","Santiago, Provincia de Santiago, Región Metropolitana de Santiago, Chile",Chile,"Santiago, Provincia de Santiago, Región Metropolitana de Santiago, Chile","Santiago, Provincia de Santiago, Región Metropolitana de Santiago, Chile",-33.4377756,-70.6504502,"Santiago, Provincia de Santiago, Región Metropolitana de Santiago, Chile"
432,On Heroes and Tombs,Ernesto Sabato,Buenos Aires,Argentina,On Heroes and Tombs,"Buenos Aires, Argentina","Buenos Aires, Comuna 6, Ciudad Autónoma de Buenos Aires, Argentina",Argentina,"Buenos Aires, Comuna 6, Ciudad Autónoma de Buenos Aires, Argentina","Buenos Aires, Comuna 6, Ciudad Autónoma de Buenos Aires, Argentina",-34.6073387,-58.4432852,"Buenos Aires, Comuna 6, Ciudad Autónoma de Buenos Aires, Argentina"
434,The Stronghold,Mollie Hunter,Mainland,Orkney Islands,The Stronghold,"Mainland, Orkney Islands","Mainland, Orkney Islands, Alba / Scotland, United Kingdom","Orkney Islands, Alba / Scotland, United Kingdom","Mainland, Orkney Islands, Alba / Scotland, United Kingdom","Mainland, Orkney Islands, Alba / Scotland, United Kingdom",59.013374299999995,-3.231491934503152,"Mainland, Orkney Islands, Alba / Scotland, United Kingdom"
437,The Eagle's Conquest,,"Gesoriacum, Isle of Thanet",Roman Empire,Under the Eagle,"Gesoriacum, Isle of Thanet, Roman Empire",,"New Lotus House, 485, Roman Road, Old Ford, Bow, London Borough of Tower Hamlets, London, Greater London, England, E3 5LX, United Kingdom",,"New Lotus House, 485, Roman Road, Old Ford, Bow, London Borough of Tower Hamlets, London, Greater London, England, E3 5LX, United Kingdom",51.5322382,-0.033679,"New Lotus House, 485, Roman Road, Old Ford, Bow, London Borough of Tower Hamlets, London, Greater London, England, E3 5LX, United Kingdom"
439,Dark Cloud,N/A,Tenochtítlan,Mexico,Aztec (novel),"Tenochtítlan, Mexico","Tenochtitlan, Durango, Municipio de Durango, Durango, 34234, México","Ciudad de México, Cuauhtémoc, Ciudad de México, México","Tenochtitlan, Durango, Municipio de Durango, Durango, 34234, México","Tenochtitlan, Durango, Municipio de Durango, Durango, 34234, México",24.0769214,-104.5843863,"Tenochtitlan, Durango, Municipio de Durango, Durango, 34234, México"
440,The Stars in the Bright Sky,Alan Warner,London,United Kingdom,The Stars in the Bright Sky,"London, United Kingdom","London, Greater London, England, United Kingdom",United Kingdom,"London, Greater London, England, United Kingdom","London, Greater London, England, United Kingdom",51.5074456,-0.1277653,"London, Greater London, England, United Kingdom"
443,The Athenian Murders,José Carlos Somoza,Athens,Greece,The Athenian Murders,"Athens, Greece","Athens-Clarke County Unified Government, Athens-Clarke County, Georgia, United States",Ελλάς,"Αθήνα, Δήμος Αθηναίων, Περιφερειακή Ενότητα Κεντρικού Τομέα Αθηνών, Περιφέρεια Αττικής, Αποκεντρωμένη Διοίκηση Αττικής, 105 57, Ελλάς","Αθήνα, Δήμος Αθηναίων, Περιφερειακή Ενότητα Κεντρικού Τομέα Αθηνών, Περιφέρεια Αττικής, Αποκεντρωμένη Διοίκηση Αττικής, 105 57, Ελλάς",37.9755648,23.7348324,"Αθήνα, Δήμος Αθηναίων, Περιφερειακή Ενότητα Κεντρικού Τομέα Αθηνών, Περιφέρεια Αττικής, Αποκεντρωμένη Διοίκηση Αττικής, 105 57, Ελλάς"
444,The Lymond Chronicles,['Dorothy Dunnett'],Paris,France,Lymond Chronicles,"Paris, France","Paris, Île-de-France, France métropolitaine, France",France,"Paris, Île-de-France, France métropolitaine, France","Paris, Île-de-France, France métropolitaine, France",48.8534951,2.3483915,"Paris, Île-de-France, France métropolitaine, France"
446,The Jade Peony,Wayson Choy,Vancouver,Canada,The Jade Peony,"Vancouver, Canada","Vancouver, Metro Vancouver Regional District, British Columbia, Canada",Canada,"Vancouver, Metro Vancouver Regional District, British Columbia, Canada","Vancouver, Metro Vancouver Regional District, British Columbia, Canada",49.2608724,-123.113952,"Vancouver, Metro Vancouver Regional District, British Columbia, Canada"
447,Life and Fate,Vasily Grossman,Stalingrad,Soviet Union,Life and Fate,"Stalingrad, Soviet Union","Волгоград, Волгоградская область, Южный федеральный округ, Россия","Soviet Union, Strada Lacului, Slobozia, Ialomița, 920012, România",,"Волгоград, Волгоградская область, Южный федеральный округ, Россия",48.6484138,44.384975590129905,"Волгоград, Волгоградская область, Южный федеральный округ, Россия"
448,Doctor Zhivago,Boris Pasternak,Yuriatin (Perm),Russia,Doctor Zhivago (novel),"Yuriatin (Perm), Russia",,Россия,,Россия,64.6863136,97.7453061,Россия
449,Frankissstein: A Love Story,Jeanette Winterson,Geneva,Switzerland,Frankissstein,"Geneva, Switzerland","Genève, Schweiz/Suisse/Svizzera/Svizra",Schweiz/Suisse/Svizzera/Svizra,"Genève, Schweiz/Suisse/Svizzera/Svizra","Genève, Schweiz/Suisse/Svizzera/Svizra",46.2017559,6.1466014,"Genève, Schweiz/Suisse/Svizzera/Svizra"
450,Heat and Dust,Ruth Prawer Jhabvala,Satipur,India,Heat and Dust,"Satipur, India",,India,,India,22.3511148,78.6677428,India
452,The Thorn Birds,Colleen McCullough,Drogheda,Australia,The Thorn Birds,"Drogheda, Australia","Drogheda, County Louth, Leinster, Éire / Ireland",Australia,"Drogheda Forest Road, Jaunter, Oberon Council, New South Wales, 2787, Australia","Drogheda Forest Road, Jaunter, Oberon Council, New South Wales, 2787, Australia",-33.9862842,149.8888743,"Drogheda Forest Road, Jaunter, Oberon Council, New South Wales, 2787, Australia"
454,Lazarillo de Tormes,,Toledo,Spain,Lazarillo de Tormes,"Toledo, Spain","Toledo, Castilla-La Mancha, España",España,"Toledo, Castilla-La Mancha, España","Toledo, Castilla-La Mancha, España",39.8560679,-4.0239568,"Toledo, Castilla-La Mancha, España"
460,Gossip from the Forest,Thomas Keneally,Compiègne,France,Gossip from the Forest,"Compiègne, France","Compiègne, Oise, Hauts-de-France, France métropolitaine, 60200, France",France,"Compiègne, Oise, Hauts-de-France, France métropolitaine, 60200, France","Compiègne, Oise, Hauts-de-France, France métropolitaine, 60200, France",49.4179497,2.8263171,"Compiègne, Oise, Hauts-de-France, France métropolitaine, 60200, France"
463,Lincoln,Gore Vidal,Washington D.C.,United States,Lincoln (novel),"Washington D.C., United States","Washington, District of Columbia, United States",United States,"Washington, District of Columbia, United States","Washington, District of Columbia, United States",38.8950368,-77.0365427,"Washington, District of Columbia, United States"
464,The Prague Cemetery,Umberto Eco,Paris,France,The Prague Cemetery,"Paris, France","Paris, Île-de-France, France métropolitaine, France",France,"Paris, Île-de-France, France métropolitaine, France","Paris, Île-de-France, France métropolitaine, France",48.8534951,2.3483915,"Paris, Île-de-France, France métropolitaine, France"
465,Ireland: Awakening,Edward Rutherfurd,Ireland,Ireland,Ireland: Awakening,"Ireland, Ireland",Éire / Ireland,Éire / Ireland,Éire / Ireland,Éire / Ireland,52.865196,-7.9794599,Éire / Ireland
466,Peony,Pearl S. Buck,Kaifeng,China,Peony (novel),"Kaifeng, China","开封市, 河南省, 中国",中国,"开封市, 河南省, 中国","开封市, 河南省, 中国",34.604167,114.497222,"开封市, 河南省, 中国"
467,Half-Blood Blues,Esi Edugyan,Berlin,Germany,Half-Blood Blues,"Berlin, Germany","Berlin, Deutschland",Deutschland,"Berlin, Deutschland","Berlin, Deutschland",52.5108638,13.3989421,"Berlin, Deutschland"
468,From A to X,John Berger,Suse,Unknown,From A to X,"Suse, Unknown","Susa, Torino, Piemonte, Italia","Unknown, Kumbhraj Tahsil, Guna, Madhya Pradesh, India",,"Susa, Torino, Piemonte, Italia",45.1372115,7.0539789,"Susa, Torino, Piemonte, Italia"
469,The End of a Brave Man,Hanna Mina,Baniyas,Syria,The End of a Brave Man,"Baniyas, Syria","بانياس, ناحية مركز بانياس, منطقة بانياس, محافظة طرطوس, سوريا","سورية, سوريا","بانياس, ناحية مركز بانياس, منطقة بانياس, محافظة طرطوس, سوريا","بانياس, ناحية مركز بانياس, منطقة بانياس, محافظة طرطوس, سوريا",35.1820319,35.9449068,"بانياس, ناحية مركز بانياس, منطقة بانياس, محافظة طرطوس, سوريا"
470,Sour Sweet,Timothy Mo,London,United Kingdom,Sour Sweet,"London, United Kingdom","London, Greater London, England, United Kingdom",United Kingdom,"London, Greater London, England, United Kingdom","London, Greater London, England, United Kingdom",51.5074456,-0.1277653,"London, Greater London, England, United Kingdom"
472,Hypatia,Charles Kingsley,Alexandria,Egypt,Hypatia (novel),"Alexandria, Egypt","Alessandria, Piemonte, Italia",مصر,"الإسكندرية, 21519, مصر","الإسكندرية, 21519, مصر",31.1991806,29.8951716,"الإسكندرية, 21519, مصر"
473,Shadow Patriots,Lucia St. Clair Robson,New York City,United States,Shadow Patriots,"New York City, United States","City of New York, New York, United States",United States,"City of New York, New York, United States","City of New York, New York, United States",40.7127281,-74.0060152,"City of New York, New York, United States"
476,Trinity,Leon Uris,Ballyutogue,Ireland,Trinity (novel),"Ballyutogue, Ireland",,Éire / Ireland,,Éire / Ireland,52.865196,-7.9794599,Éire / Ireland
485,Mister Pip,Lloyd Jones,Bougainville Island,Papua New Guinea,Mister Pip,"Bougainville Island, Papua New Guinea","Bougainville, Autonomous Region of Bougainville, Islands Region, Papua Niugini",Papua Niugini,"Bougainville, Autonomous Region of Bougainville, Islands Region, Papua Niugini","Bougainville, Autonomous Region of Bougainville, Islands Region, Papua Niugini",-6.1441283,155.20593392291414,"Bougainville, Autonomous Region of Bougainville, Islands Region, Papua Niugini"
486,The Harmony Silk Factory,Tash Aw,Ipoh,Malaysia,The Harmony Silk Factory,"Ipoh, Malaysia","Ipoh, Kinta, Perak, 30450, Malaysia",Malaysia,"Ipoh, Kinta, Perak, 30450, Malaysia","Ipoh, Kinta, Perak, 30450, Malaysia",4.5986817,101.0900236,"Ipoh, Kinta, Perak, 30450, Malaysia"
491,Karan Ghelo,Nandshankar Mehta,Surat,India,Karan Ghelo,"Surat, India","Surat, Riom, Puy-de-Dôme, Auvergne-Rhône-Alpes, France métropolitaine, 63720, France",India,"Surat, Katargam Taluka, Surat, Gujarat, 395008, India","Surat, Katargam Taluka, Surat, Gujarat, 395008, India",21.2094892,72.8317058,"Surat, Katargam Taluka, Surat, Gujarat, 395008, India"
493,Johnny Tremain,Esther Forbes,Boston,United States,Johnny Tremain,"Boston, United States","Boston, Suffolk County, Massachusetts, United States",United States,"Boston, Suffolk County, Massachusetts, United States","Boston, Suffolk County, Massachusetts, United States",42.3554334,-71.060511,"Boston, Suffolk County, Massachusetts, United States"
496,Witiko,Adalbert Stifter,Prague,Czech Republic,Witiko (novel),"Prague, Czech Republic","Praha, obvod Praha 4, Hlavní město Praha, Praha, Česko",Česko,"Hlavní město Praha, Praha, Česko","Hlavní město Praha, Praha, Česko",50.0874654,14.4212535,"Hlavní město Praha, Praha, Česko"
499,Anandamath,Bankim Chandra Chattopadhyay,Padachihna,India,Anandamath,"Padachihna, India",,India,,India,22.3511148,78.6677428,India
500,An Orchestra of Minorities,Chigozie Obioma,Umuahia,Nigeria,An Orchestra of Minorities,"Umuahia, Nigeria","Umuahia, Umuahia North, Abia, Nigeria",Nigeria,"Umuahia, Umuahia North, Abia, Nigeria","Umuahia, Umuahia North, Abia, Nigeria",5.5324032,7.4924165,"Umuahia, Umuahia North, Abia, Nigeria"
504,The Bottle Factory Outing,Beryl Bainbridge,Windsor,England,The Bottle Factory Outing,"Windsor, England","Windsor, Ontario, N9A 3A8, Canada","England, United Kingdom","Windsor Castle, Thames Street, Clewer New Town, Clewer Village, Windsor, Windsor and Maidenhead, England, SL4 1PS, United Kingdom","Windsor Castle, Thames Street, Clewer New Town, Clewer Village, Windsor, Windsor and Maidenhead, England, SL4 1PS, United Kingdom",51.4837886,-0.6040418665032687,"Windsor Castle, Thames Street, Clewer New Town, Clewer Village, Windsor, Windsor and Maidenhead, England, SL4 1PS, United Kingdom"
509,The Lambing Flat,Nerida Newton,Lambing Flat,Australia,The Lambing Flat,"Lambing Flat, Australia","Lambing Flat Creek, Walcha, Walcha Council, New South Wales, 2354, Australia",Australia,"Lambing Flat Creek, Walcha, Walcha Council, New South Wales, 2354, Australia","Lambing Flat Creek, Walcha, Walcha Council, New South Wales, 2354, Australia",-30.863408,151.767965,"Lambing Flat Creek, Walcha, Walcha Council, New South Wales, 2354, Australia"
512,Empire of the Sun,J. G. Ballard,Shanghai,China,Empire of the Sun (novel),"Shanghai, China","上海市, 黄浦区, 上海市, 200001, 中国",中国,"上海市, 中国","上海市, 中国",31.2312707,121.4700152,"上海市, 中国"
514,The Heart of Jade,Salvador de Madariaga,Mexico City,Mexico,The Heart of Jade,"Mexico City, Mexico","Ciudad de México, México","Ciudad de México, Cuauhtémoc, Ciudad de México, México","Ciudad de México, Cuauhtémoc, Ciudad de México, México","Ciudad de México, Cuauhtémoc, Ciudad de México, México",19.4326296,-99.1331785,"Ciudad de México, Cuauhtémoc, Ciudad de México, México"
516,Solar Bones,Mike McCormack,Galway,Ireland,Solar Bones,"Galway, Ireland","Cathair na Gaillimhe, County Galway, Connacht, Éire / Ireland",Éire / Ireland,"Cathair na Gaillimhe, County Galway, Connacht, Éire / Ireland","Cathair na Gaillimhe, County Galway, Connacht, Éire / Ireland",53.2744122,-9.0490601,"Cathair na Gaillimhe, County Galway, Connacht, Éire / Ireland"
517,Centennial,James A. Michener,"Centennial (Greeley, Colorado)",United States,Centennial (novel),"Centennial (Greeley, Colorado), United States","Centennial Park, Greeley, Colorado, United States",United States,"Centennial Park, Greeley, Colorado, United States","Centennial Park, Greeley, Colorado, United States",40.40309945,-104.71713286659151,"Centennial Park, Greeley, Colorado, United States"
521,How to Be Both,Ali Smith,Ferrara,Italy,How to Be Both,"Ferrara, Italy","Ferrara, Emilia-Romagna, Italia",Italia,"Ferrara, Emilia-Romagna, Italia","Ferrara, Emilia-Romagna, Italia",44.766764249999994,11.827938995640167,"Ferrara, Emilia-Romagna, Italia"
523,,D. Manning Richards,Sydney,Australia,Destiny in Sydney (novel),"Sydney, Australia","Sydney, Council of the City of Sydney, New South Wales, Australia",Australia,"Sydney, Council of the City of Sydney, New South Wales, Australia","Sydney, Council of the City of Sydney, New South Wales, Australia",-33.8698439,151.2082848,"Sydney, Council of the City of Sydney, New South Wales, Australia"
524,Sacred Hunger,Peter Ackroyd,St. Augustine,United States,Sacred Hunger,"St. Augustine, United States","St. Augustine, Knox County, Illinois, United States",United States,"St. Augustine, Knox County, Illinois, United States","St. Augustine, Knox County, Illinois, United States",40.7183728,-90.4109616,"St. Augustine, Knox County, Illinois, United States"
525,El Filibusterismo,José Rizal,Manila,Philippines,El filibusterismo,"Manila, Philippines","Manila, Capital District, Metro Manila, Pilipinas",Pilipinas,"Manila, Capital District, Metro Manila, Pilipinas","Manila, Capital District, Metro Manila, Pilipinas",14.5906346,120.9799964,"Manila, Capital District, Metro Manila, Pilipinas"
526,The Testament of Gideon Mack,James Robertson,Monimaskit,Scotland,The Testament of Gideon Mack,"Monimaskit, Scotland",,"Alba / Scotland, United Kingdom",,"Alba / Scotland, United Kingdom",56.7861112,-4.1140518,"Alba / Scotland, United Kingdom"
529,Richard Carvel,Winston Churchill,Annapolis,United States,Richard Carvel,"Annapolis, United States","Annapolis, Anne Arundel County, Maryland, United States",United States,"Annapolis, Anne Arundel County, Maryland, United States","Annapolis, Anne Arundel County, Maryland, United States",38.9786401,-76.492786,"Annapolis, Anne Arundel County, Maryland, United States"
530,The Turquoise,Anya Seton,"New York, Santa Fe, and various other cities in NA",United States,The Turquoise (novel),"New York, Santa Fe, and various other cities in NA, United States",,United States,,United States,39.7837304,-100.445882,United States
531,Notes on a Scandal,Zoë Heller,London,United Kingdom,Notes on a Scandal,"London, United Kingdom","London, Greater London, England, United Kingdom",United Kingdom,"London, Greater London, England, United Kingdom","London, Greater London, England, United Kingdom",51.5074456,-0.1277653,"London, Greater London, England, United Kingdom"
533,The Black Tulip,"Alexandre Dumas, père",Haarlem,Netherlands,The Black Tulip,"Haarlem, Netherlands","Haarlem, Noord-Holland, Nederland",Nederland,"Haarlem, Noord-Holland, Nederland","Haarlem, Noord-Holland, Nederland",52.3885317,4.6388048,"Haarlem, Noord-Holland, Nederland"
534,Beside the Ocean of Time,George Mackay Brown,Orkney Islands,Scotland,Beside the Ocean of Time,"Orkney Islands, Scotland","Orkney Islands, Alba / Scotland, United Kingdom","Alba / Scotland, United Kingdom","Orkney Islands, Alba / Scotland, United Kingdom","Orkney Islands, Alba / Scotland, United Kingdom",58.8520573,-3.2869398422535223,"Orkney Islands, Alba / Scotland, United Kingdom"
535,Amongst Women,Brian Friel,Great Meadow,Ireland,Amongst Women,"Great Meadow, Ireland","Great Meadow, T19 ED BPP, Washington County, Maine, United States",Éire / Ireland,,"Great Meadow, T19 ED BPP, Washington County, Maine, United States",44.9528533,-67.5958291,"Great Meadow, T19 ED BPP, Washington County, Maine, United States"
537,Oscar and Lucinda,Peter Carey,Bellingen,Australia,Oscar and Lucinda,"Bellingen, Australia","Bellingen, Westerburg, Westerwaldkreis, Rheinland-Pfalz, Deutschland",Australia,"Bellingen Shire Council, New South Wales, Australia","Bellingen Shire Council, New South Wales, Australia",-30.37399135,152.71920995667793,"Bellingen Shire Council, New South Wales, Australia"
539,10 Minutes and 38 Seconds in This Strange World,Elif Shafak,Istanbul,Turkey,10 Minutes 38 Seconds in This Strange World,"Istanbul, Turkey","İstanbul, Fatih, İstanbul, Marmara Bölgesi, 34122, Türkiye",Türkiye,"İstanbul, Fatih, İstanbul, Marmara Bölgesi, 34122, Türkiye","İstanbul, Fatih, İstanbul, Marmara Bölgesi, 34122, Türkiye",41.006381,28.9758715,"İstanbul, Fatih, İstanbul, Marmara Bölgesi, 34122, Türkiye"
541,The Last of the Wine,Mary Renault,Athens,Greece,The Last of the Wine,"Athens, Greece","Athens-Clarke County Unified Government, Athens-Clarke County, Georgia, United States",Ελλάς,"Αθήνα, Δήμος Αθηναίων, Περιφερειακή Ενότητα Κεντρικού Τομέα Αθηνών, Περιφέρεια Αττικής, Αποκεντρωμένη Διοίκηση Αττικής, 105 57, Ελλάς","Αθήνα, Δήμος Αθηναίων, Περιφερειακή Ενότητα Κεντρικού Τομέα Αθηνών, Περιφέρεια Αττικής, Αποκεντρωμένη Διοίκηση Αττικής, 105 57, Ελλάς",37.9755648,23.7348324,"Αθήνα, Δήμος Αθηναίων, Περιφερειακή Ενότητα Κεντρικού Τομέα Αθηνών, Περιφέρεια Αττικής, Αποκεντρωμένη Διοίκηση Αττικής, 105 57, Ελλάς"
543,"Blood Red, Snow White",Marcus Sedgwick,Moscow,Russia,"Blood Red, Snow White","Moscow, Russia","Москва, Центральный федеральный округ, Россия",Россия,"Москва, Центральный федеральный округ, Россия","Москва, Центральный федеральный округ, Россия",55.625578,37.6063916,"Москва, Центральный федеральный округ, Россия"
544,Marthandavarma,C. V. Raman Pillai,Travancore (Thiruvananthapuram),India,Ramarajabahadur (novel),"Travancore (Thiruvananthapuram), India","Mall Of Travancore, Thiruvananthapuram Bypass, Eanchakkal, Thiruvananthapuram, Kerala, 695024, India",India,"Travancore Titanium Products (TTP), ISRO Road Near Kochuveli Railway Station, Balanagar, Kochuveli, Thiruvananthapuram, Kerala, Vettukadu, Thiruvananthapuram, Kerala, 695021, India","Travancore Titanium Products (TTP), ISRO Road Near Kochuveli Railway Station, Balanagar, Kochuveli, Thiruvananthapuram, Kerala, Vettukadu, Thiruvananthapuram, Kerala, 695021, India",8.4998069,76.89963982164869,"Travancore Titanium Products (TTP), ISRO Road Near Kochuveli Railway Station, Balanagar, Kochuveli, Thiruvananthapuram, Kerala, Vettukadu, Thiruvananthapuram, Kerala, 695021, India"
545,The Bolitho Novels,Alexander Kent (pseudonym of Douglas Reeman),Falmouth,Great Britain,Bolitho Novels,"Falmouth, Great Britain","Falmouth, Cornwall, England, United Kingdom","Great Britain, United Kingdom",,"Falmouth, Cornwall, England, United Kingdom",50.1552197,-5.0688262,"Falmouth, Cornwall, England, United Kingdom"
548,In the Time of the Butterflies,Julia Alvarez,Santo Domingo,Dominican Republic,In the Time of the Butterflies,"Santo Domingo, Dominican Republic","Santo Domingo de Guzmán, Distrito Nacional, República Dominicana",República Dominicana,"Santo Domingo de Guzmán, Distrito Nacional, República Dominicana","Santo Domingo de Guzmán, Distrito Nacional, República Dominicana",18.4801972,-69.942111,"Santo Domingo de Guzmán, Distrito Nacional, República Dominicana"
549,Fateless,Imre Kertész,Budapest,Hungary,Fatelessness,"Budapest, Hungary","Budapest, Közép-Magyarország, Magyarország",Magyarország,"Budapest, Közép-Magyarország, Magyarország","Budapest, Közép-Magyarország, Magyarország",47.4978789,19.0402383,"Budapest, Közép-Magyarország, Magyarország"
550,The Book and the Brotherhood,Iris Murdoch,Oxford,England,The Book and the Brotherhood,"Oxford, England","Oxford, Oxfordshire, England, United Kingdom","England, United Kingdom","Oxford, Oxfordshire, England, United Kingdom","Oxford, Oxfordshire, England, United Kingdom",51.7520131,-1.2578499,"Oxford, Oxfordshire, England, United Kingdom"
553,Swimming Home,Deborah Levy,Nice,France,Swimming Home,"Nice, France","Nice, Alpes-Maritimes, Provence-Alpes-Côte d'Azur, France métropolitaine, France",France,"Nice, Alpes-Maritimes, Provence-Alpes-Côte d'Azur, France métropolitaine, France","Nice, Alpes-Maritimes, Provence-Alpes-Côte d'Azur, France métropolitaine, France",43.7009358,7.2683912,"Nice, Alpes-Maritimes, Provence-Alpes-Côte d'Azur, France métropolitaine, France"
554,The Sisters Brothers,Patrick deWitt,Oregon City,Canada,The Sisters Brothers,"Oregon City, Canada","Oregon City, Clackamas County, Oregon, 97045, United States",Canada,"Oregon Trail, Eatonville, Etobicoke Centre, Etobicoke, Toronto, Golden Horseshoe, Ontario, M9B 3Z8, Canada","Oregon Trail, Eatonville, Etobicoke Centre, Etobicoke, Toronto, Golden Horseshoe, Ontario, M9B 3Z8, Canada",43.6398586,-79.55372,"Oregon Trail, Eatonville, Etobicoke Centre, Etobicoke, Toronto, Golden Horseshoe, Ontario, M9B 3Z8, Canada"
555,The Blood of Lorraine,Barbara Corrado Pope,France (Belle Époque),France,The Blood of Lorraine,"France (Belle Époque), France","Belle Époque, Rue Dangon, Serin, Lyon 4e Arrondissement, Lyon, Métropole de Lyon, Rhône, Auvergne-Rhône-Alpes, France métropolitaine, 69004, France",France,,"Belle Époque, Rue Dangon, Serin, Lyon 4e Arrondissement, Lyon, Métropole de Lyon, Rhône, Auvergne-Rhône-Alpes, France métropolitaine, 69004, France",45.7776541,4.8201862,"Belle Époque, Rue Dangon, Serin, Lyon 4e Arrondissement, Lyon, Métropole de Lyon, Rhône, Auvergne-Rhône-Alpes, France métropolitaine, 69004, France"
556,Pharaoh,Bolesław Prus,Egypt,Egypt,Pharaoh (Prus novel),"Egypt, Egypt",مصر,مصر,مصر,مصر,26.2540493,29.2675469,مصر
558,The Ministry of Utmost Happiness,Arundhati Roy,Delhi and Kashmir,India,The Ministry of Utmost Happiness,"Delhi and Kashmir, India","Jammu and Kashmir Bank, Main road, Batla House, Defence Colony Tehsil, South East Delhi, Delhi, 110025, India",India,"Delhi Public School Srinagar, MA Road, Lasjan, Srinagar, Srīnagar, Srinagar, Jammu and Kashmir, 190004, India","Delhi Public School Srinagar, MA Road, Lasjan, Srinagar, Srīnagar, Srinagar, Jammu and Kashmir, 190004, India",34.0411016,74.87946013678442,"Delhi Public School Srinagar, MA Road, Lasjan, Srinagar, Srīnagar, Srinagar, Jammu and Kashmir, 190004, India"
559,Bano,Razia Butt,Ludhiana,Pakistan,Bano (novel),"Ludhiana, Pakistan","Ludhiana, Ludhiana (West) Tahsil, Ludhiana, Punjab, 141001, India",پاکستان,"Ludhiana Foods, Katchary Bazar, Katchary Bazaar, تحصیل فیصل آباد شہر, ضلع فیصل آباد, فیصل آباد ڈویژن, پنجاب, 38900, پاکستان","Ludhiana Foods, Katchary Bazar, Katchary Bazaar, تحصیل فیصل آباد شہر, ضلع فیصل آباد, فیصل آباد ڈویژن, پنجاب, 38900, پاکستان",31.4188805,73.079445,"Ludhiana Foods, Katchary Bazar, Katchary Bazaar, تحصیل فیصل آباد شہر, ضلع فیصل آباد, فیصل آباد ڈویژن, پنجاب, 38900, پاکستان"
560,Marthandavarma,C. V. Raman Pillai,Travancore (now Trivandrum),India,Dharmaraja (novel),"Travancore (now Trivandrum), India",,India,,India,22.3511148,78.6677428,India
562,An Angel in Australia,Thomas Keneally,Sydney,Australia,An Angel in Australia,"Sydney, Australia","Sydney, Council of the City of Sydney, New South Wales, Australia",Australia,"Sydney, Council of the City of Sydney, New South Wales, Australia","Sydney, Council of the City of Sydney, New South Wales, Australia",-33.8698439,151.2082848,"Sydney, Council of the City of Sydney, New South Wales, Australia"
563,The Glass Room,Simon Mawer,Brno,Czechoslovakia,The Glass Room,"Brno, Czechoslovakia","Brno, okres Brno-město, Jihomoravský kraj, Jihovýchod, Česko","Tschechoslowakei, Kardenweg, Mauthausen, Bezirk Perg, Oberösterreich, 4310, Österreich",,"Brno, okres Brno-město, Jihomoravský kraj, Jihovýchod, Česko",49.1922443,16.6113382,"Brno, okres Brno-město, Jihomoravský kraj, Jihovýchod, Česko"
566,A Place in England,Melvyn Bragg,Wigton,England,A Place in England,"Wigton, England","Wigton, Cumberland, England, United Kingdom","England, United Kingdom","Wigton, Cumberland, England, United Kingdom","Wigton, Cumberland, England, United Kingdom",54.8246802,-3.1610942,"Wigton, Cumberland, England, United Kingdom"
574,The Killer Angels,Michael Shaara,Gettysburg,United States,The Killer Angels,"Gettysburg, United States","Gettysburg, Adams County, Pennsylvania, 17325, United States",United States,"Gettysburg, Adams County, Pennsylvania, 17325, United States","Gettysburg, Adams County, Pennsylvania, 17325, United States",39.8308973,-77.231012,"Gettysburg, Adams County, Pennsylvania, 17325, United States"
577,In Ascension,Martin MacInnes,Rotterdam,Netherlands,In Ascension,"Rotterdam, Netherlands","Rotterdam, Zuid-Holland, Nederland",Nederland,"Rotterdam, Zuid-Holland, Nederland","Rotterdam, Zuid-Holland, Nederland",51.9244424,4.47775,"Rotterdam, Zuid-Holland, Nederland"
580,The Warsaw Anagrams,Richard Zimler,Warsaw,Poland,The Warsaw Anagrams,"Warsaw, Poland","Warszawa, województwo mazowieckie, Polska",Polska,"Warszawa, województwo mazowieckie, Polska","Warszawa, województwo mazowieckie, Polska",52.2337172,21.071432235636493,"Warszawa, województwo mazowieckie, Polska"
584,The Death of Vishnu,Manil Suri,Bombay,India,The Death of Vishnu,"Bombay, India","Mumbai Suburban, Maharashtra, India",India,"Mumbai City, Maharashtra, India","Mumbai City, Maharashtra, India",18.9733536,72.82810491917377,"Mumbai City, Maharashtra, India"
586,Out of This Furnace,Thomas Bell,Braddock,United States,Out of This Furnace,"Braddock, United States","Braddock, Emmons County, North Dakota, United States",United States,"Braddock, Emmons County, North Dakota, United States","Braddock, Emmons County, North Dakota, United States",46.5644311,-100.0909421,"Braddock, Emmons County, North Dakota, United States"
587,The Clothes on Their Backs,Linda Grant,London,United Kingdom,The Clothes on Their Backs,"London, United Kingdom","London, Greater London, England, United Kingdom",United Kingdom,"London, Greater London, England, United Kingdom","London, Greater London, England, United Kingdom",51.5074456,-0.1277653,"London, Greater London, England, United Kingdom"
594,The Adventurer,Mika Waltari,Turku,Finland,The Adventurer (novel),"Turku, Finland","Turku, Turun seutukunta, Varsinais-Suomi, Lounais-Suomen aluehallintovirasto, Manner-Suomi, Suomi / Finland",Suomi / Finland,"Turku, Turun seutukunta, Varsinais-Suomi, Lounais-Suomen aluehallintovirasto, Manner-Suomi, Suomi / Finland","Turku, Turun seutukunta, Varsinais-Suomi, Lounais-Suomen aluehallintovirasto, Manner-Suomi, Suomi / Finland",60.4517531,22.2670522,"Turku, Turun seutukunta, Varsinais-Suomi, Lounais-Suomen aluehallintovirasto, Manner-Suomi, Suomi / Finland"
596,Winter in Madrid,C. J. Sansom,Madrid,Spain,Winter in Madrid,"Madrid, Spain","Madrid, Comunidad de Madrid, España",España,"Madrid, Comunidad de Madrid, España","Madrid, Comunidad de Madrid, España",40.4167047,-3.7035825,"Madrid, Comunidad de Madrid, España"
597,The Hunchback of Notre Dame,Victor Hugo,Paris,France,The Hunchback of Notre Dame,"Paris, France","Paris, Île-de-France, France métropolitaine, France",France,"Paris, Île-de-France, France métropolitaine, France","Paris, Île-de-France, France métropolitaine, France",48.8534951,2.3483915,"Paris, Île-de-France, France métropolitaine, France"
600,Alias Grace,Margaret Atwood,Upper Canada,Canada,Alias Grace,"Upper Canada, Canada","Upper Canada, Hutton, North Somerset, England, BS24 9UT, United Kingdom",Canada,,"Upper Canada, Hutton, North Somerset, England, BS24 9UT, United Kingdom",51.3199525,-2.9162048,"Upper Canada, Hutton, North Somerset, England, BS24 9UT, United Kingdom"
603,Dark Cloud,,Tenochtítlan,Mexico,Aztec (book),"Tenochtítlan, Mexico","Tenochtitlan, Durango, Municipio de Durango, Durango, 34234, México","Ciudad de México, Cuauhtémoc, Ciudad de México, México","Tenochtitlan, Durango, Municipio de Durango, Durango, 34234, México","Tenochtitlan, Durango, Municipio de Durango, Durango, 34234, México",24.0769214,-104.5843863,"Tenochtitlan, Durango, Municipio de Durango, Durango, 34234, México"
605,The Secret Scripture,Sebastian Barry,Sligo,Ireland,The Secret Scripture,"Sligo, Ireland","County Sligo, Connacht, Éire / Ireland",Éire / Ireland,"County Sligo, Connacht, Éire / Ireland","County Sligo, Connacht, Éire / Ireland",54.19298605,-8.7305426729522,"County Sligo, Connacht, Éire / Ireland"
610,The City Beautiful,Aden Polydoros,Chicago,United States,The City Beautiful (novel),"Chicago, United States","Chicago, Cook County, Illinois, United States",United States,"Chicago, Cook County, Illinois, United States","Chicago, Cook County, Illinois, United States",41.8755616,-87.6244212,"Chicago, Cook County, Illinois, United States"
613,The Miniaturist,Jessica Burton,Amsterdam,Netherlands,The Miniaturist,"Amsterdam, Netherlands","Amsterdam, Noord-Holland, Nederland",Nederland,"Amsterdam, Noord-Holland, Nederland","Amsterdam, Noord-Holland, Nederland",52.3730796,4.8924534,"Amsterdam, Noord-Holland, Nederland"
614,Royal Escape,Georgette Heyer,"Worcester, Shoreham (and NA)",England,Royal Escape,"Worcester, Shoreham (and NA), England",,"England, United Kingdom",,"England, United Kingdom",52.5310214,-1.2649062,"England, United Kingdom"
615,The Samurai,Shusaku Endo,Acapulco,Mexico,The Samurai (novel),"Acapulco, Mexico","Acapulco, Acapulco de Juárez, Guerrero, 39300, México","Ciudad de México, Cuauhtémoc, Ciudad de México, México","Acapulco, Acapulco de Juárez, Guerrero, 39300, México","Acapulco, Acapulco de Juárez, Guerrero, 39300, México",16.8680495,-99.8940182,"Acapulco, Acapulco de Juárez, Guerrero, 39300, México"
617,A Journal of the Plague Year,Daniel Defoe,London,England,A Journal of the Plague Year,"London, England","London, Greater London, England, United Kingdom","England, United Kingdom","London, Greater London, England, United Kingdom","London, Greater London, England, United Kingdom",51.5074456,-0.1277653,"London, Greater London, England, United Kingdom"
619,The Bedlam Stacks,Robert Hensher,Kabul,Afghanistan,The Mulberry Empire,"Kabul, Afghanistan","کابل, کابل ښاروالۍ, ولایت كابل, 1001, افغانستان",افغانستان,"کابل, کابل ښاروالۍ, ولایت كابل, 1001, افغانستان","کابل, کابل ښاروالۍ, ولایت كابل, 1001, افغانستان",34.5260109,69.1776838,"کابل, کابل ښاروالۍ, ولایت كابل, 1001, افغانستان"
620,The Pillars of the Earth,Ken Follett,Toledo,Spain,The Pillars of the Earth,"Toledo, Spain","Toledo, Castilla-La Mancha, España",España,"Toledo, Castilla-La Mancha, España","Toledo, Castilla-La Mancha, España",39.8560679,-4.0239568,"Toledo, Castilla-La Mancha, España"
621,The Northern Clemency,Philip Hensher,Sheffield,England,The Northern Clemency,"Sheffield, England","Sheffield, South Yorkshire, England, United Kingdom","England, United Kingdom","Sheffield, South Yorkshire, England, United Kingdom","Sheffield, South Yorkshire, England, United Kingdom",53.3806626,-1.4702278,"Sheffield, South Yorkshire, England, United Kingdom"
623,Dublin: Foundation,Edward Rutherfurd,Dublin,Ireland,Dublin: Foundation,"Dublin, Ireland","Dublin, County Dublin, Leinster, Éire / Ireland",Éire / Ireland,"Dublin, County Dublin, Leinster, Éire / Ireland","Dublin, County Dublin, Leinster, Éire / Ireland",53.3493795,-6.2605593,"Dublin, County Dublin, Leinster, Éire / Ireland"
627,Thaddeus of Warsaw,Jane Porter,Warsaw,Poland,Thaddeus of Warsaw,"Warsaw, Poland","Warszawa, województwo mazowieckie, Polska",Polska,"Warszawa, województwo mazowieckie, Polska","Warszawa, województwo mazowieckie, Polska",52.2337172,21.071432235636493,"Warszawa, województwo mazowieckie, Polska"
628,Marthandavarma,C. V. Raman Pillai,Travancore,India,Marthandavarma (novel),"Travancore, India","Travancore, Melbourne, City of Moonee Valley, Victoria, 3032, Australia",India,"Travancore Medical College Hospital, Salem - Kochi - Kanyakumari Road, Mevaram, Kollam, Kerala, 691589, India","Travancore Medical College Hospital, Salem - Kochi - Kanyakumari Road, Mevaram, Kollam, Kerala, 691589, India",8.875029699999999,76.64485857994526,"Travancore Medical College Hospital, Salem - Kochi - Kanyakumari Road, Mevaram, Kollam, Kerala, 691589, India"
629,The Journeyer,Gary Jennings,Venice,Italy,The Journeyer,"Venice, Italy","Venezia, Veneto, 30121-30176, Italia",Italia,"Venezia, Veneto, 30121-30176, Italia","Venezia, Veneto, 30121-30176, Italia",45.4371908,12.3345898,"Venezia, Veneto, 30121-30176, Italia"
632,The Autograph Man,Zadie Smith,Mountjoy (fictional),England,The Autograph Man,"Mountjoy (fictional), England",,"England, United Kingdom",,"England, United Kingdom",52.5310214,-1.2649062,"England, United Kingdom"
635,A Tale for the Time Being,Ruth Ozeki,Tokyo,Japan,A Tale for the Time Being,"Tokyo, Japan","東京都, 日本",日本,"東京都, 日本","東京都, 日本",35.6821936,139.762221,"東京都, 日本"
638,The Story of Lucy Gault,William Trevor,Cork,Ireland,The Story of Lucy Gault,"Cork, Ireland","Cork, County Cork, Munster, Éire / Ireland",Éire / Ireland,"Cork, County Cork, Munster, Éire / Ireland","Cork, County Cork, Munster, Éire / Ireland",51.897077,-8.4654674,"Cork, County Cork, Munster, Éire / Ireland"
640,The Coffee Trader,,Amsterdam,Netherlands,The Coffee Trader,"Amsterdam, Netherlands","Amsterdam, Noord-Holland, Nederland",Nederland,"Amsterdam, Noord-Holland, Nederland","Amsterdam, Noord-Holland, Nederland",52.3730796,4.8924534,"Amsterdam, Noord-Holland, Nederland"
643,Diary of an Ordinary Woman,Margaret Forster,London,England,Diary of an Ordinary Woman,"London, England","London, Greater London, England, United Kingdom","England, United Kingdom","London, Greater London, England, United Kingdom","London, Greater London, England, United Kingdom",51.5074456,-0.1277653,"London, Greater London, England, United Kingdom"
645,The Gift of Rain,Tan Twan Eng,Penang,Malaysia,The Gift of Rain,"Penang, Malaysia","Pulau Pinang, Malaysia",Malaysia,"Pulau Pinang, Malaysia","Pulau Pinang, Malaysia",5.4065013,100.2559077,"Pulau Pinang, Malaysia"
648,El Sol de Breda,,Venice,Spain,Captain Alatriste,"Venice, Spain","Venezia, Veneto, 30121-30176, Italia",España,"Venice, Calle Cervantes, Huerta del Rey, Tarifa, Campo de Gibraltar, Cádiz, Andalucía, 11380, España","Venice, Calle Cervantes, Huerta del Rey, Tarifa, Campo de Gibraltar, Cádiz, Andalucía, 11380, España",36.0126747,-5.6035962,"Venice, Calle Cervantes, Huerta del Rey, Tarifa, Campo de Gibraltar, Cádiz, Andalucía, 11380, España"
652,A Bend in the River,V.S. Naipaul,Kisangani,Zaire,A Bend in the River,"Kisangani, Zaire","Kisangani, Tshopo, République démocratique du Congo","Zaire, Angola","Kisangani, Tshopo, République démocratique du Congo","Kisangani, Tshopo, République démocratique du Congo",0.5184021,25.2057292,"Kisangani, Tshopo, République démocratique du Congo"
655,A Spool of Blue Thread,Anne Tyler,Baltimore,USA,A Spool of Blue Thread,"Baltimore, USA","Baltimore, Maryland, United States",United States,"Baltimore, Maryland, United States","Baltimore, Maryland, United States",39.2908816,-76.610759,"Baltimore, Maryland, United States"
656,The House of Niccolò,Dorothy Dunnett,"Multiple cities and locations (e.g., Flanders, Burgundy, Italy, Trebizond, Cyprus, Venice, Portugal, Madeira, Mali, Scotland, Egypt, the Sinai peninsula, Italy, Poland, Crimea, Persia, Russia, and France)","Multiple countries and regions (e.g., Flanders, Burgundy, Italy, Turkey, Greece, Ethiopia, Scotland, England, Wales, Ireland, Africa, Asia)",The House of Niccolò,"Multiple cities and locations (e.g., Flanders, Burgundy, Italy, Trebizond, Cyprus, Venice, Portugal, Madeira, Mali, Scotland, Egypt, the Sinai peninsula, Italy, Poland, Crimea, Persia, Russia, and France), Multiple countries and regions (e.g., Flanders, Burgundy, Italy, Turkey, Greece, Ethiopia, Scotland, England, Wales, Ireland, Africa, Asia)",,,,,,,
657,The Road to Wellville,T. C. Boyle,Battle Creek,Michigan,The Road to Wellville,"Battle Creek, Michigan","Battle Creek, Calhoun County, Michigan, United States","Michigan, United States","Battle Creek, Calhoun County, Michigan, United States","Battle Creek, Calhoun County, Michigan, United States",42.3192548,-85.1824269,"Battle Creek, Calhoun County, Michigan, United States"
658,Jack Maggs,Peter Carey,London,United Kingdom,Jack Maggs,"London, United Kingdom","London, Greater London, England, United Kingdom",United Kingdom,"London, Greater London, England, United Kingdom","London, Greater London, England, United Kingdom",51.5074456,-0.1277653,"London, Greater London, England, United Kingdom"
659,The Heart of Mid-Lothian,Walter Scott,Edinburgh,Scotland,The Heart of Mid-Lothian,"Edinburgh, Scotland","City of Edinburgh, Alba / Scotland, United Kingdom","Alba / Scotland, United Kingdom","City of Edinburgh, Alba / Scotland, United Kingdom","City of Edinburgh, Alba / Scotland, United Kingdom",55.9533456,-3.1883749,"City of Edinburgh, Alba / Scotland, United Kingdom"
661,Empress Orchid,Anchee Min,Peking,China,Empress Orchid,"Peking, China","北京市, 中国",中国,"北京市, 中国","北京市, 中国",40.190632,116.412144,"北京市, 中国"
662,Darkmans,Nicola Barker,Ashford,UK,Darkmans,"Ashford, UK","Ashford, Kent, England, United Kingdom",United Kingdom,"Ashford, Kent, England, United Kingdom","Ashford, Kent, England, United Kingdom",51.148555,0.8722566,"Ashford, Kent, England, United Kingdom"
664,Quo Vadis,Henryk Sienkiewicz,Rome,Roman Empire,Quo Vadis (novel),"Rome, Roman Empire","Roma, Roma Capitale, Lazio, Italia","New Lotus House, 485, Roman Road, Old Ford, Bow, London Borough of Tower Hamlets, London, Greater London, England, E3 5LX, United Kingdom",,"Roma, Roma Capitale, Lazio, Italia",41.8933203,12.4829321,"Roma, Roma Capitale, Lazio, Italia"
665,Journey,James Michener,"Dawson, Yukon",Canada,Journey (novel),"Dawson, Yukon, Canada","Dawson City, Yukon, Y0B 1G0, Canada",Canada,"Dawson City, Yukon, Y0B 1G0, Canada","Dawson City, Yukon, Y0B 1G0, Canada",64.0606605,-139.431695,"Dawson City, Yukon, Y0B 1G0, Canada"
666,Footsteps,Pramoedya Ananta Toer,Batavia (today Indonesia),Indonesia,Jejak Langkah,"Batavia (today Indonesia), Indonesia",,Indonesia,,Indonesia,-2.4833826,117.8902853,Indonesia
667,The Rotters' Club,Jonathan Coe,Birmingham,United Kingdom,The Rotters' Club (novel),"Birmingham, United Kingdom","Birmingham, West Midlands Combined Authority, England, United Kingdom",United Kingdom,"Birmingham, West Midlands Combined Authority, England, United Kingdom","Birmingham, West Midlands Combined Authority, England, United Kingdom",52.4796992,-1.9026911,"Birmingham, West Midlands Combined Authority, England, United Kingdom"
669,Disgrace,J. M. Coetzee,Cape Town,South Africa,Disgrace,"Cape Town, South Africa","Cape Town, City of Cape Town, Western Cape, 8001, South Africa",South Africa,"Cape Town, City of Cape Town, Western Cape, 8001, South Africa","Cape Town, City of Cape Town, Western Cape, 8001, South Africa",-33.928992,18.417396,"Cape Town, City of Cape Town, Western Cape, 8001, South Africa"
670,The Battle of Pollocks Crossing,J.L. Carr,Huron,United States,The Battle of Pollocks Crossing,"Huron, United States","Huron County, Ohio, United States",United States,"Huron County, Ohio, United States","Huron County, Ohio, United States",41.1305303,-82.591828,"Huron County, Ohio, United States"
