,Unnamed: 0,title,author,city,country,page,city_country,city_location,country_location,city_country_location,best_location,lat,lon,address,geocoded_address,geocoded_country
0,1,The Mars Room,Rachel Kushner,San Francisco,United States,The Mars Room,"San Francisco, United States","San Francisco, California, United States",United States,"San Francisco, California, United States","San Francisco, California, United States",37.7792588,-122.4193286,"San Francisco, California, United States","San Francisco, California, United States",United States
1,2,The Missing Italian Girl,Barbara Corrado Pope,Paris,France,The Missing Italian Girl,"Paris, France","Paris, Ile-de-France, Metropolitan France, France",France,"Paris, Ile-de-France, Metropolitan France, France","Paris, Ile-de-France, Metropolitan France, France",48.8588897,2.3200410217200766,"Paris, Ile-de-France, Metropolitan France, France","Paris, Ile-de-France, France",France
2,4,Brazil Red,Jean-Christophe Rufin,Rio de Janeiro,Brazil,Brazil Red,"Rio de Janeiro, Brazil","Rio de Janeiro, Região Geográfica Imediata do Rio de Janeiro, Região Metropolitana do Rio de Janeiro, Região Geográfica Intermediária do Rio de Janeiro, Rio de Janeiro, Southeast Region, Brazil",Brazil,"Rio de Janeiro, Região Geográfica Imediata do Rio de Janeiro, Região Metropolitana do Rio de Janeiro, Região Geográfica Intermediária do Rio de Janeiro, Rio de Janeiro, Southeast Region, Brazil","Rio de Janeiro, Região Geográfica Imediata do Rio de Janeiro, Região Metropolitana do Rio de Janeiro, Região Geográfica Intermediária do Rio de Janeiro, Rio de Janeiro, Southeast Region, Brazil",-22.9110137,-43.2093727,"Rio de Janeiro, Região Geográfica Imediata do Rio de Janeiro, Região Metropolitana do Rio de Janeiro, Região Geográfica Intermediária do Rio de Janeiro, Rio de Janeiro, Southeast Region, Brazil","Rio de Janeiro, Brazil",Brazil
3,5,New York: A Novel,Edward Rutherfurd,New York City,United States,New York (novel),"New York City, United States","New York, United States",United States,"New York, United States","New York, United States",40.7127281,-74.0060152,"New York, United States","New York, New York, United States",United States
4,7,According to Mark,Penelope Lively,London,England,According to Mark,"London, England","London, Greater London, England, United Kingdom","England, United Kingdom","London, Greater London, England, United Kingdom","London, Greater London, England, United Kingdom",51.4893335,-0.1440550845276872,"London, Greater London, England, United Kingdom","London, England, United Kingdom",United Kingdom
5,8,Briefing for a Descent into Hell,Doris Lessing,London,United Kingdom,Briefing for a Descent into Hell,"London, United Kingdom","London, Greater London, England, United Kingdom",United Kingdom,"London, Greater London, England, United Kingdom","London, Greater London, England, United Kingdom",51.4893335,-0.1440550845276872,"London, Greater London, England, United Kingdom","London, England, United Kingdom",United Kingdom
6,9,Alaska,James Michener,Nome,United States,Alaska (novel),"Nome, United States","Nome, Unorganized Borough, Alaska, United States",United States,"Nome, Unorganized Borough, Alaska, United States","Nome, Unorganized Borough, Alaska, United States",64.4975098,-165.4061701,"Nome, Unorganized Borough, Alaska, United States","Alaska, United States",United States
7,11,Mrs. Eckdorf in O'Neill's Hotel,William Trevor,Dublin,Ireland,Mrs Eckdorf in O'Neill's Hotel,"Dublin, Ireland","Dublin, County Dublin, Leinster, Ireland",Ireland,"Dublin, County Dublin, Leinster, Ireland","Dublin, County Dublin, Leinster, Ireland",53.3493795,-6.2605593,"Dublin, County Dublin, Leinster, Ireland","Dublin, Ireland",Ireland
8,13,St. Urbain's Horseman,Mordecai Richler,London and Montreal,Canada,St. Urbain's Horseman,"London and Montreal, Canada",,Canada,,Canada,61.0666922,-107.991707,Canada,Canada,Canada
9,19,Empress,Shan Sa,Beijing,China,Empress (novel),"Beijing, China","Beijing, Dongcheng District, Beijing, 100010, China",China,"Beijing, China","Beijing, China",40.190632,116.412144,"Beijing, China","Beijing, China",China
10,21,The Playmaker,Thomas Keneally,Sydney Cove,Australia,The Playmaker,"Sydney Cove, Australia","Sydney Cove, Quay Quarter, Sydney, New South Wales, 2000, Australia",Australia,"Sydney Cove, Quay Quarter, Sydney, New South Wales, 2000, Australia","Sydney Cove, Quay Quarter, Sydney, New South Wales, 2000, Australia",-33.85808355,151.2121015347458,"Sydney Cove, Quay Quarter, Sydney, New South Wales, 2000, Australia","Sydney, New South Wales, Australia",Australia
11,22,Noble House,James Clavell,Hong Kong,Hong Kong (British Crown Colony),Noble House (book),"Hong Kong, Hong Kong (British Crown Colony)","Hong Kong, China",,,"Hong Kong, China",22.350627,114.1849161,"Hong Kong, China","Hong Kong, China",China
12,24,The Rover,Joseph Conrad,Hyères,France,The Rover (novel),"Hyères, France","Hyères, Toulon, Var, Provence-Alpes-Côte d'Azur, Metropolitan France, 83400, France",France,"Hyères, Toulon, Var, Provence-Alpes-Côte d'Azur, Metropolitan France, 83400, France","Hyères, Toulon, Var, Provence-Alpes-Côte d'Azur, Metropolitan France, 83400, France",43.1202573,6.1301614,"Hyères, Toulon, Var, Provence-Alpes-Côte d'Azur, Metropolitan France, 83400, France","Provence-Alpes-Côte d'Azur, France",France
13,26,The Emigrants,Vilhelm Moberg,Karlshamn,Sweden,The Emigrants (novels),"Karlshamn, Sweden","Karlshamn, Karlshamns kommun, Blekinge County, 374 35, Sweden",Sweden,"Karlshamns kommun, Blekinge County, Sweden","Karlshamns kommun, Blekinge County, Sweden",56.25,14.866667,"Karlshamns kommun, Blekinge County, Sweden",Sweden,Sweden
14,28,Martin Dressler: The Tale of an American Dreamer,Steven Millhauser,New York City,United States,Martin Dressler: The Tale of an American Dreamer,"New York City, United States","New York, United States",United States,"New York, United States","New York, United States",40.7127281,-74.0060152,"New York, United States","New York, New York, United States",United States
15,30,Love and Summer,William Trevor,Rathmoye,Ireland,Love and Summer,"Rathmoye, Ireland",,Ireland,,Ireland,52.865196,-7.9794599,Ireland,Ireland,Ireland
16,32,La regenta,"Leopoldo Alas, also known as Clarín",Vetusta,Spain,La regenta,"Vetusta, Spain","Vetusta, Calle Jovellanos, Colonia Marqués de San Feliz, Casco Antiguo, Centro y casco histórico, Oviedo, Asturias, 33080, Spain",Spain,"Vetusta, Calle Vetusta, Fozaneldi, San Lázaro y Otero, Oviedo, 33010, Spain","Vetusta, Calle Vetusta, Fozaneldi, San Lázaro y Otero, Oviedo, 33010, Spain",43.3613944,-5.8323669,"Vetusta, Calle Vetusta, Fozaneldi, San Lázaro y Otero, Oviedo, 33010, Spain","Oviedo, Spain",Spain
17,34,The Faithful River,Stefan Żeromski,Warsaw,Poland,The Faithful River,"Warsaw, Poland","Warsaw, Masovian Voivodeship, Poland",Poland,"Warsaw, Masovian Voivodeship, Poland","Warsaw, Masovian Voivodeship, Poland",52.2337172,21.071432235636493,"Warsaw, Masovian Voivodeship, Poland","Masovian Voivodeship, Poland",Poland
18,37,Troubles,J. G. Farrell,Kilnalough (fictional),Ireland,Troubles (novel),"Kilnalough (fictional), Ireland",,Ireland,,Ireland,52.865196,-7.9794599,Ireland,Ireland,Ireland
19,39,El Buscón, Francisco de Quevedo,Toledo,Spain,El Buscón,"Toledo, Spain","Toledo, Castile-La Mancha, Spain",Spain,"Toledo, Castile-La Mancha, Spain","Toledo, Castile-La Mancha, Spain",39.8560597,-4.0239356,"Toledo, Castile-La Mancha, Spain","Toledo, Toledo, Castile-La Mancha, Spain",Spain
20,41,Mexico,James A. Michener,Toledo,Mexico,Mexico (novel),"Toledo, Mexico","Toledo, Castile-La Mancha, Spain",Mexico,"Toledo, San Juan del Río, Durango, 34480, Mexico","Toledo, San Juan del Río, Durango, 34480, Mexico",24.8007984,-104.4644063,"Toledo, San Juan del Río, Durango, 34480, Mexico","Durango, Mexico",Mexico
21,44,Ivanhoe,Walter Scott,Ashby-De-La-Zouch,England,Ivanhoe,"Ashby-De-La-Zouch, England","Ashby-de-la-Zouch, North West Leicestershire, Leicestershire, England, United Kingdom","England, United Kingdom","Ashby-de-la-Zouch, North West Leicestershire, Leicestershire, England, United Kingdom","Ashby-de-la-Zouch, North West Leicestershire, Leicestershire, England, United Kingdom",52.7471344,-1.4712148,"Ashby-de-la-Zouch, North West Leicestershire, Leicestershire, England, United Kingdom","North West Leicestershire, England, United Kingdom",United Kingdom
22,49,Kydd,Julian Stockwin,Guildford,United Kingdom,Kydd (novel),"Guildford, United Kingdom","Guildford, Surrey, England, United Kingdom",United Kingdom,"Guildford, Surrey, England, United Kingdom","Guildford, Surrey, England, United Kingdom",51.2356068,-0.5732063,"Guildford, Surrey, England, United Kingdom","England, United Kingdom",United Kingdom
23,50,The History of Henry Esmond,William Makepeace Thackeray,Virginia,Great Britain,The History of Henry Esmond,"Virginia, Great Britain","Virginia, United States","Great Britain, United Kingdom",,"Virginia, United States",37.1232245,-78.4927721,"Virginia, United States","Virginia, United States",United States
24,54,The Lady of the Wheel,Angelo F. Coniglio,Racalmuto,Sicily,The Lady of the Wheel,"Racalmuto, Sicily","Racalmuto, Agrigento, Sicily, 92020, Italy","Sicily, Italy","Racalmuto, Agrigento, Sicily, 92020, Italy","Racalmuto, Agrigento, Sicily, 92020, Italy",37.4089397,13.7324019,"Racalmuto, Agrigento, Sicily, 92020, Italy","Sicily, Italy",Italy
25,57,O Arquipélago,Erico Verissimo,Santa Fé,Brazil,O Tempo e o Vento,"Santa Fé, Brazil","Santa Fe, Santa Fe County, New Mexico, United States",Brazil,"Santa Fé, Região Geográfica Imediata de Maringá, Região Geográfica Intermediária de Maringá, Paraná, South Region, 86770-000, Brazil","Santa Fé, Região Geográfica Imediata de Maringá, Região Geográfica Intermediária de Maringá, Paraná, South Region, 86770-000, Brazil",-23.039993,-51.808014,"Santa Fé, Região Geográfica Imediata de Maringá, Região Geográfica Intermediária de Maringá, Paraná, South Region, 86770-000, Brazil","Paraná, Brazil",Brazil
26,62,A Thousand Splendid Suns,Khaled Hosseini,Lahore,Pakistan,A Case of Exploding Mangoes,"Lahore, Pakistan","Lahore, Lahore City Tehsil, Lahore District, Lahore Division, Punjab, 54500, Pakistan",Pakistan,"Lahore, Lahore City Tehsil, Lahore District, Lahore Division, Punjab, 54500, Pakistan","Lahore, Lahore City Tehsil, Lahore District, Lahore Division, Punjab, 54500, Pakistan",31.5656822,74.3141829,"Lahore, Lahore City Tehsil, Lahore District, Lahore Division, Punjab, 54500, Pakistan","Lahore, Punjab, Pakistan",Pakistan
27,63,Ragtime,E. L. Doctorow,California,USA,Ragtime (novel),"California, USA","California, United States",United States,"California, United States","California, United States",36.7014631,-118.755997,"California, United States","California, United States",United States
28,64,Jamrach's Menagerie,Carol Birch,London,United Kingdom,Jamrach's Menagerie,"London, United Kingdom","London, Greater London, England, United Kingdom",United Kingdom,"London, Greater London, England, United Kingdom","London, Greater London, England, United Kingdom",51.4893335,-0.1440550845276872,"London, Greater London, England, United Kingdom","London, England, United Kingdom",United Kingdom
29,65,The Source,James A. Michener,Makor,Israel,The Source (novel),"Makor, Israel","Makor, Martap, Vina, Adamawa, Cameroon",Israel,"HaMekor, Nahalat Ganim, Ramat Gan, Tel Aviv Subdistrict, Tel-Aviv District, 5255230, Israel","HaMekor, Nahalat Ganim, Ramat Gan, Tel Aviv Subdistrict, Tel-Aviv District, 5255230, Israel",32.0914311,34.8174146,"HaMekor, Nahalat Ganim, Ramat Gan, Tel Aviv Subdistrict, Tel-Aviv District, 5255230, Israel","Tel-Aviv District, Israel",Israel
30,66,How Late It Was How Late,James Kelman,Glasgow,Scotland,"How late it was, how late","Glasgow, Scotland","Glasgow, Glasgow City, Scotland, G2 1DY, United Kingdom","Scotland, United Kingdom","Glasgow, Glasgow City, Scotland, G2 1DY, United Kingdom","Glasgow, Glasgow City, Scotland, G2 1DY, United Kingdom",55.861155,-4.2501687,"Glasgow, Glasgow City, Scotland, G2 1DY, United Kingdom","Glasgow, Scotland, United Kingdom",United Kingdom
31,71,The Sicilian,Mario Puzo,Palermo,Italy,The Sicilian,"Palermo, Italy","Palermo, Sicily, Italy",Italy,"Palermo, Sicily, Italy","Palermo, Sicily, Italy",38.1112268,13.3524434,"Palermo, Sicily, Italy","Palermo, Sicily, Italy",Italy
32,73,The Book Thief,Zusak,Germany (Görlitz),Germany,The Book Thief,"Germany (Görlitz), Germany","Görlitz, Saxony, Germany",Germany,,"Görlitz, Saxony, Germany",51.1563185,14.991018,"Görlitz, Saxony, Germany","Saxony, Germany",Germany
33,74,Exit West,Mohsin Hamid,"London- proper and Marin County, California (and other fictional locations)","Global, various countries",Exit West,"London- proper and Marin County, California (and other fictional locations), Global, various countries",,,,,,,,,
34,75,The Heretic: A Novel of the Inquisition,Miguel Delibes,Valladolid,Spain,The Heretic: A Novel of the Inquisition,"Valladolid, Spain","Valladolid, Castile and León, Spain",Spain,"Valladolid, Castile and León, Spain","Valladolid, Castile and León, Spain",41.6521807,-4.728605,"Valladolid, Castile and León, Spain","Valladolid, Valladolid, Castile and León, Spain",Spain
35,76,Sarum,Edward Rutherfurd,Salisbury,England,Sarum (novel),"Salisbury, England","Salisbury, Wiltshire, England, United Kingdom","England, United Kingdom","Salisbury, Wiltshire, England, United Kingdom","Salisbury, Wiltshire, England, United Kingdom",51.0690613,-1.7954134,"Salisbury, Wiltshire, England, United Kingdom","Salisbury, England, United Kingdom",United Kingdom
36,78,The Sense of an Ending,Julian Barnes,London,United Kingdom,The Sense of an Ending,"London, United Kingdom","London, Greater London, England, United Kingdom",United Kingdom,"London, Greater London, England, United Kingdom","London, Greater London, England, United Kingdom",51.4893335,-0.1440550845276872,"London, Greater London, England, United Kingdom","London, England, United Kingdom",United Kingdom
37,80,The Mask of Apollo,Mary Renault,Syracuse,Greece,The Mask of Apollo,"Syracuse, Greece","City of Syracuse, Onondaga County, New York, United States",Greece,,"City of Syracuse, Onondaga County, New York, United States",43.0481221,-76.1474244,"City of Syracuse, Onondaga County, New York, United States","City of Syracuse, New York, United States",United States
38,83,Purple Hibiscus,Chimamanda Ngozi Adichie,Enugu,Nigeria,Purple Hibiscus,"Enugu, Nigeria","Enugu State, Nigeria",Nigeria,"Enugu State, Nigeria","Enugu State, Nigeria",6.5536094,7.4143061,"Enugu State, Nigeria","Enugu State, Nigeria",Nigeria
39,86,Slow Man,J.M. Coetzee,Adelaide,Australia,Slow Man,"Adelaide, Australia","Adelaide, Adelaide City Council, South Australia, Australia",Australia,"Adelaide, Adelaide City Council, South Australia, Australia","Adelaide, Adelaide City Council, South Australia, Australia",-34.9281805,138.5999312,"Adelaide, Adelaide City Council, South Australia, Australia","Adelaide, South Australia, Australia",Australia
40,87,Shalimar the Clown,Salman Rushdie,Srinagar,India,Shalimar the Clown,"Srinagar, India","Srinagar, Srinagar (South), Srinagar, Jammu and Kashmir, 190001, India",India,"Srinagar, Srinagar (South), Srinagar, Jammu and Kashmir, 190001, India","Srinagar, Srinagar (South), Srinagar, Jammu and Kashmir, 190001, India",34.0747444,74.8204443,"Srinagar, Srinagar (South), Srinagar, Jammu and Kashmir, 190001, India","Srinagar, Jammu and Kashmir, India",India
41,93,The Feast of the Goat,Mario Vargas Llosa,Santo Domingo,Dominican Republic,The Feast of the Goat,"Santo Domingo, Dominican Republic","Santo Domingo, Distrito Nacional, Dominican Republic",Dominican Republic,"Santo Domingo, Distrito Nacional, Dominican Republic","Santo Domingo, Distrito Nacional, Dominican Republic",18.4801972,-69.942111,"Santo Domingo, Distrito Nacional, Dominican Republic","Santo Domingo, Distrito Nacional, Dominican Republic",Dominican Republic
42,98,Sea of Poppies,Amitav Ghosh,Calcutta,India,Sea of Poppies,"Calcutta, India","Kolkata, West Bengal, India",India,"Kolkata, West Bengal, India","Kolkata, West Bengal, India",22.5726459,88.3638953,"Kolkata, West Bengal, India","Kolkata, West Bengal, India",India
43,102,Hawksmoor,Peter Ackroyd,London,United Kingdom,Hawksmoor (novel),"London, United Kingdom","London, Greater London, England, United Kingdom",United Kingdom,"London, Greater London, England, United Kingdom","London, Greater London, England, United Kingdom",51.4893335,-0.1440550845276872,"London, Greater London, England, United Kingdom","London, England, United Kingdom",United Kingdom
44,103,The Sorrow of Belgium,Hugo Claus,Kortrijk,Belgium,The Sorrow of Belgium,"Kortrijk, Belgium","Kortrijk, West Flanders, Flanders, Belgium",Belgium,"Kortrijk, West Flanders, Flanders, Belgium","Kortrijk, West Flanders, Flanders, Belgium",50.8276429,3.2659884,"Kortrijk, West Flanders, Flanders, Belgium","Kortrijk, West Flanders, Belgium",Belgium
45,107,The Last Kabbalist of Lisbon,Richard Zimler,Lisbon,Portugal,The Last Kabbalist of Lisbon,"Lisbon, Portugal","Lisbon, Portugal",Portugal,"Lisbon, Portugal","Lisbon, Portugal",38.7077507,-9.1365919,"Lisbon, Portugal","Lisbon, Portugal",Portugal
46,111,Sword at Sunset,Rosemary Sutcliff,Arfon,United Kingdom,Sword at Sunset,"Arfon, United Kingdom","Arfon, Tryfar, Harlech, Gwynedd, Wales, LL46 2YW, United Kingdom",United Kingdom,"Arfon, Tryfar, Harlech, Gwynedd, Wales, LL46 2YW, United Kingdom","Arfon, Tryfar, Harlech, Gwynedd, Wales, LL46 2YW, United Kingdom",52.85793215,-4.109417096003719,"Arfon, Tryfar, Harlech, Gwynedd, Wales, LL46 2YW, United Kingdom","Wales, United Kingdom",United Kingdom
47,112,Forever Amber,Kenneth Anger,London,England,Forever Amber (novel),"London, England","London, Greater London, England, United Kingdom","England, United Kingdom","London, Greater London, England, United Kingdom","London, Greater London, England, United Kingdom",51.4893335,-0.1440550845276872,"London, Greater London, England, United Kingdom","London, England, United Kingdom",United Kingdom
48,116,When We Were Orphans,Kazuo Ishiguro,Shanghai,China,When We Were Orphans,"Shanghai, China","Shanghai, Huangpu District, Shanghai, 200001, China",China,"Shanghai, China","Shanghai, China",31.2312707,121.4700152,"Shanghai, China","Shanghai, China",China
49,122,In the Country of Men,Hisham Matar,Tripoli,Libya,In the Country of Men,"Tripoli, Libya","Tripoli, Libya",Libya,"Tripoli, Libya","Tripoli, Libya",32.896672,13.1777923,"Tripoli, Libya","Tripoli, Tripoli, Libya",Libya
50,124,Gai-Jin,James Clavell,Hiroshima,Japan,Gai-Jin (novel),"Hiroshima, Japan","Hiroshima, Hiroshima Prefecture, Japan",Japan,"Hiroshima, Hiroshima Prefecture, Japan","Hiroshima, Hiroshima Prefecture, Japan",34.3917241,132.4517589,"Hiroshima, Hiroshima Prefecture, Japan","Hiroshima, Hiroshima Prefecture, Japan",Japan
51,128,The Roman Mysteries,Caroline Lawrence,Ostia Antica,Roman Empire,The Roman Mysteries,"Ostia Antica, Roman Empire","Ostia Antica, Via della Casa del Pozzo, Ostia Antica, Municipio Roma X, Lido di Ostia, Rome, Roma Capitale, Lazio, 00119, Italy","New Lotus House, 485, Roman Road, Old Ford, Bow, London Borough of Tower Hamlets, London, Greater London, England, E3 5LX, United Kingdom",,"Ostia Antica, Via della Casa del Pozzo, Ostia Antica, Municipio Roma X, Lido di Ostia, Rome, Roma Capitale, Lazio, 00119, Italy",41.75363735,12.28573991132103,"Ostia Antica, Via della Casa del Pozzo, Ostia Antica, Municipio Roma X, Lido di Ostia, Rome, Roma Capitale, Lazio, 00119, Italy","Rome, Lazio, Italy",Italy
52,129,A Passage North,Anuk Arudpragasam,Colombo,Sri Lanka,A Passage North,"Colombo, Sri Lanka","Colombo, Colombo District, Western Province, Sri Lanka",Sri Lanka,"Colombo, Colombo District, Western Province, Sri Lanka","Colombo, Colombo District, Western Province, Sri Lanka",6.9388614,79.8542005,"Colombo, Colombo District, Western Province, Sri Lanka","Colombo, Western Province, Sri Lanka",Sri Lanka
53,131,Lee and Grant at Appomattox,MacKinlay Kantor,Appomattox Court House,United States,Lee and Grant at Appomattox,"Appomattox Court House, United States","Appomattox Court House, Old Richmond-Lynchburg Stage Road, Appomattox County, Virginia, 24522, United States",United States,"Appomattox Court House, Old Richmond-Lynchburg Stage Road, Appomattox County, Virginia, 24522, United States","Appomattox Court House, Old Richmond-Lynchburg Stage Road, Appomattox County, Virginia, 24522, United States",37.3760915,-78.8031417,"Appomattox Court House, Old Richmond-Lynchburg Stage Road, Appomattox County, Virginia, 24522, United States","Virginia, United States",United States
54,132,The Antagonists,Ernest K. Gann,Masada,Israel,The Antagonists (Gann novel),"Masada, Israel","Masada, Snake Path, Tamar Regional Council, Beersheba Subdistrict, Israel",Israel,"Masada, Snake Path, Tamar Regional Council, Beersheba Subdistrict, Israel","Masada, Snake Path, Tamar Regional Council, Beersheba Subdistrict, Israel",31.31564025,35.35389434396094,"Masada, Snake Path, Tamar Regional Council, Beersheba Subdistrict, Israel","Tamar Regional Council, Israel",Israel
55,134,Cue for Treason,T.H. Ruggles Rea,London,England,Cue for Treason,"London, England","London, Greater London, England, United Kingdom","England, United Kingdom","London, Greater London, England, United Kingdom","London, Greater London, England, United Kingdom",51.4893335,-0.1440550845276872,"London, Greater London, England, United Kingdom","London, England, United Kingdom",United Kingdom
56,135,The White Guard,Mikhail Bulgakov,Kiev,Ukraine,The White Guard,"Kiev, Ukraine","Kyiv, Ukraine",Ukraine,"Kyiv, Ukraine","Kyiv, Ukraine",50.4500336,30.5241361,"Kyiv, Ukraine","Kyiv, Ukraine",Ukraine
57,136,The Stone Carvers,Jane Urquhart,Canada,Canada,The Stone Carvers,"Canada, Canada",Canada,Canada,Canada,Canada,61.0666922,-107.991707,Canada,Canada,Canada
58,137,Cry of the Peacock,Gina B. Nahai,Esfahan,Persia/Iran,Cry of the Peacock (novel),"Esfahan, Persia/Iran","Isfahan, بخش مرکزی شهرستان اصفهان, Isfahan County, Isfahan Province, Iran",Iran,,"Isfahan, بخش مرکزی شهرستان اصفهان, Isfahan County, Isfahan Province, Iran",32.6707877,51.6650002,"Isfahan, بخش مرکزی شهرستان اصفهان, Isfahan County, Isfahan Province, Iran","Isfahan, Isfahan Province, Iran",Iran
59,141,Time to Depart,Lindsey Davis,Londinium,Britannia,The Jupiter Myth,"Londinium, Britannia","London, Greater London, England, United Kingdom","HMY Britannia, Whisky Quay, North Leith, Leith, City of Edinburgh, Scotland, EH6 6FH, United Kingdom","Britannia, 299, Mare Street, Hackney, London Borough of Hackney, London, Greater London, England, E8 1EJ, United Kingdom","Britannia, 299, Mare Street, Hackney, London Borough of Hackney, London, Greater London, England, E8 1EJ, United Kingdom",51.54587755,-0.055503157277719,"Britannia, 299, Mare Street, Hackney, London Borough of Hackney, London, Greater London, England, E8 1EJ, United Kingdom","London, England, United Kingdom",United Kingdom
60,142,Dragon Seed,Pearl S. Buck,Nanjing,China,Dragon Seed (novel),"Nanjing, China","Nanjing City, Jiangsu, China",China,"Nanjing City, Jiangsu, China","Nanjing City, Jiangsu, China",32.0438284,118.7788631,"Nanjing City, Jiangsu, China","Nanjing City, Jiangsu, China",China
61,145,The Best of Times,Rohinton Mistry,Bombay,India,A Fine Balance,"Bombay, India","Mumbai, Maharashtra, India",India,"Mumbai, Maharashtra, India","Mumbai, Maharashtra, India",18.9733536,72.82810491917377,"Mumbai, Maharashtra, India","Mumbai, Maharashtra, India",India
62,147,The Guarani: Brazilian Romance,José de Alencar,Rio,Brazil,The Guarani,"Rio, Brazil","Rio de Janeiro, Região Geográfica Imediata do Rio de Janeiro, Região Metropolitana do Rio de Janeiro, Região Geográfica Intermediária do Rio de Janeiro, Rio de Janeiro, Southeast Region, Brazil",Brazil,"Rio de Janeiro, Região Geográfica Imediata do Rio de Janeiro, Região Metropolitana do Rio de Janeiro, Região Geográfica Intermediária do Rio de Janeiro, Rio de Janeiro, Southeast Region, Brazil","Rio de Janeiro, Região Geográfica Imediata do Rio de Janeiro, Região Metropolitana do Rio de Janeiro, Região Geográfica Intermediária do Rio de Janeiro, Rio de Janeiro, Southeast Region, Brazil",-22.9110137,-43.2093727,"Rio de Janeiro, Região Geográfica Imediata do Rio de Janeiro, Região Metropolitana do Rio de Janeiro, Região Geográfica Intermediária do Rio de Janeiro, Rio de Janeiro, Southeast Region, Brazil","Rio de Janeiro, Brazil",Brazil
63,150,Jasper Jones,Craig Silvey,Corrigan,Australia,Jasper Jones,"Corrigan, Australia","Corrigan, Polk County, Texas, 75939, United States",Australia,"Corrigan, Rainbow Flat, Mid-Coast Council, New South Wales, 2430, Australia","Corrigan, Rainbow Flat, Mid-Coast Council, New South Wales, 2430, Australia",-32.065,152.4677778,"Corrigan, Rainbow Flat, Mid-Coast Council, New South Wales, 2430, Australia","New South Wales, Australia",Australia
64,152,Moon Tiger,Penelope Lively,Cairo,Egypt,Moon Tiger,"Cairo, Egypt","Cairo, Egypt",Egypt,"Cairo, Egypt","Cairo, Egypt",30.0443879,31.2357257,"Cairo, Egypt","Cairo, Cairo, Egypt",Egypt
65,153,The House of Doors,Tan Twan Eng,Penang,Federated Malay States,The House of Doors,"Penang, Federated Malay States","Penang, Malaysia",,,"Penang, Malaysia",5.4065013,100.2559077,"Penang, Malaysia","Penang, Malaysia",Malaysia
66,154,Paddy Clarke Ha Ha Ha,Roddy Doyle,Barrytown,Ireland,Paddy Clarke Ha Ha Ha,"Barrytown, Ireland","Barrytown, Town of Red Hook, Dutchess County, New York, 12507, United States",Ireland,,"Barrytown, Town of Red Hook, Dutchess County, New York, 12507, United States",41.9998626,-73.9247822,"Barrytown, Town of Red Hook, Dutchess County, New York, 12507, United States","New York, United States",United States
67,158,Noli Me Tángere,José Rizal,Manila,Philippines,Noli Me Tángere (novel),"Manila, Philippines","Manila, Capital District, Metro Manila, Philippines",Philippines,"Manila, Capital District, Metro Manila, Philippines","Manila, Capital District, Metro Manila, Philippines",14.5906346,120.9799964,"Manila, Capital District, Metro Manila, Philippines","Manila, Philippines",Philippines
68,159,The Element of Water,Stevie Davies,Lake Plön,Germany,The Element of Water,"Lake Plön, Germany","Lake House Plön, 1, Fegetasche, Plön, Schleswig-Holstein, 24306, Germany",Germany,"Lake House Plön, 1, Fegetasche, Plön, Schleswig-Holstein, 24306, Germany","Lake House Plön, 1, Fegetasche, Plön, Schleswig-Holstein, 24306, Germany",54.1531895,10.450517211719744,"Lake House Plön, 1, Fegetasche, Plön, Schleswig-Holstein, 24306, Germany","Schleswig-Holstein, Germany",Germany
69,161,Reading in the Dark,Seamus Deane,Derry,Northern Ireland,Reading in the Dark,"Derry, Northern Ireland","Derry/Londonderry, County Londonderry, Northern Ireland, BT48 6BU, United Kingdom","Northern Ireland, United Kingdom","Derry/Londonderry, County Londonderry, Northern Ireland, BT48 6BU, United Kingdom","Derry/Londonderry, County Londonderry, Northern Ireland, BT48 6BU, United Kingdom",54.9978678,-7.3213056,"Derry/Londonderry, County Londonderry, Northern Ireland, BT48 6BU, United Kingdom","Derry/Londonderry, Northern Ireland, United Kingdom",United Kingdom
70,162,The Travels of Jaimie McPheeters,Robert Lewis Taylor,"St. Louis, Missouri",United States,The Travels of Jaimie McPheeters,"St. Louis, Missouri, United States","St. Louis, Missouri, United States",United States,"St. Louis, Missouri, United States","St. Louis, Missouri, United States",38.6280278,-90.1910154,"St. Louis, Missouri, United States","Missouri, United States",United States
71,163,Po-on,F. Sionil José,Bagumbayan (now known as Rizal Park),Philippines,Po-on (novel),"Bagumbayan (now known as Rizal Park), Philippines",,Philippines,,Philippines,12.7503486,122.7312101,Philippines,Philippines,Philippines
72,164,The Thousand Autumns of Jacob de Zoet,David Mitchell,Nagasaki,Japan,The Thousand Autumns of Jacob de Zoet,"Nagasaki, Japan","Nagasaki Prefecture, Japan",Japan,"Nagasaki Prefecture, Japan","Nagasaki Prefecture, Japan",33.1154683,129.7874339,"Nagasaki Prefecture, Japan","Nagasaki Prefecture, Japan",Japan
73,166,The Inheritance of Loss,Kiran Desai,Kalimpong,India,The Inheritance of Loss,"Kalimpong, India","Kalimpong, Kalimpong -I, Kalimpong, West Bengal, 734316, India",India,"Kalimpong, Kalimpong -I, Kalimpong, West Bengal, 734316, India","Kalimpong, Kalimpong -I, Kalimpong, West Bengal, 734316, India",27.0702869,88.4723676,"Kalimpong, Kalimpong -I, Kalimpong, West Bengal, 734316, India","West Bengal, India",India
74,169,Night Boat to Tangier,Kevin Barry,Algeciras,Spain,Night Boat to Tangier,"Algeciras, Spain","Algeciras, Campo de Gibraltar, Cádiz, Andalusia, Spain",Spain,"Algeciras, Campo de Gibraltar, Cádiz, Andalusia, Spain","Algeciras, Campo de Gibraltar, Cádiz, Andalusia, Spain",36.1311725,-5.4473991,"Algeciras, Campo de Gibraltar, Cádiz, Andalusia, Spain","Algeciras, Cádiz, Andalusia, Spain",Spain
75,170,Don Quixote of La Mancha,Miguel de Cervantes,La Mancha,Spain,Don Quixote,"La Mancha, Spain","La Mancha, Guerrero, Chihuahua, Mexico",Spain,"La Mancha, Castile-La Mancha, Spain","La Mancha, Castile-La Mancha, Spain",39.08328815,-3.327201452922372,"La Mancha, Castile-La Mancha, Spain","Castile-La Mancha, Spain",Spain
76,171,Lydia Bailey,Kenneth Roberts,Haiti,Haiti,Lydia Bailey (novel),"Haiti, Haiti",Haiti,Haiti,Haiti,Haiti,19.1399952,-72.3570972,Haiti,Haiti,Haiti
77,172,Bila Yarrudhanggalangdhuray,Anita Heiss,Gundagai,Australia,Bila Yarrudhanggalangdhuray,"Gundagai, Australia","Gundagai, Cootamundra-Gundagai Regional Council, New South Wales, 2722, Australia",Australia,"Gundagai, Cootamundra-Gundagai Regional Council, New South Wales, 2722, Australia","Gundagai, Cootamundra-Gundagai Regional Council, New South Wales, 2722, Australia",-35.0614045,148.1059794,"Gundagai, Cootamundra-Gundagai Regional Council, New South Wales, 2722, Australia","New South Wales, Australia",Australia
78,175,The Other Side of the Bridge,Mary Lawson,Struan,Canada,The Other Side of the Bridge,"Struan, Canada","Struan, Highland, Scotland, IV56 8FN, United Kingdom",Canada,"Struan, Eagle Creek No. 376, Saskatchewan, Canada","Struan, Eagle Creek No. 376, Saskatchewan, Canada",52.3193493,-107.596559,"Struan, Eagle Creek No. 376, Saskatchewan, Canada","Saskatchewan, Canada",Canada
79,179,My Left Foot,Christy Brown,Dublin,Ireland,Down All the Days,"Dublin, Ireland","Dublin, County Dublin, Leinster, Ireland",Ireland,"Dublin, County Dublin, Leinster, Ireland","Dublin, County Dublin, Leinster, Ireland",53.3493795,-6.2605593,"Dublin, County Dublin, Leinster, Ireland","Dublin, Ireland",Ireland
80,180,The Public Image,Muriel Spark,Rome,Italy,The Public Image,"Rome, Italy","Rome, Roma Capitale, Lazio, Italy",Italy,"Rome, Roma Capitale, Lazio, Italy","Rome, Roma Capitale, Lazio, Italy",41.8933203,12.4829321,"Rome, Roma Capitale, Lazio, Italy","Rome, Lazio, Italy",Italy
81,181,Shaheen,Naseem Hijazi,Granada,Spain,Shaheen (novel),"Granada, Spain","Granada, Comarca de la Vega de Granada, Granada, Andalusia, Spain",Spain,"Granada, Comarca de la Vega de Granada, Granada, Andalusia, Spain","Granada, Comarca de la Vega de Granada, Granada, Andalusia, Spain",37.1734995,-3.5995337,"Granada, Comarca de la Vega de Granada, Granada, Andalusia, Spain","Granada, Granada, Andalusia, Spain",Spain
82,182,King Solomon's Mines,H. Rider Haggard,Kukuanaland (NA),Zambia/Democratic Republic of Congo,King Solomon's Mines,"Kukuanaland (NA), Zambia/Democratic Republic of Congo",,"Democratic Republic Of Congo, Parirenyetwa Road, Fairview, Lusaka, Lusaka District, Lusaka Province, Zambia",,"Democratic Republic Of Congo, Parirenyetwa Road, Fairview, Lusaka, Lusaka District, Lusaka Province, Zambia",-15.4139213,28.289698,"Democratic Republic Of Congo, Parirenyetwa Road, Fairview, Lusaka, Lusaka District, Lusaka Province, Zambia","Lusaka, Lusaka Province, Zambia",Zambia
83,184,The Reader,Bernhard Schlink,Berlin,Germany,Earthly Powers,"Berlin, Germany","Berlin, Germany",Germany,"Berlin, Germany","Berlin, Germany",52.5108638,13.3989421,"Berlin, Germany","Berlin, Germany",Germany
84,185,Washington Black,Esi Edugyan,Marrakesh,Morocco,Washington Black,"Marrakesh, Morocco","Marrakesh, arrondissement de Marrakech-Medina مراكش المدينة, Pachalik de Marrakech, Marrakesh Prefecture, Marrakech-Safi, Morocco",Morocco,"Marrakesh, arrondissement de Marrakech-Medina مراكش المدينة, Pachalik de Marrakech, Marrakesh Prefecture, Marrakech-Safi, Morocco","Marrakesh, arrondissement de Marrakech-Medina مراكش المدينة, Pachalik de Marrakech, Marrakesh Prefecture, Marrakech-Safi, Morocco",31.6258257,-7.9891608,"Marrakesh, arrondissement de Marrakech-Medina مراكش المدينة, Pachalik de Marrakech, Marrakesh Prefecture, Marrakech-Safi, Morocco","Marrakesh, Morocco",Morocco
85,189,Skippy Dies,Paul Murray,Dublin,Ireland,Skippy Dies,"Dublin, Ireland","Dublin, County Dublin, Leinster, Ireland",Ireland,"Dublin, County Dublin, Leinster, Ireland","Dublin, County Dublin, Leinster, Ireland",53.3493795,-6.2605593,"Dublin, County Dublin, Leinster, Ireland","Dublin, Ireland",Ireland
86,191,La Reine Margot,"Alexandre Dumas, père",Paris,France,La Reine Margot (novel),"Paris, France","Paris, Ile-de-France, Metropolitan France, France",France,"Paris, Ile-de-France, Metropolitan France, France","Paris, Ile-de-France, Metropolitan France, France",48.8588897,2.3200410217200766,"Paris, Ile-de-France, Metropolitan France, France","Paris, Ile-de-France, France",France
87,193,Poland,James A. Michener,Bukowo,Poland,Poland (novel),"Bukowo, Poland","Bukowo, gmina Bartoszyce, Bartoszyce County, Warmian-Masurian Voivodeship, 11-200, Poland",Poland,"Bukowo, gmina Bartoszyce, Bartoszyce County, Warmian-Masurian Voivodeship, 11-200, Poland","Bukowo, gmina Bartoszyce, Bartoszyce County, Warmian-Masurian Voivodeship, 11-200, Poland",54.19744,20.75296,"Bukowo, gmina Bartoszyce, Bartoszyce County, Warmian-Masurian Voivodeship, 11-200, Poland","Warmian-Masurian Voivodeship, Poland",Poland
88,194,The Fair Maid of Perth,Sir Walter Scott,Perth,Scotland,The Fair Maid of Perth,"Perth, Scotland","Perth, City of Perth, Western Australia, 6000, Australia","Scotland, United Kingdom","Perth, Perth and Kinross, Scotland, PH1 5SU, United Kingdom","Perth, Perth and Kinross, Scotland, PH1 5SU, United Kingdom",56.3958186,-3.4286805,"Perth, Perth and Kinross, Scotland, PH1 5SU, United Kingdom","Perth, Scotland, United Kingdom",United Kingdom
89,196,An Ice-Cream War,William Boyd,Dar es Salaam,Tanzania,An Ice-Cream War,"Dar es Salaam, Tanzania","Dar es-Salaam, Coastal Zone, Tanzania",Tanzania,"Dar es-Salaam, Coastal Zone, Tanzania","Dar es-Salaam, Coastal Zone, Tanzania",-6.8160837,39.2803583,"Dar es-Salaam, Coastal Zone, Tanzania","Dar es-Salaam, Tanzania",Tanzania
90,201,Last Orders,Graham Swift,London,United Kingdom,Last Orders,"London, United Kingdom","London, Greater London, England, United Kingdom",United Kingdom,"London, Greater London, England, United Kingdom","London, Greater London, England, United Kingdom",51.4893335,-0.1440550845276872,"London, Greater London, England, United Kingdom","London, England, United Kingdom",United Kingdom
91,203,The War of the End of the World,Mario Vargas Llosa,Canudos,Brazil,The War of the End of the World,"Canudos, Brazil","Canudos, Região Geográfica Imediata de Euclides da Cunha, Região Geográfica Intermediária de Paulo Afonso, Bahia, Northeast Region, Brazil",Brazil,"Canudos, Região Geográfica Imediata de Euclides da Cunha, Região Geográfica Intermediária de Paulo Afonso, Bahia, Northeast Region, Brazil","Canudos, Região Geográfica Imediata de Euclides da Cunha, Região Geográfica Intermediária de Paulo Afonso, Bahia, Northeast Region, Brazil",-9.8948692,-39.0266244,"Canudos, Região Geográfica Imediata de Euclides da Cunha, Região Geográfica Intermediária de Paulo Afonso, Bahia, Northeast Region, Brazil","Bahia, Brazil",Brazil
92,205,Unburnable,Marie-Elena John,"Washington, D.C.",United States,Unburnable,"Washington, D.C., United States","Washington, District of Columbia, United States",United States,"Washington, District of Columbia, United States","Washington, District of Columbia, United States",38.8950368,-77.0365427,"Washington, District of Columbia, United States","Washington, District of Columbia, United States",United States
93,213,"My Sister, the Serial Killer",Oyinkan Braithwaite,Lagos,Nigeria,"My Sister, the Serial Killer","Lagos, Nigeria",Laos,Nigeria,"Lagos, Lagos Island, Lagos State, 100242, Nigeria","Lagos, Lagos Island, Lagos State, 100242, Nigeria",6.4550575,3.3941795,"Lagos, Lagos Island, Lagos State, 100242, Nigeria","Lagos, Lagos State, Nigeria",Nigeria
94,215,Silk,Alessandro Baricco,Edo Bay,Japan,Silk (novel),"Edo Bay, Japan","東京湾, Kawasaki Ward, Kawasaki, Kanagawa Prefecture, Japan",Japan,"東京湾, Kawasaki Ward, Kawasaki, Kanagawa Prefecture, Japan","東京湾, Kawasaki Ward, Kawasaki, Kanagawa Prefecture, Japan",35.4169,139.771,"東京湾, Kawasaki Ward, Kawasaki, Kanagawa Prefecture, Japan","Kawasaki, Kanagawa Prefecture, Japan",Japan
95,216,Push Not the River,James Conroyd Martin,Warsaw,Poland,Push Not the River,"Warsaw, Poland","Warsaw, Masovian Voivodeship, Poland",Poland,"Warsaw, Masovian Voivodeship, Poland","Warsaw, Masovian Voivodeship, Poland",52.2337172,21.071432235636493,"Warsaw, Masovian Voivodeship, Poland","Masovian Voivodeship, Poland",Poland
96,218,Veyi Padagalu,Viswanatha Satyanarayana,Subbannapeta,India,Veyipadagalu,"Subbannapeta, India","Subbannapeta, Nandigam, Bhogapuram, Vizianagaram, Andhra Pradesh, 535216, India",India,"Subbannapeta, Nandigam, Bhogapuram, Vizianagaram, Andhra Pradesh, 535216, India","Subbannapeta, Nandigam, Bhogapuram, Vizianagaram, Andhra Pradesh, 535216, India",18.0202262,83.5482365,"Subbannapeta, Nandigam, Bhogapuram, Vizianagaram, Andhra Pradesh, 535216, India","Andhra Pradesh, India",India
97,219,Eagle in the Snow,Wallace Breem,Mainz,Germany,Eagle in the Snow,"Mainz, Germany","Mainz, Rhineland-Palatinate, Germany",Germany,"Mainz, Rhineland-Palatinate, Germany","Mainz, Rhineland-Palatinate, Germany",50.0012314,8.2762513,"Mainz, Rhineland-Palatinate, Germany","Mainz, Rhineland-Palatinate, Germany",Germany
98,220,The Load of Unicorn,Cynthia Harnett,London,England,The Load of Unicorn,"London, England","London, Greater London, England, United Kingdom","England, United Kingdom","London, Greater London, England, United Kingdom","London, Greater London, England, United Kingdom",51.4893335,-0.1440550845276872,"London, Greater London, England, United Kingdom","London, England, United Kingdom",United Kingdom
99,222,The Eagle of the Ninth,Rosemary Sutcliff,Hadrian's Wall,Roman Britain,The Eagle of the Ninth,"Hadrian's Wall, Roman Britain","Hadrian's Wall, Military Road, Haydon, Northumberland, North of Tyne, England, NE47 7AL, United Kingdom",,,"Hadrian's Wall, Military Road, Haydon, Northumberland, North of Tyne, England, NE47 7AL, United Kingdom",55.0146227,-2.3286831,"Hadrian's Wall, Military Road, Haydon, Northumberland, North of Tyne, England, NE47 7AL, United Kingdom","England, United Kingdom",United Kingdom
100,227,Old Mortality,Sir Walter Scott,Scotland,Scotland,A Tale of Old Mortality,"Scotland, Scotland","Scotland, United Kingdom","Scotland, United Kingdom","Scotland, Hacketstown ED, The Municipal District of Tullow, County Carlow, Leinster, Ireland","Scotland, Hacketstown ED, The Municipal District of Tullow, County Carlow, Leinster, Ireland",52.8645129,-6.5446592,"Scotland, Hacketstown ED, The Municipal District of Tullow, County Carlow, Leinster, Ireland",Ireland,Ireland
101,228,Andersonville,MacKinlay Kantor,Andersonville,United States,Andersonville (novel),"Andersonville, United States","Andersonville, Sumter County, Georgia, 31711, United States",United States,"Andersonville, Sumter County, Georgia, 31711, United States","Andersonville, Sumter County, Georgia, 31711, United States",32.1959947,-84.1399085,"Andersonville, Sumter County, Georgia, 31711, United States","Andersonville, Georgia, United States",United States
102,229,Durgeshnandini,Bankim Chandra Chattopadhyay,"Mandaran (Hooghly district, West Bengal)",India,Durgeshnandini,"Mandaran (Hooghly district, West Bengal), India","Primary Health Centre, Mandaran, NH116A, Khirpai, Goghat - II, Hooghly, West Bengal, 712612, India",India,"Primary Health Centre, Mandaran, NH116A, Khirpai, Goghat - II, Hooghly, West Bengal, 712612, India","Primary Health Centre, Mandaran, NH116A, Khirpai, Goghat - II, Hooghly, West Bengal, 712612, India",22.8788799,87.6641534,"Primary Health Centre, Mandaran, NH116A, Khirpai, Goghat - II, Hooghly, West Bengal, 712612, India","West Bengal, India",India
103,232,Pigeon English,Stephen Kelman,London,United Kingdom,Pigeon English,"London, United Kingdom","London, Greater London, England, United Kingdom",United Kingdom,"London, Greater London, England, United Kingdom","London, Greater London, England, United Kingdom",51.4893335,-0.1440550845276872,"London, Greater London, England, United Kingdom","London, England, United Kingdom",United Kingdom
104,234,A Tale of Two Cities,Charles Dickens,London and Paris,England and France,A Tale of Two Cities,"London and Paris, England and France",,"France, Legoland Windsor, Government Lodge, Windsor, Royal Borough of Windsor and Maidenhead, England, SL4 4AU, United Kingdom",,"France, Legoland Windsor, Government Lodge, Windsor, Royal Borough of Windsor and Maidenhead, England, SL4 4AU, United Kingdom",51.4644439,-0.6520573027777781,"France, Legoland Windsor, Government Lodge, Windsor, Royal Borough of Windsor and Maidenhead, England, SL4 4AU, United Kingdom","England, United Kingdom",United Kingdom
105,235,The Reckoning,Sharon Kay Penman,Abergwyngregyn,Wales,The Reckoning (1991 novel),"Abergwyngregyn, Wales","Abergwyngregyn, Gwynedd, Wales, LL33 0LF, United Kingdom","Wales, United Kingdom","Abergwyngregyn, Gwynedd, Wales, LL33 0LF, United Kingdom","Abergwyngregyn, Gwynedd, Wales, LL33 0LF, United Kingdom",53.2342415,-4.0147306,"Abergwyngregyn, Gwynedd, Wales, LL33 0LF, United Kingdom","Wales, United Kingdom",United Kingdom
106,237,Tales of the Alhambra,Washington Irving,Granada,Spain,Tales of the Alhambra,"Granada, Spain","Granada, Comarca de la Vega de Granada, Granada, Andalusia, Spain",Spain,"Granada, Comarca de la Vega de Granada, Granada, Andalusia, Spain","Granada, Comarca de la Vega de Granada, Granada, Andalusia, Spain",37.1734995,-3.5995337,"Granada, Comarca de la Vega de Granada, Granada, Andalusia, Spain","Granada, Granada, Andalusia, Spain",Spain
107,238,Island Beneath the Sea,Isabel Allende,Port-au-Prince,Haiti,Island Beneath the Sea,"Port-au-Prince, Haiti","Port-au-Prince Arrondissement, West, Haiti",Haiti,"Port-au-Prince Arrondissement, West, Haiti","Port-au-Prince Arrondissement, West, Haiti",18.547327,-72.3395928,"Port-au-Prince Arrondissement, West, Haiti","Port-au-Prince Arrondissement, West, Haiti",Haiti
108,239,The Reluctant Fundamentalist,Mohsin Hamid,Lahore,Pakistan,The Reluctant Fundamentalist,"Lahore, Pakistan","Lahore, Lahore City Tehsil, Lahore District, Lahore Division, Punjab, 54500, Pakistan",Pakistan,"Lahore, Lahore City Tehsil, Lahore District, Lahore Division, Punjab, 54500, Pakistan","Lahore, Lahore City Tehsil, Lahore District, Lahore Division, Punjab, 54500, Pakistan",31.5656822,74.3141829,"Lahore, Lahore City Tehsil, Lahore District, Lahore Division, Punjab, 54500, Pakistan","Lahore, Punjab, Pakistan",Pakistan
109,240,A Star Called Henry,Roddy Doyle,Dublin,Ireland,A Star Called Henry,"Dublin, Ireland","Dublin, County Dublin, Leinster, Ireland",Ireland,"Dublin, County Dublin, Leinster, Ireland","Dublin, County Dublin, Leinster, Ireland",53.3493795,-6.2605593,"Dublin, County Dublin, Leinster, Ireland","Dublin, Ireland",Ireland
110,241,Clear Light of Day,Anita Desai,Delhi,India,Clear Light of Day,"Delhi, India","Delhi, India",India,"Delhi, India","Delhi, India",28.6273928,77.1716954,"Delhi, India","Delhi, India",India
111,243,The Known World,Edward P. Jones,Virginia,United States,The Known World,"Virginia, United States","Virginia, United States",United States,"Virginia, United States","Virginia, United States",37.1232245,-78.4927721,"Virginia, United States","Virginia, United States",United States
112,245,Prague,Arthur Phillips,Budapest,Hungary,Prague (novel),"Budapest, Hungary","Budapest, Central Hungary, Hungary",Hungary,"Budapest, Central Hungary, Hungary","Budapest, Central Hungary, Hungary",47.4978789,19.0402383,"Budapest, Central Hungary, Hungary",Hungary,Hungary
113,247,Lady of the Glen: A Novel of 17th-Century Scotland and the Massacre of Glencoe,Jennifer Roberson,Glencoe,Scotland,Lady of the Glen,"Glencoe, Scotland","Glencoe, New Trier Township, Cook County, Illinois, 60022, United States","Scotland, United Kingdom","Glencoe, Highland, Scotland, PH49 4HS, United Kingdom","Glencoe, Highland, Scotland, PH49 4HS, United Kingdom",56.6827647,-5.1014552,"Glencoe, Highland, Scotland, PH49 4HS, United Kingdom","Scotland, United Kingdom",United Kingdom
114,248,Caravans,James A. Michener,Kabul,Afghanistan,Caravans (novel),"Kabul, Afghanistan","Kabul, Kabul District, Kabul Province, 1001, Afghanistan",Afghanistan,"Kabul, Kabul District, Kabul Province, 1001, Afghanistan","Kabul, Kabul District, Kabul Province, 1001, Afghanistan",34.5260109,69.1776838,"Kabul, Kabul District, Kabul Province, 1001, Afghanistan","Kabul, Kabul Province, Afghanistan",Afghanistan
115,252,Shiloh: A Novel,Shelby Foote,Pittsburg Landing,United States,Shiloh (Foote novel),"Pittsburg Landing, United States","Pittsburg Landing, Hardin County, West Tennessee, Tennessee, United States",United States,"Pittsburg Landing, Hardin County, West Tennessee, Tennessee, United States","Pittsburg Landing, Hardin County, West Tennessee, Tennessee, United States",35.1503154,-88.3230504,"Pittsburg Landing, Hardin County, West Tennessee, Tennessee, United States","Tennessee, United States",United States
116,256,Fingersmith,Sarah Waters,London,United Kingdom,Fingersmith (novel),"London, United Kingdom","London, Greater London, England, United Kingdom",United Kingdom,"London, Greater London, England, United Kingdom","London, Greater London, England, United Kingdom",51.4893335,-0.1440550845276872,"London, Greater London, England, United Kingdom","London, England, United Kingdom",United Kingdom
117,257,Sleeping on Jupiter,Anuradha Roy,Jarmuli,India,Sleeping on Jupiter,"Jarmuli, India",,India,,India,22.3511148,78.6677428,India,India,India
118,269,History of Wolves,Emily Fridlund,Minnesota,USA,History of Wolves,"Minnesota, USA","Minnesota, United States",United States,"Minnesota, United States","Minnesota, United States",45.9896587,-94.6113288,"Minnesota, United States","Minnesota, United States",United States
119,270,Kay the Left-Handed,Leslie Barringer,York,England,Kay the Left-Handed,"York, England","York, England, United Kingdom","England, United Kingdom","York, England, United Kingdom","York, England, United Kingdom",53.96565785,-1.0743052444639218,"York, England, United Kingdom","England, United Kingdom",United Kingdom
120,271,Scaramouche,Rafael Sabatini,Paris,France,Scaramouche (novel),"Paris, France","Paris, Ile-de-France, Metropolitan France, France",France,"Paris, Ile-de-France, Metropolitan France, France","Paris, Ile-de-France, Metropolitan France, France",48.8588897,2.3200410217200766,"Paris, Ile-de-France, Metropolitan France, France","Paris, Ile-de-France, France",France
121,272,Five Star Billionaire,Tash Aw,Shanghai,China,Five Star Billionaire,"Shanghai, China","Shanghai, Huangpu District, Shanghai, 200001, China",China,"Shanghai, China","Shanghai, China",31.2312707,121.4700152,"Shanghai, China","Shanghai, China",China
122,273,Ein Kampf um Rom,Felix Dahn,Rome,Italy,A Struggle for Rome,"Rome, Italy","Rome, Roma Capitale, Lazio, Italy",Italy,"Rome, Roma Capitale, Lazio, Italy","Rome, Roma Capitale, Lazio, Italy",41.8933203,12.4829321,"Rome, Roma Capitale, Lazio, Italy","Rome, Lazio, Italy",Italy
124,281,Something to Answer For,P. H. Newby,"Port Said, Cairo",Egypt,Something to Answer For,"Port Said, Cairo, Egypt","Cairo Tower, 2, Nahdet Misr Street, Al Azab, Farouk, Port Said, 42519, Egypt",Egypt,"Port Said Street, Nasr City, Cairo, 11528, Egypt","Port Said Street, Nasr City, Cairo, 11528, Egypt",30.0563774,31.4010125,"Port Said Street, Nasr City, Cairo, 11528, Egypt","Nasr City, Cairo, Egypt",Egypt
125,283,A Short History of Tractors in Ukrainian,Marina Lewycka,Peterborough,England,A Short History of Tractors in Ukrainian,"Peterborough, England","Peterborough, City of Peterborough, Cambridgeshire and Peterborough, England, PE1 1XH, United Kingdom","England, United Kingdom","Peterborough, City of Peterborough, Cambridgeshire and Peterborough, England, PE1 1XH, United Kingdom","Peterborough, City of Peterborough, Cambridgeshire and Peterborough, England, PE1 1XH, United Kingdom",52.5725769,-0.2427336,"Peterborough, City of Peterborough, Cambridgeshire and Peterborough, England, PE1 1XH, United Kingdom","Peterborough, England, United Kingdom",United Kingdom
126,284,Animal's People,Indra Sinha,Bhopal,India,Animal's People,"Bhopal, India","Bhopal, Huzur Tahsil, Bhopal, Madhya Pradesh, 462001, India",India,"Bhopal, Huzur Tahsil, Bhopal, Madhya Pradesh, 462001, India","Bhopal, Huzur Tahsil, Bhopal, Madhya Pradesh, 462001, India",23.2584857,77.401989,"Bhopal, Huzur Tahsil, Bhopal, Madhya Pradesh, 462001, India","Bhopal, Madhya Pradesh, India",India
127,285,Fortunata y Jacinta,Benito Pérez Galdós,Madrid,Spain,Fortunata y Jacinta,"Madrid, Spain","Madrid, Community of Madrid, Spain",Spain,"Madrid, Community of Madrid, Spain","Madrid, Community of Madrid, Spain",40.4167047,-3.7035825,"Madrid, Community of Madrid, Spain","Madrid, Community of Madrid, Spain",Spain
128,286,Prophet Song,Paul Lynch,Dublin,Ireland,Prophet Song,"Dublin, Ireland","Dublin, County Dublin, Leinster, Ireland",Ireland,"Dublin, County Dublin, Leinster, Ireland","Dublin, County Dublin, Leinster, Ireland",53.3493795,-6.2605593,"Dublin, County Dublin, Leinster, Ireland","Dublin, Ireland",Ireland
129,288,The Children of Men,A.S. Byatt,London,United Kingdom,The Children's Book,"London, United Kingdom","London, Greater London, England, United Kingdom",United Kingdom,"London, Greater London, England, United Kingdom","London, Greater London, England, United Kingdom",51.4893335,-0.1440550845276872,"London, Greater London, England, United Kingdom","London, England, United Kingdom",United Kingdom
130,290,Outlaw,Angus Donald,Nottingham,England,Outlaw (novel),"Nottingham, England","Nottingham, Nottinghamshire, England, United Kingdom","England, United Kingdom","Nottingham, Nottinghamshire, England, United Kingdom","Nottingham, Nottinghamshire, England, United Kingdom",52.9534193,-1.1496461,"Nottingham, Nottinghamshire, England, United Kingdom","Nottingham, England, United Kingdom",United Kingdom
131,291,True Women,Janice Woods Windle,"Austin, San Antonio, and McDade, Texas",United States,True Women,"Austin, San Antonio, and McDade, Texas, United States",,United States,,United States,39.7837304,-100.445882,United States,United States,United States
132,295,Death Comes for the Archbishop,Willa Cather,Santa Fe,United States,Death Comes for the Archbishop,"Santa Fe, United States","Santa Fe, Argentina",United States,"Santa Fe, Santa Fe County, New Mexico, United States","Santa Fe, Santa Fe County, New Mexico, United States",35.6876096,-105.938456,"Santa Fe, Santa Fe County, New Mexico, United States","Santa Fe, New Mexico, United States",United States
133,296,The Beginning of Spring,Penelope Fitzgerald,Moscow,Russia,The Beginning of Spring,"Moscow, Russia","Moscow, Central Federal District, Russia",Russia,"Moscow, Central Federal District, Russia","Moscow, Central Federal District, Russia",55.625578,37.6063916,"Moscow, Central Federal District, Russia","Moscow, Russia",Russia
134,297,The Garden of Evening Mists,Tan Twinkler,Malaysia,Malaysia,The Garden of Evening Mists,"Malaysia, Malaysia",Malaysia,Malaysia,Malaysia,Malaysia,4.5693754,102.2656823,Malaysia,Malaysia,Malaysia
135,298,Ramage,Dudley Pope,Monte Argentario,Italy,Ramage (novel),"Monte Argentario, Italy","Monte Argentario, Grosseto, Tuscany, Italy",Italy,"Monte Argentario, Grosseto, Tuscany, Italy","Monte Argentario, Grosseto, Tuscany, Italy",42.407352,11.1503838,"Monte Argentario, Grosseto, Tuscany, Italy","Tuscany, Italy",Italy
136,302,Out of the Shelter,David Lodge,Heidelberg,Germany,Out of the Shelter,"Heidelberg, Germany","Heidelberg, Baden-Württemberg, Germany",Germany,"Heidelberg, Baden-Württemberg, Germany","Heidelberg, Baden-Württemberg, Germany",49.4093582,8.694724,"Heidelberg, Baden-Württemberg, Germany","Heidelberg, Baden-Württemberg, Germany",Germany
137,306,Romola,George Eliot,Florence,Italy,Romola,"Florence, Italy","Florence, Tuscany, Italy",Italy,"Florence, Tuscany, Italy","Florence, Tuscany, Italy",43.7697955,11.2556404,"Florence, Tuscany, Italy","Florence, Tuscany, Italy",Italy
138,307,The Bay of Noon,Shirley Hazzard,Naples,Italy,The Bay of Noon,"Naples, Italy","Naples, Napoli, Campania, Italy",Italy,"Naples, Napoli, Campania, Italy","Naples, Napoli, Campania, Italy",40.8358846,14.2487679,"Naples, Napoli, Campania, Italy","Naples, Campania, Italy",Italy
139,308,Shuggie Bain,Douglas Stuart,Glasgow,Scotland,Shuggie Bain,"Glasgow, Scotland","Glasgow, Glasgow City, Scotland, G2 1DY, United Kingdom","Scotland, United Kingdom","Glasgow, Glasgow City, Scotland, G2 1DY, United Kingdom","Glasgow, Glasgow City, Scotland, G2 1DY, United Kingdom",55.861155,-4.2501687,"Glasgow, Glasgow City, Scotland, G2 1DY, United Kingdom","Glasgow, Scotland, United Kingdom",United Kingdom
140,315,The Birth of Venus: A Novel,Sarah Dunant,Florence,Italy,The Birth of Venus (novel),"Florence, Italy","Florence, Tuscany, Italy",Italy,"Florence, Tuscany, Italy","Florence, Tuscany, Italy",43.7697955,11.2556404,"Florence, Tuscany, Italy","Florence, Tuscany, Italy",Italy
141,321,The Moor's Last Sigh,Salman Rushdie,Bombay and Cochin,India,The Moor's Last Sigh,"Bombay and Cochin, India",,India,,India,22.3511148,78.6677428,India,India,India
142,322,Master Georgie,Beryl Bainbridge,"Liverpool, Sevastopol","England, Ukraine",Master Georgie,"Liverpool, Sevastopol, England, Ukraine",,"Embassy of Ukraine, 60, Holland Park, Notting Hill, Royal Borough of Kensington and Chelsea, London, Greater London, England, W11 3SJ, United Kingdom",,"Embassy of Ukraine, 60, Holland Park, Notting Hill, Royal Borough of Kensington and Chelsea, London, Greater London, England, W11 3SJ, United Kingdom",51.50610605,-0.2081692663759101,"Embassy of Ukraine, 60, Holland Park, Notting Hill, Royal Borough of Kensington and Chelsea, London, Greater London, England, W11 3SJ, United Kingdom","London, England, United Kingdom",United Kingdom
143,325,Seek the Fair Land,Walter Macken,Drogheda,Ireland,The Silent People,"Drogheda, Ireland","Drogheda, County Louth, Leinster, Ireland",Ireland,"Drogheda, County Louth, Leinster, Ireland","Drogheda, County Louth, Leinster, Ireland",53.7149877,-6.3524183,"Drogheda, County Louth, Leinster, Ireland",Ireland,Ireland
144,327,The Wishing Game,Patrick Redmond,Norwich,England,The Wishing Game,"Norwich, England","Norwich, Norfolk, England, United Kingdom","England, United Kingdom","Norwich, Norfolk, England, United Kingdom","Norwich, Norfolk, England, United Kingdom",52.6285576,1.2923954,"Norwich, Norfolk, England, United Kingdom","Norwich, England, United Kingdom",United Kingdom
145,329,The Silver Pigs,Lindsey Davis,Rome,Roman Empire,The Silver Pigs,"Rome, Roman Empire","Rome, Roma Capitale, Lazio, Italy","New Lotus House, 485, Roman Road, Old Ford, Bow, London Borough of Tower Hamlets, London, Greater London, England, E3 5LX, United Kingdom",,"Rome, Roma Capitale, Lazio, Italy",41.8933203,12.4829321,"Rome, Roma Capitale, Lazio, Italy","Rome, Lazio, Italy",Italy
146,331,The Bookshop,Penelope Fitzgerald,"Hardborough, Suffolk",England,The Bookshop,"Hardborough, Suffolk, England",,"England, United Kingdom",,"England, United Kingdom",52.5310214,-1.2649062,"England, United Kingdom","England, United Kingdom",United Kingdom
147,332,The Ides of March,Thornton Wilder,Rome,Roman Republic,Ides of March (novel),"Rome, Roman Republic","Rome, Roma Capitale, Lazio, Italy","Roman, 13, Memed Abashidze Street, Old Batumi, Batumi, Autonomous Republic of Adjara, 6004, Georgia",,"Rome, Roma Capitale, Lazio, Italy",41.8933203,12.4829321,"Rome, Roma Capitale, Lazio, Italy","Rome, Lazio, Italy",Italy
148,333,Alfarrábios,José de Alencar,Rio de Janeiro,Brazil,Alfarrábios,"Rio de Janeiro, Brazil","Rio de Janeiro, Região Geográfica Imediata do Rio de Janeiro, Região Metropolitana do Rio de Janeiro, Região Geográfica Intermediária do Rio de Janeiro, Rio de Janeiro, Southeast Region, Brazil",Brazil,"Rio de Janeiro, Região Geográfica Imediata do Rio de Janeiro, Região Metropolitana do Rio de Janeiro, Região Geográfica Intermediária do Rio de Janeiro, Rio de Janeiro, Southeast Region, Brazil","Rio de Janeiro, Região Geográfica Imediata do Rio de Janeiro, Região Metropolitana do Rio de Janeiro, Região Geográfica Intermediária do Rio de Janeiro, Rio de Janeiro, Southeast Region, Brazil",-22.9110137,-43.2093727,"Rio de Janeiro, Região Geográfica Imediata do Rio de Janeiro, Região Metropolitana do Rio de Janeiro, Região Geográfica Intermediária do Rio de Janeiro, Rio de Janeiro, Southeast Region, Brazil","Rio de Janeiro, Brazil",Brazil
149,334,The Man Without Qualities,Robert Musil,Vienna,Austria-Hungary,The Man Without Qualities,"Vienna, Austria-Hungary","Vienna, Austria","Hungary, Erinnerungsstraße, Brunngraben, Mauthausen, Bezirk Perg, Upper Austria, 4310, Austria",,"Vienna, Austria",48.2083537,16.3725042,"Vienna, Austria","Vienna, Austria",Austria
150,336,Girl with a Pearl Earring,Tracy Chevalier,Delft,Netherlands,Girl with a Pearl Earring (novel),"Delft, Netherlands","Delft, South Holland, Netherlands",Netherlands,"Delft, South Holland, Netherlands","Delft, South Holland, Netherlands",52.0114017,4.35839,"Delft, South Holland, Netherlands","Delft, South Holland, Netherlands",Netherlands
151,338,The Nice and the Good,Iris Murdoch,Whitehall,Dorset,The Nice and the Good,"Whitehall, Dorset","Whitehall, Westminster, Millbank, City of Westminster, Greater London, England, SW1A 2NH, United Kingdom","Dorset, England, United Kingdom","Dorset Court, Newington, Ramsgate, Westwood, Thanet, Kent, England, CT12 6PH, United Kingdom","Dorset Court, Newington, Ramsgate, Westwood, Thanet, Kent, England, CT12 6PH, United Kingdom",51.348507,1.3960232,"Dorset Court, Newington, Ramsgate, Westwood, Thanet, Kent, England, CT12 6PH, United Kingdom","Thanet, England, United Kingdom",United Kingdom
152,343,The Four Horsemen of The Apocalypse,Vicente Blasco Ibáñez,Paris,France,The Four Horsemen of the Apocalypse (Spanish novel),"Paris, France","Paris, Ile-de-France, Metropolitan France, France",France,"Paris, Ile-de-France, Metropolitan France, France","Paris, Ile-de-France, Metropolitan France, France",48.8588897,2.3200410217200766,"Paris, Ile-de-France, Metropolitan France, France","Paris, Ile-de-France, France",France
153,344,Bitter Fruit,Achmat Dangor,Johannesburg,South Africa,Bitter Fruit,"Johannesburg, South Africa","Johannesburg, City of Johannesburg Metropolitan Municipality, Gauteng, 2001, South Africa",South Africa,"Johannesburg, City of Johannesburg Metropolitan Municipality, Gauteng, 2001, South Africa","Johannesburg, City of Johannesburg Metropolitan Municipality, Gauteng, 2001, South Africa",-26.205,28.049722,"Johannesburg, City of Johannesburg Metropolitan Municipality, Gauteng, 2001, South Africa","Johannesburg, Gauteng, South Africa",South Africa
154,345,The Bee Sting,Paul Murray,Dublin,Ireland,The Bee Sting,"Dublin, Ireland","Dublin, County Dublin, Leinster, Ireland",Ireland,"Dublin, County Dublin, Leinster, Ireland","Dublin, County Dublin, Leinster, Ireland",53.3493795,-6.2605593,"Dublin, County Dublin, Leinster, Ireland","Dublin, Ireland",Ireland
155,347,All That Matters,Wayson Choy,Vancouver,Canada,All That Matters (novel),"Vancouver, Canada","Vancouver, Metro Vancouver Regional District, British Columbia, Canada",Canada,"Vancouver, Metro Vancouver Regional District, British Columbia, Canada","Vancouver, Metro Vancouver Regional District, British Columbia, Canada",49.2608724,-123.113952,"Vancouver, Metro Vancouver Regional District, British Columbia, Canada","Vancouver, British Columbia, Canada",Canada
156,348,Know Ye Not Agincourt?,Leslie Barringer,Agincourt,France,Know Ye Not Agincourt?,"Agincourt, France","Agincourt, Nancy, Meurthe-et-Moselle, Grand Est, Metropolitan France, 54770, France",France,"Agincourt, Nancy, Meurthe-et-Moselle, Grand Est, Metropolitan France, 54770, France","Agincourt, Nancy, Meurthe-et-Moselle, Grand Est, Metropolitan France, 54770, France",48.7323472,6.236384,"Agincourt, Nancy, Meurthe-et-Moselle, Grand Est, Metropolitan France, 54770, France","Grand Est, France",France
157,349,World Without End,Ken Follett,South-central England (Kingsbridge and Shiring),England,World Without End (Follett novel),"South-central England (Kingsbridge and Shiring), England",,"England, United Kingdom",,"England, United Kingdom",52.5310214,-1.2649062,"England, United Kingdom","England, United Kingdom",United Kingdom
158,352,The Blind Assassin,Margaret Atwood,Port Ticonderoga and Toronto,Canada,The Blind Assassin,"Port Ticonderoga and Toronto, Canada",,Canada,,Canada,61.0666922,-107.991707,Canada,Canada,Canada
159,355,Cryptonomicon,Neal Stephenson,Philippines,Philippines,Cryptonomicon,"Philippines, Philippines",Philippines,Philippines,Philippines,Philippines,12.7503486,122.7312101,Philippines,Philippines,Philippines
160,356,The Memoirs of Aaron Burr,"['Matthew Livingston Davis', 'Aaron Burr']",New York City,United States,Burr (novel),"New York City, United States","New York, United States",United States,"New York, United States","New York, United States",40.7127281,-74.0060152,"New York, United States","New York, New York, United States",United States
161,357,Staying On,Paul Scott,Pankot,India,Staying On,"Pankot, India","pankot, Govindpur, Almora, Uttarakhand, 263655, India",India,"pankot, Govindpur, Almora, Uttarakhand, 263655, India","pankot, Govindpur, Almora, Uttarakhand, 263655, India",29.6917809,79.5766783,"pankot, Govindpur, Almora, Uttarakhand, 263655, India","Uttarakhand, India",India
162,358,Come Rack! Come Rope!,Robert Hugh Benson,England,England,Come Rack! Come Rope!,"England, England","England, United Kingdom","England, United Kingdom","England, Buch am Erlbach, Landkreis Landshut, Bavaria, 84172, Germany","England, Buch am Erlbach, Landkreis Landshut, Bavaria, 84172, Germany",48.428501,12.056571,"England, Buch am Erlbach, Landkreis Landshut, Bavaria, 84172, Germany","Bavaria, Germany",Germany
163,363,The Sweetness of Water,Nathan Harris,Old Ox,Georgia,The Sweetness of Water,"Old Ox, Georgia","Old Ox, Greaves Lane, Oxton CP, Newark and Sherwood, Nottinghamshire, England, NG22 8BN, United Kingdom","Georgia, United States",,"Old Ox, Greaves Lane, Oxton CP, Newark and Sherwood, Nottinghamshire, England, NG22 8BN, United Kingdom",53.07206365,-1.054840275974086,"Old Ox, Greaves Lane, Oxton CP, Newark and Sherwood, Nottinghamshire, England, NG22 8BN, United Kingdom","Newark and Sherwood, England, United Kingdom",United Kingdom
164,365,Normal People,Sally Rooney,Sligo,Ireland,Normal People,"Sligo, Ireland","County Sligo, Connacht, Ireland",Ireland,"County Sligo, Connacht, Ireland","County Sligo, Connacht, Ireland",54.19298605,-8.7305426729522,"County Sligo, Connacht, Ireland",Ireland,Ireland
165,367,The Good Terrorist,Doris Lessing,London,United Kingdom,The Good Terrorist,"London, United Kingdom","London, Greater London, England, United Kingdom",United Kingdom,"London, Greater London, England, United Kingdom","London, Greater London, England, United Kingdom",51.4893335,-0.1440550845276872,"London, Greater London, England, United Kingdom","London, England, United Kingdom",United Kingdom
166,369,The Bridge on the Drina,Ivo Andrić,Višegrad,Bosnia and Herzegovina,The Bridge on the Drina,"Višegrad, Bosnia and Herzegovina","Višegrad, Visegrad municipality, Republika Srpska, 73240, Bosnia and Herzegovina",Bosnia and Herzegovina,"Višegrad, Visegrad municipality, Republika Srpska, 73240, Bosnia and Herzegovina","Višegrad, Visegrad municipality, Republika Srpska, 73240, Bosnia and Herzegovina",43.7864291,19.294097,"Višegrad, Visegrad municipality, Republika Srpska, 73240, Bosnia and Herzegovina","Republika Srpska, Bosnia and Herzegovina",Bosnia and Herzegovina
167,371,The Orchard on Fire,Shena Mackay,Stonebridge,Kent,The Orchard on Fire,"Stonebridge, Kent","Stonebridge, Wretham, East Wretham, Breckland District, Norfolk, England, IP24 1QS, United Kingdom","Kent, England, United Kingdom","Stonebridge, Brook, Ashford, Kent, England, TN25 5PJ, United Kingdom","Stonebridge, Brook, Ashford, Kent, England, TN25 5PJ, United Kingdom",51.1595171,0.9506735,"Stonebridge, Brook, Ashford, Kent, England, TN25 5PJ, United Kingdom","England, United Kingdom",United Kingdom
168,372,The Blackwater Lightship,Colm Tóibín,Dublin,Ireland,The Blackwater Lightship,"Dublin, Ireland","Dublin, County Dublin, Leinster, Ireland",Ireland,"Dublin, County Dublin, Leinster, Ireland","Dublin, County Dublin, Leinster, Ireland",53.3493795,-6.2605593,"Dublin, County Dublin, Leinster, Ireland","Dublin, Ireland",Ireland
169,374,A Disaffection,James Kelman,Glasgow,Scotland,A Disaffection,"Glasgow, Scotland","Glasgow, Glasgow City, Scotland, G2 1DY, United Kingdom","Scotland, United Kingdom","Glasgow, Glasgow City, Scotland, G2 1DY, United Kingdom","Glasgow, Glasgow City, Scotland, G2 1DY, United Kingdom",55.861155,-4.2501687,"Glasgow, Glasgow City, Scotland, G2 1DY, United Kingdom","Glasgow, Scotland, United Kingdom",United Kingdom
170,375,The Covenant,James Michener,South Africa,South Africa,The Covenant (novel),"South Africa, South Africa",South Africa,South Africa,South Africa,South Africa,-28.8166236,24.991639,South Africa,South Africa,South Africa
171,380,Goat Song,Frank Yerby,Sparta,Greece,Goat Song,"Sparta, Greece","Sparta, Άγιδος, Community of Sparta, Municipal Unit of Sparta, Municipality of Sparta, Laconia Regional Unit, Peloponnese Region, Peloponnese, Western Greece and the Ionian, 231 00, Greece",Greece,"Sparta, Άγιδος, Community of Sparta, Municipal Unit of Sparta, Municipality of Sparta, Laconia Regional Unit, Peloponnese Region, Peloponnese, Western Greece and the Ionian, 231 00, Greece","Sparta, Άγιδος, Community of Sparta, Municipal Unit of Sparta, Municipality of Sparta, Laconia Regional Unit, Peloponnese Region, Peloponnese, Western Greece and the Ionian, 231 00, Greece",37.08114525,22.42486178272022,"Sparta, Άγιδος, Community of Sparta, Municipal Unit of Sparta, Municipality of Sparta, Laconia Regional Unit, Peloponnese Region, Peloponnese, Western Greece and the Ionian, 231 00, Greece","Municipal Unit of Sparta, Peloponnese, Western Greece and the Ionian, Greece",Greece
172,381,In the Skin of a Lion,Michael Ondaatje,Toronto,Canada,In the Skin of a Lion,"Toronto, Canada","Toronto, Golden Horseshoe, Ontario, Canada",Canada,"Toronto, Golden Horseshoe, Ontario, Canada","Toronto, Golden Horseshoe, Ontario, Canada",43.6534817,-79.3839347,"Toronto, Golden Horseshoe, Ontario, Canada","Toronto, Ontario, Canada",Canada
173,384,Micah Clarke,Arthur Conan Doyle,Sedgemoor,England,Micah Clarke,"Sedgemoor, England","Sedgemoor, Somerset, England, United Kingdom","England, United Kingdom","Sedgemoor, Somerset, England, United Kingdom","Sedgemoor, Somerset, England, United Kingdom",51.1868339,-2.96842123193061,"Sedgemoor, Somerset, England, United Kingdom","England, United Kingdom",United Kingdom
174,385,Middlesex,Jeffrey Eugenides,Detroit,United States,Middlesex (novel),"Detroit, United States","Detroit, Wayne County, Michigan, United States",United States,"Detroit, Wayne County, Michigan, United States","Detroit, Wayne County, Michigan, United States",42.3315509,-83.0466403,"Detroit, Wayne County, Michigan, United States","Detroit, Michigan, United States",United States
175,386,Il Gattopardo,Giuseppe Tomasi di Lampedusa,Palma di Montechiaro and Santa Margherita Belice (Donnafugata),"Sicily, Italy",Il Gattopardo,"Palma di Montechiaro and Santa Margherita Belice (Donnafugata), Sicily, Italy",,"Sicily, Italy",,"Sicily, Italy",37.587794,14.155048,"Sicily, Italy","Sicily, Italy",Italy
176,388,Prince of Foxes,C.S. Forester,Rome,Italy,Prince of Foxes,"Rome, Italy","Rome, Roma Capitale, Lazio, Italy",Italy,"Rome, Roma Capitale, Lazio, Italy","Rome, Roma Capitale, Lazio, Italy",41.8933203,12.4829321,"Rome, Roma Capitale, Lazio, Italy","Rome, Lazio, Italy",Italy
177,391,Danza del principe Genji,Murasaki Shikibu,Lucca,Italy,The Tale of Genji,"Lucca, Italy","Lucca, Tuscany, Italy",Italy,"Lucca, Tuscany, Italy","Lucca, Tuscany, Italy",43.8428381,10.502876,"Lucca, Tuscany, Italy","Lucca, Tuscany, Italy",Italy
178,392,Arthur & George,Julian Barnes,Birmingham,England,Arthur & George,"Birmingham, England","Birmingham, West Midlands Combined Authority, England, United Kingdom","England, United Kingdom","Birmingham, West Midlands Combined Authority, England, United Kingdom","Birmingham, West Midlands Combined Authority, England, United Kingdom",52.4796992,-1.9026911,"Birmingham, West Midlands Combined Authority, England, United Kingdom","Birmingham, England, United Kingdom",United Kingdom
179,393,Kamienie na szaniec,Aleksander Kamiński,Warsaw,Poland,Kamienie na szaniec,"Warsaw, Poland","Warsaw, Masovian Voivodeship, Poland",Poland,"Warsaw, Masovian Voivodeship, Poland","Warsaw, Masovian Voivodeship, Poland",52.2337172,21.071432235636493,"Warsaw, Masovian Voivodeship, Poland","Masovian Voivodeship, Poland",Poland
180,395,Shadow Country,Peter Matthiessen,Chokoloskee Island,United States,Shadow Country,"Chokoloskee Island, United States","Chokoloskee Island, Chokoloskee, Collier County, Florida, United States",United States,"Chokoloskee Island, Chokoloskee, Collier County, Florida, United States","Chokoloskee Island, Chokoloskee, Collier County, Florida, United States",25.8238706,-81.35972717542958,"Chokoloskee Island, Chokoloskee, Collier County, Florida, United States","Florida, United States",United States
181,396,Morgan's Run,Colleen McCullough,Norfolk Island,Australia,Morgan's Run,"Norfolk Island, Australia","Norfolk Island, Australia",Australia,"Norfolk Island, Australia","Norfolk Island, Australia",-29.0328038,167.9483137,"Norfolk Island, Australia",Australia,Australia
182,397,Laura Blundy,Julie Myerson,London,United Kingdom,Laura Blundy,"London, United Kingdom","London, Greater London, England, United Kingdom",United Kingdom,"London, Greater London, England, United Kingdom","London, Greater London, England, United Kingdom",51.4893335,-0.1440550845276872,"London, Greater London, England, United Kingdom","London, England, United Kingdom",United Kingdom
183,398,A Council of Dolls,Mona Susan Power (Standing Rock Sioux),Minneapolis,United States,A Council of Dolls,"Minneapolis, United States","Minneapolis, Hennepin County, Minnesota, United States",United States,"Minneapolis, Hennepin County, Minnesota, United States","Minneapolis, Hennepin County, Minnesota, United States",44.9772995,-93.2654692,"Minneapolis, Hennepin County, Minnesota, United States","Minneapolis, Minnesota, United States",United States
184,400,The Folding Star,Alan Hollinghurst,Ostend,Belgium,The Folding Star,"Ostend, Belgium","Ostend, West Flanders, Flanders, 8400, Belgium",Belgium,"Ostend, West Flanders, Flanders, 8400, Belgium","Ostend, West Flanders, Flanders, 8400, Belgium",51.2258565,2.919496,"Ostend, West Flanders, Flanders, 8400, Belgium","Ostend, West Flanders, Belgium",Belgium
185,402,The Power and the Glory,Graham Greene,Tabasco,Mexico,The Power and the Glory,"Tabasco, Mexico","Tabasco, Mexico",Mexico,"Tabasco, Mexico","Tabasco, Mexico",17.9999288,-92.6681659,"Tabasco, Mexico","Tabasco, Mexico",Mexico
186,403,Os Sertões,Euclides da Cunha,Canudos,Brazil,Os Sertões,"Canudos, Brazil","Canudos, Região Geográfica Imediata de Euclides da Cunha, Região Geográfica Intermediária de Paulo Afonso, Bahia, Northeast Region, Brazil",Brazil,"Canudos, Região Geográfica Imediata de Euclides da Cunha, Região Geográfica Intermediária de Paulo Afonso, Bahia, Northeast Region, Brazil","Canudos, Região Geográfica Imediata de Euclides da Cunha, Região Geográfica Intermediária de Paulo Afonso, Bahia, Northeast Region, Brazil",-9.8948692,-39.0266244,"Canudos, Região Geográfica Imediata de Euclides da Cunha, Região Geográfica Intermediária de Paulo Afonso, Bahia, Northeast Region, Brazil","Bahia, Brazil",Brazil
187,404,The Siege of Krishnapur,J. G. Farrell,Krishnapur,India,The Siege of Krishnapur,"Krishnapur, India","Krishnapur, Krishnpur, Maihar Tahsil, Maihar, Madhya Pradesh, India",India,"Krishnapur, Chandurbazar, Amravati, Maharashtra, India","Krishnapur, Chandurbazar, Amravati, Maharashtra, India",21.1430953,77.63621794265444,"Krishnapur, Chandurbazar, Amravati, Maharashtra, India","Maharashtra, India",India
188,412,Number the Stars,Lois Lowry,Copenhagen,Denmark,Number the Stars,"Copenhagen, Denmark","Copenhagen, Copenhagen Municipality, Indre By, Capital Region of Denmark, 1357, Denmark",Denmark,"Copenhagen, Copenhagen Municipality, Indre By, Capital Region of Denmark, 1357, Denmark","Copenhagen, Copenhagen Municipality, Indre By, Capital Region of Denmark, 1357, Denmark",55.6867243,12.5700724,"Copenhagen, Copenhagen Municipality, Indre By, Capital Region of Denmark, 1357, Denmark","Copenhagen, Capital Region of Denmark, Denmark",Denmark
189,413,Year of Wonders,Geraldine Brooks,Eyam,England,Year of Wonders,"Eyam, England","Eyam CP, Derbyshire Dales, Derbyshire, England, United Kingdom","England, United Kingdom","Eyam CP, Derbyshire Dales, Derbyshire, England, United Kingdom","Eyam CP, Derbyshire Dales, Derbyshire, England, United Kingdom",53.2837249,-1.6725141,"Eyam CP, Derbyshire Dales, Derbyshire, England, United Kingdom","Derbyshire Dales, England, United Kingdom",United Kingdom
190,416,Life & Times of Michael K,J. M. Coetzee,Cape Town,South Africa,Life & Times of Michael K,"Cape Town, South Africa","Cape Town, City of Cape Town, Western Cape, 8001, South Africa",South Africa,"Cape Town, City of Cape Town, Western Cape, 8001, South Africa","Cape Town, City of Cape Town, Western Cape, 8001, South Africa",-33.928992,18.417396,"Cape Town, City of Cape Town, Western Cape, 8001, South Africa","Cape Town, Western Cape, South Africa",South Africa
191,418,The Lowland,Jhumpa Lahiri,Rhode Island,USA,The Lowland,"Rhode Island, USA","Rhode Island, United States",United States,"Rhode Island, United States","Rhode Island, United States",41.7962409,-71.5992372,"Rhode Island, United States","Rhode Island, United States",United States
192,421,The Silver Branch,Rosemary Sutcliff,Rutupiae,Roman Britain,The Silver Branch (Sutcliff novel),"Rutupiae, Roman Britain","Richborough Fort, Richborough Road, Ash, Richborough, Dover, Kent, England, CT13 9JQ, United Kingdom",,,"Richborough Fort, Richborough Road, Ash, Richborough, Dover, Kent, England, CT13 9JQ, United Kingdom",51.2929004,1.331838768134172,"Richborough Fort, Richborough Road, Ash, Richborough, Dover, Kent, England, CT13 9JQ, United Kingdom","England, United Kingdom",United Kingdom
193,422,Midnight's Children,Salman Rushdie,"Multiple cities including Bombay, Lahore and Dhaka (and various other cities in India and Pakistan)",India,Midnight's Children,"Multiple cities including Bombay, Lahore and Dhaka (and various other cities in India and Pakistan), India",,India,,India,22.3511148,78.6677428,India,India,India
194,423,"Valperga; or, The Life and Adventures of Castruccio, Prince of Lucca",Mary Shelley,Lucca,Italy,Valperga (novel),"Lucca, Italy","Lucca, Tuscany, Italy",Italy,"Lucca, Tuscany, Italy","Lucca, Tuscany, Italy",43.8428381,10.502876,"Lucca, Tuscany, Italy","Lucca, Tuscany, Italy",Italy
195,425,An Officer and a Spy,Robert Harris,Paris,France,An Officer and a Spy,"Paris, France","Paris, Ile-de-France, Metropolitan France, France",France,"Paris, Ile-de-France, Metropolitan France, France","Paris, Ile-de-France, Metropolitan France, France",48.8588897,2.3200410217200766,"Paris, Ile-de-France, Metropolitan France, France","Paris, Ile-de-France, France",France
196,428,What Was Lost,Catherine O'Flynn,Birmingham,England,What Was Lost,"Birmingham, England","Birmingham, West Midlands Combined Authority, England, United Kingdom","England, United Kingdom","Birmingham, West Midlands Combined Authority, England, United Kingdom","Birmingham, West Midlands Combined Authority, England, United Kingdom",52.4796992,-1.9026911,"Birmingham, West Midlands Combined Authority, England, United Kingdom","Birmingham, England, United Kingdom",United Kingdom
197,429,"Tengo miedo, torero",Pedro Lemebel,Santiago,Chile,My Tender Matador,"Santiago, Chile","Santiago, Provincia de Santiago, Santiago Metropolitan Region, Chile",Chile,"Santiago, Provincia de Santiago, Santiago Metropolitan Region, Chile","Santiago, Provincia de Santiago, Santiago Metropolitan Region, Chile",-33.4377756,-70.6504502,"Santiago, Provincia de Santiago, Santiago Metropolitan Region, Chile","Santiago, Santiago Metropolitan Region, Chile",Chile
198,432,On Heroes and Tombs,Ernesto Sabato,Buenos Aires,Argentina,On Heroes and Tombs,"Buenos Aires, Argentina","Buenos Aires, Comuna 6, Autonomous City of Buenos Aires, Argentina",Argentina,"Buenos Aires, Comuna 6, Autonomous City of Buenos Aires, Argentina","Buenos Aires, Comuna 6, Autonomous City of Buenos Aires, Argentina",-34.6073387,-58.4432852,"Buenos Aires, Comuna 6, Autonomous City of Buenos Aires, Argentina","Buenos Aires, Autonomous City of Buenos Aires, Argentina",Argentina
199,434,The Stronghold,Mollie Hunter,Mainland,Orkney Islands,The Stronghold,"Mainland, Orkney Islands","Mainland, Orkney Islands, Scotland, United Kingdom","Orkney Islands, Scotland, United Kingdom","Mainland, Orkney Islands, Scotland, United Kingdom","Mainland, Orkney Islands, Scotland, United Kingdom",59.013374299999995,-3.231491934503152,"Mainland, Orkney Islands, Scotland, United Kingdom","Scotland, United Kingdom",United Kingdom
200,437,The Eagle's Conquest,Simon Scarrow,"Gesoriacum, Isle of Thanet",Roman Empire,Under the Eagle,"Gesoriacum, Isle of Thanet, Roman Empire",,"New Lotus House, 485, Roman Road, Old Ford, Bow, London Borough of Tower Hamlets, London, Greater London, England, E3 5LX, United Kingdom",,"New Lotus House, 485, Roman Road, Old Ford, Bow, London Borough of Tower Hamlets, London, Greater London, England, E3 5LX, United Kingdom",51.5322382,-0.033679,"New Lotus House, 485, Roman Road, Old Ford, Bow, London Borough of Tower Hamlets, London, Greater London, England, E3 5LX, United Kingdom","London, England, United Kingdom",United Kingdom
201,439,Dark Cloud,Gary Jennings,Tenochtítlan,Mexico,Aztec (novel),"Tenochtítlan, Mexico","Tenochtitlan, Durango, Municipio de Durango, Durango, 34234, Mexico",Mexico,"Tenochtitlan, Durango, Municipio de Durango, Durango, 34234, Mexico","Tenochtitlan, Durango, Municipio de Durango, Durango, 34234, Mexico",24.0769214,-104.5843863,"Tenochtitlan, Durango, Municipio de Durango, Durango, 34234, Mexico","Durango, Durango, Mexico",Mexico
202,440,The Stars in the Bright Sky,Alan Warner,London,United Kingdom,The Stars in the Bright Sky,"London, United Kingdom","London, Greater London, England, United Kingdom",United Kingdom,"London, Greater London, England, United Kingdom","London, Greater London, England, United Kingdom",51.4893335,-0.1440550845276872,"London, Greater London, England, United Kingdom","London, England, United Kingdom",United Kingdom
203,443,The Athenian Murders,José Carlos Somoza,Athens,Greece,The Athenian Murders,"Athens, Greece","Athens, Municipality of Athens, Regional Unit of Central Athens, Attica, 105 57, Greece",Greece,"Athens, Municipality of Athens, Regional Unit of Central Athens, Attica, 105 57, Greece","Athens, Municipality of Athens, Regional Unit of Central Athens, Attica, 105 57, Greece",37.9755648,23.7348324,"Athens, Municipality of Athens, Regional Unit of Central Athens, Attica, 105 57, Greece","Athens, Attica, Greece",Greece
204,444,The Lymond Chronicles,['Dorothy Dunnett'],Paris,France,Lymond Chronicles,"Paris, France","Paris, Ile-de-France, Metropolitan France, France",France,"Paris, Ile-de-France, Metropolitan France, France","Paris, Ile-de-France, Metropolitan France, France",48.8588897,2.3200410217200766,"Paris, Ile-de-France, Metropolitan France, France","Paris, Ile-de-France, France",France
205,446,The Jade Peony,Wayson Choy,Vancouver,Canada,The Jade Peony,"Vancouver, Canada","Vancouver, Metro Vancouver Regional District, British Columbia, Canada",Canada,"Vancouver, Metro Vancouver Regional District, British Columbia, Canada","Vancouver, Metro Vancouver Regional District, British Columbia, Canada",49.2608724,-123.113952,"Vancouver, Metro Vancouver Regional District, British Columbia, Canada","Vancouver, British Columbia, Canada",Canada
206,447,Life and Fate,Vasily Grossman,Stalingrad,Soviet Union,Life and Fate,"Stalingrad, Soviet Union","Volgograd, Volgograd Oblast, Southern Federal District, 400066, Russia","Soviet Union, Kardenweg, Mauthausen, Bezirk Perg, Upper Austria, 4310, Austria",,"Volgograd, Volgograd Oblast, Southern Federal District, 400066, Russia",48.7081906,44.5153353,"Volgograd, Volgograd Oblast, Southern Federal District, 400066, Russia","Volgograd, Volgograd Oblast, Russia",Russia
207,448,Doctor Zhivago,Boris Pasternak,Yuriatin (Perm),Russia,Doctor Zhivago (novel),"Yuriatin (Perm), Russia",,Russia,,Russia,64.6863136,97.7453061,Russia,Russia,Russia
208,449,Frankissstein: A Love Story,Jeanette Winterson,Geneva,Switzerland,Frankissstein,"Geneva, Switzerland","Geneva, Switzerland",Switzerland,"Geneva, Switzerland","Geneva, Switzerland",46.2017559,6.1466014,"Geneva, Switzerland","Geneva, Geneva, Switzerland",Switzerland
209,450,Heat and Dust,Ruth Prawer Jhabvala,Satipur,India,Heat and Dust,"Satipur, India",,India,,India,22.3511148,78.6677428,India,India,India
210,452,The Thorn Birds,Colleen McCullough,Drogheda,Australia,The Thorn Birds,"Drogheda, Australia","Drogheda, County Louth, Leinster, Ireland",Australia,"Drogheda Forest Road, Chatham Valley, Oberon Council, New South Wales, 2787, Australia","Drogheda Forest Road, Chatham Valley, Oberon Council, New South Wales, 2787, Australia",-33.8822325,149.8716946,"Drogheda Forest Road, Chatham Valley, Oberon Council, New South Wales, 2787, Australia","New South Wales, Australia",Australia
211,454,Lazarillo de Tormes,Anonymous,Toledo,Spain,Lazarillo de Tormes,"Toledo, Spain","Toledo, Castile-La Mancha, Spain",Spain,"Toledo, Castile-La Mancha, Spain","Toledo, Castile-La Mancha, Spain",39.8560597,-4.0239356,"Toledo, Castile-La Mancha, Spain","Toledo, Toledo, Castile-La Mancha, Spain",Spain
212,460,Gossip from the Forest,Thomas Keneally,Compiègne,France,Gossip from the Forest,"Compiègne, France","Compiègne, Oise, Hauts-de-France, Metropolitan France, 60200, France",France,"Compiègne, Oise, Hauts-de-France, Metropolitan France, 60200, France","Compiègne, Oise, Hauts-de-France, Metropolitan France, 60200, France",49.4179497,2.8263171,"Compiègne, Oise, Hauts-de-France, Metropolitan France, 60200, France","Hauts-de-France, France",France
213,463,Lincoln,Gore Vidal,Washington D.C.,United States,Lincoln (novel),"Washington D.C., United States","Washington, District of Columbia, United States",United States,"Washington, District of Columbia, United States","Washington, District of Columbia, United States",38.8950368,-77.0365427,"Washington, District of Columbia, United States","Washington, District of Columbia, United States",United States
214,464,The Prague Cemetery,Umberto Eco,Paris,France,The Prague Cemetery,"Paris, France","Paris, Ile-de-France, Metropolitan France, France",France,"Paris, Ile-de-France, Metropolitan France, France","Paris, Ile-de-France, Metropolitan France, France",48.8588897,2.3200410217200766,"Paris, Ile-de-France, Metropolitan France, France","Paris, Ile-de-France, France",France
215,465,Ireland: Awakening,Edward Rutherfurd,Ireland,Ireland,Ireland: Awakening,"Ireland, Ireland",Ireland,Ireland,Ireland,Ireland,52.865196,-7.9794599,Ireland,Ireland,Ireland
216,466,Peony,Pearl S. Buck,Kaifeng,China,Peony (novel),"Kaifeng, China","Kaifeng, Henan, China",China,"Kaifeng, Henan, China","Kaifeng, Henan, China",34.604167,114.497222,"Kaifeng, Henan, China","Henan, China",China
217,467,Half-Blood Blues,Esi Edugyan,Berlin,Germany,Half-Blood Blues,"Berlin, Germany","Berlin, Germany",Germany,"Berlin, Germany","Berlin, Germany",52.5108638,13.3989421,"Berlin, Germany","Berlin, Germany",Germany
218,468,From A to X,John Berger,Suse,Unknown,From A to X,"Suse, Unknown","Susa, Torino, Piedmont, Italy","Unknown, Gurh Tahsil, Rewa, Madhya Pradesh, India",,"Susa, Torino, Piedmont, Italy",45.1372115,7.0539789,"Susa, Torino, Piedmont, Italy","Piedmont, Italy",Italy
219,469,The End of a Brave Man,Hanna Mina,Baniyas,Syria,The End of a Brave Man,"Baniyas, Syria","Baniyas, Banyas Subdistrict, Banyas District, Tartus Governorate, Syria",Syria,"Baniyas, Banyas Subdistrict, Banyas District, Tartus Governorate, Syria","Baniyas, Banyas Subdistrict, Banyas District, Tartus Governorate, Syria",35.1820319,35.9449068,"Baniyas, Banyas Subdistrict, Banyas District, Tartus Governorate, Syria","Tartus Governorate, Syria",Syria
220,470,Sour Sweet,Timothy Mo,London,United Kingdom,Sour Sweet,"London, United Kingdom","London, Greater London, England, United Kingdom",United Kingdom,"London, Greater London, England, United Kingdom","London, Greater London, England, United Kingdom",51.4893335,-0.1440550845276872,"London, Greater London, England, United Kingdom","London, England, United Kingdom",United Kingdom
221,472,Hypatia,Charles Kingsley,Alexandria,Egypt,Hypatia (novel),"Alexandria, Egypt","Alexandria, 21519, Egypt",Egypt,"Alexandria, 21519, Egypt","Alexandria, 21519, Egypt",31.1991806,29.8951716,"Alexandria, 21519, Egypt","Alexandria, Alexandria, Egypt",Egypt
222,473,Shadow Patriots,Lucia St. Clair Robson,New York City,United States,Shadow Patriots,"New York City, United States","New York, United States",United States,"New York, United States","New York, United States",40.7127281,-74.0060152,"New York, United States","New York, New York, United States",United States
223,476,Trinity,Leon Uris,Ballyutogue,Ireland,Trinity (novel),"Ballyutogue, Ireland",,Ireland,,Ireland,52.865196,-7.9794599,Ireland,Ireland,Ireland
224,485,Mister Pip,Lloyd Jones,Bougainville Island,Papua New Guinea,Mister Pip,"Bougainville Island, Papua New Guinea","Bougainville, Autonomous Region of Bougainville, Islands Region, Papua New Guinea",Papua New Guinea,"Bougainville, Autonomous Region of Bougainville, Islands Region, Papua New Guinea","Bougainville, Autonomous Region of Bougainville, Islands Region, Papua New Guinea",-6.1441283,155.20593392291414,"Bougainville, Autonomous Region of Bougainville, Islands Region, Papua New Guinea","Autonomous Region of Bougainville, Papua New Guinea",Papua New Guinea
225,486,The Harmony Silk Factory,Tash Aw,Ipoh,Malaysia,The Harmony Silk Factory,"Ipoh, Malaysia","Ipoh, Kinta, Perak, 30450, Malaysia",Malaysia,"Ipoh, Kinta, Perak, 30450, Malaysia","Ipoh, Kinta, Perak, 30450, Malaysia",4.5986817,101.0900236,"Ipoh, Kinta, Perak, 30450, Malaysia","Ipoh, Perak, Malaysia",Malaysia
226,491,Karan Ghelo,Nandshankar Mehta,Surat,India,Karan Ghelo,"Surat, India","Surat, Riom, Puy-de-Dôme, Auvergne-Rhône-Alpes, Metropolitan France, 63720, France",India,"Surat, Katargam Taluka, Surat, Gujarat, 395008, India","Surat, Katargam Taluka, Surat, Gujarat, 395008, India",21.2094892,72.8317058,"Surat, Katargam Taluka, Surat, Gujarat, 395008, India","Surat, Gujarat, India",India
227,493,Johnny Tremain,Esther Forbes,Boston,United States,Johnny Tremain,"Boston, United States","Boston, Suffolk County, Massachusetts, United States",United States,"Boston, Suffolk County, Massachusetts, United States","Boston, Suffolk County, Massachusetts, United States",42.3554334,-71.060511,"Boston, Suffolk County, Massachusetts, United States","Boston, Massachusetts, United States",United States
228,496,Witiko,Adalbert Stifter,Prague,Czech Republic,Witiko (novel),"Prague, Czech Republic","Capital City of Prague, Prague, Czechia",Czechia,"Capital City of Prague, Prague, Czechia","Capital City of Prague, Prague, Czechia",50.0874654,14.4212535,"Capital City of Prague, Prague, Czechia","Capital City of Prague, Prague, Czechia",Czechia
229,499,Anandamath,Bankim Chandra Chattopadhyay,Padachihna,India,Anandamath,"Padachihna, India",,India,,India,22.3511148,78.6677428,India,India,India
230,500,An Orchestra of Minorities,Chigozie Obioma,Umuahia,Nigeria,An Orchestra of Minorities,"Umuahia, Nigeria","Umuahia, Umuahia North, Abia State, Nigeria",Nigeria,"Umuahia, Umuahia North, Abia State, Nigeria","Umuahia, Umuahia North, Abia State, Nigeria",5.5324032,7.4924165,"Umuahia, Umuahia North, Abia State, Nigeria","Umuahia, Abia State, Nigeria",Nigeria
231,504,The Bottle Factory Outing,Beryl Bainbridge,Windsor,England,The Bottle Factory Outing,"Windsor, England","Windsor, Ontario, N9A 3A8, Canada","England, United Kingdom","Windsor Castle, Thames Street, Clewer New Town, Clewer Village, Windsor, Royal Borough of Windsor and Maidenhead, England, SL4 1PR, United Kingdom","Windsor Castle, Thames Street, Clewer New Town, Clewer Village, Windsor, Royal Borough of Windsor and Maidenhead, England, SL4 1PR, United Kingdom",51.4837886,-0.6040418665032687,"Windsor Castle, Thames Street, Clewer New Town, Clewer Village, Windsor, Royal Borough of Windsor and Maidenhead, England, SL4 1PR, United Kingdom","England, United Kingdom",United Kingdom
232,509,The Lambing Flat,Nerida Newton,Lambing Flat,Australia,The Lambing Flat,"Lambing Flat, Australia","Lambing Flat Creek, Walcha, Walcha Council, New South Wales, 2354, Australia",Australia,"Lambing Flat Creek, Walcha, Walcha Council, New South Wales, 2354, Australia","Lambing Flat Creek, Walcha, Walcha Council, New South Wales, 2354, Australia",-30.863408,151.767965,"Lambing Flat Creek, Walcha, Walcha Council, New South Wales, 2354, Australia","New South Wales, Australia",Australia
233,512,Empire of the Sun,J. G. Ballard,Shanghai,China,Empire of the Sun (novel),"Shanghai, China","Shanghai, Huangpu District, Shanghai, 200001, China",China,"Shanghai, China","Shanghai, China",31.2312707,121.4700152,"Shanghai, China","Shanghai, China",China
234,514,The Heart of Jade,Salvador de Madariaga,Mexico City,Mexico,The Heart of Jade,"Mexico City, Mexico","Mexico City, Mexico",Mexico,"Mexico City, Cuauhtémoc, Mexico City, Mexico","Mexico City, Cuauhtémoc, Mexico City, Mexico",19.4326296,-99.1331785,"Mexico City, Cuauhtémoc, Mexico City, Mexico","Mexico City, Mexico",Mexico
235,516,Solar Bones,Mike McCormack,Galway,Ireland,Solar Bones,"Galway, Ireland","Galway, County Galway, Connacht, Ireland",Ireland,"Galway, County Galway, Connacht, Ireland","Galway, County Galway, Connacht, Ireland",53.2744122,-9.0490601,"Galway, County Galway, Connacht, Ireland","Galway, Ireland",Ireland
236,517,Centennial,James A. Michener,"Centennial (Greeley, Colorado)",United States,Centennial (novel),"Centennial (Greeley, Colorado), United States","Centennial Park, Greeley, Colorado, United States",United States,"Centennial Park, Greeley, Colorado, United States","Centennial Park, Greeley, Colorado, United States",40.40309945,-104.71713286659153,"Centennial Park, Greeley, Colorado, United States","Greeley, Colorado, United States",United States
237,521,How to Be Both,Ali Smith,Ferrara,Italy,How to Be Both,"Ferrara, Italy","Ferrara, Emilia-Romagna, Italy",Italy,"Ferrara, Emilia-Romagna, Italy","Ferrara, Emilia-Romagna, Italy",44.766764249999994,11.827938995640167,"Ferrara, Emilia-Romagna, Italy","Emilia-Romagna, Italy",Italy
238,523,,D. Manning Richards,Sydney,Australia,Destiny in Sydney (novel),"Sydney, Australia","Sydney, Council of the City of Sydney, New South Wales, Australia",Australia,"Sydney, Council of the City of Sydney, New South Wales, Australia","Sydney, Council of the City of Sydney, New South Wales, Australia",-33.8698439,151.2082848,"Sydney, Council of the City of Sydney, New South Wales, Australia","Sydney, New South Wales, Australia",Australia
239,524,Sacred Hunger,Peter Ackroyd,St. Augustine,United States,Sacred Hunger,"St. Augustine, United States","St. Augustine, Knox County, Illinois, United States",United States,"St. Augustine, Knox County, Illinois, United States","St. Augustine, Knox County, Illinois, United States",40.7183728,-90.4109616,"St. Augustine, Knox County, Illinois, United States","Illinois, United States",United States
240,525,El Filibusterismo,José Rizal,Manila,Philippines,El filibusterismo,"Manila, Philippines","Manila, Capital District, Metro Manila, Philippines",Philippines,"Manila, Capital District, Metro Manila, Philippines","Manila, Capital District, Metro Manila, Philippines",14.5906346,120.9799964,"Manila, Capital District, Metro Manila, Philippines","Manila, Philippines",Philippines
241,526,The Testament of Gideon Mack,James Robertson,Monimaskit,Scotland,The Testament of Gideon Mack,"Monimaskit, Scotland",,"Scotland, United Kingdom",,"Scotland, United Kingdom",56.7861112,-4.1140518,"Scotland, United Kingdom","Scotland, United Kingdom",United Kingdom
242,529,Richard Carvel,Winston Churchill,Annapolis,United States,Richard Carvel,"Annapolis, United States","Annapolis, Anne Arundel County, Maryland, United States",United States,"Annapolis, Anne Arundel County, Maryland, United States","Annapolis, Anne Arundel County, Maryland, United States",38.9786401,-76.492786,"Annapolis, Anne Arundel County, Maryland, United States","Annapolis, Maryland, United States",United States
243,530,The Turquoise,Anya Seton,"New York, Santa Fe, and various other cities in NA",United States,The Turquoise (novel),"New York, Santa Fe, and various other cities in NA, United States",,United States,,United States,39.7837304,-100.445882,United States,United States,United States
244,531,Notes on a Scandal,Zoë Heller,London,United Kingdom,Notes on a Scandal,"London, United Kingdom","London, Greater London, England, United Kingdom",United Kingdom,"London, Greater London, England, United Kingdom","London, Greater London, England, United Kingdom",51.4893335,-0.1440550845276872,"London, Greater London, England, United Kingdom","London, England, United Kingdom",United Kingdom
245,533,The Black Tulip,"Alexandre Dumas, père",Haarlem,Netherlands,The Black Tulip,"Haarlem, Netherlands","Haarlem, North Holland, Netherlands",Netherlands,"Haarlem, North Holland, Netherlands","Haarlem, North Holland, Netherlands",52.38370575,4.643559696559635,"Haarlem, North Holland, Netherlands","Haarlem, North Holland, Netherlands",Netherlands
246,534,Beside the Ocean of Time,George Mackay Brown,Orkney Islands,Scotland,Beside the Ocean of Time,"Orkney Islands, Scotland","Orkney Islands, Scotland, United Kingdom","Scotland, United Kingdom","Orkney Islands, Scotland, United Kingdom","Orkney Islands, Scotland, United Kingdom",58.8520573,-3.2869398422535223,"Orkney Islands, Scotland, United Kingdom","Scotland, United Kingdom",United Kingdom
247,535,Amongst Women,Brian Friel,Great Meadow,Ireland,Amongst Women,"Great Meadow, Ireland","Great Meadow, 1950's Farm, Beamish, Urpeth, County Durham, North East, England, United Kingdom",Ireland,,"Great Meadow, 1950's Farm, Beamish, Urpeth, County Durham, North East, England, United Kingdom",54.8859176,-1.6623935943933938,"Great Meadow, 1950's Farm, Beamish, Urpeth, County Durham, North East, England, United Kingdom","England, United Kingdom",United Kingdom
248,537,Oscar and Lucinda,Peter Carey,Bellingen,Australia,Oscar and Lucinda,"Bellingen, Australia","Bellingen, Westerburg, Westerwaldkreis, Rhineland-Palatinate, Germany",Australia,"Bellingen Shire Council, New South Wales, Australia","Bellingen Shire Council, New South Wales, Australia",-30.37399135,152.71920995667793,"Bellingen Shire Council, New South Wales, Australia","New South Wales, Australia",Australia
249,539,10 Minutes and 38 Seconds in This Strange World,Elif Shafak,Istanbul,Turkey,10 Minutes 38 Seconds in This Strange World,"Istanbul, Turkey","Istanbul, Marmara Region, Turkey",Turkey,"Istanbul, Fatih, Istanbul, Marmara Region, 34122, Turkey","Istanbul, Fatih, Istanbul, Marmara Region, 34122, Turkey",41.006381,28.9758715,"Istanbul, Fatih, Istanbul, Marmara Region, 34122, Turkey","Istanbul, Istanbul, Turkey",Turkey
250,541,The Last of the Wine,Mary Renault,Athens,Greece,The Last of the Wine,"Athens, Greece","Athens, Municipality of Athens, Regional Unit of Central Athens, Attica, 105 57, Greece",Greece,"Athens, Municipality of Athens, Regional Unit of Central Athens, Attica, 105 57, Greece","Athens, Municipality of Athens, Regional Unit of Central Athens, Attica, 105 57, Greece",37.9755648,23.7348324,"Athens, Municipality of Athens, Regional Unit of Central Athens, Attica, 105 57, Greece","Athens, Attica, Greece",Greece
251,543,"Blood Red, Snow White",Marcus Sedgwick,Moscow,Russia,"Blood Red, Snow White","Moscow, Russia","Moscow, Central Federal District, Russia",Russia,"Moscow, Central Federal District, Russia","Moscow, Central Federal District, Russia",55.625578,37.6063916,"Moscow, Central Federal District, Russia","Moscow, Russia",Russia
252,544,Marthandavarma,C. V. Raman Pillai,Travancore (Thiruvananthapuram),India,Ramarajabahadur (novel),"Travancore (Thiruvananthapuram), India","Mall of Travancore, Eanchakkal, Thiruvananthapuram, Kerala, 695001, India",India,"Travancore Titanium Products (TTP), ISRO Road Near Kochuveli Railway Station, Balanagar, Kochuveli, Thiruvananthapuram, Kerala, Vettukadu, Thiruvananthapuram, Kerala, 695021, India","Travancore Titanium Products (TTP), ISRO Road Near Kochuveli Railway Station, Balanagar, Kochuveli, Thiruvananthapuram, Kerala, Vettukadu, Thiruvananthapuram, Kerala, 695021, India",8.4998069,76.89963982164869,"Travancore Titanium Products (TTP), ISRO Road Near Kochuveli Railway Station, Balanagar, Kochuveli, Thiruvananthapuram, Kerala, Vettukadu, Thiruvananthapuram, Kerala, 695021, India","Thiruvananthapuram, Kerala, India",India
253,545,The Bolitho Novels,Alexander Kent (pseudonym of Douglas Reeman),Falmouth,Great Britain,Bolitho Novels,"Falmouth, Great Britain","Falmouth, Cornwall, England, United Kingdom","Great Britain, United Kingdom",,"Falmouth, Cornwall, England, United Kingdom",50.1552197,-5.0688262,"Falmouth, Cornwall, England, United Kingdom","England, United Kingdom",United Kingdom
254,548,In the Time of the Butterflies,Julia Alvarez,Santo Domingo,Dominican Republic,In the Time of the Butterflies,"Santo Domingo, Dominican Republic","Santo Domingo, Distrito Nacional, Dominican Republic",Dominican Republic,"Santo Domingo, Distrito Nacional, Dominican Republic","Santo Domingo, Distrito Nacional, Dominican Republic",18.4801972,-69.942111,"Santo Domingo, Distrito Nacional, Dominican Republic","Santo Domingo, Distrito Nacional, Dominican Republic",Dominican Republic
255,549,Fateless,Imre Kertész,Budapest,Hungary,Fatelessness,"Budapest, Hungary","Budapest, Central Hungary, Hungary",Hungary,"Budapest, Central Hungary, Hungary","Budapest, Central Hungary, Hungary",47.4978789,19.0402383,"Budapest, Central Hungary, Hungary",Hungary,Hungary
256,550,The Book and the Brotherhood,Iris Murdoch,Oxford,England,The Book and the Brotherhood,"Oxford, England","Oxford, Oxfordshire, England, United Kingdom","England, United Kingdom","Oxford, Oxfordshire, England, United Kingdom","Oxford, Oxfordshire, England, United Kingdom",51.7520131,-1.2578499,"Oxford, Oxfordshire, England, United Kingdom","Oxford, England, United Kingdom",United Kingdom
257,553,Swimming Home,Deborah Levy,Nice,France,Swimming Home,"Nice, France","Nice, Maritime Alps, Provence-Alpes-Côte d'Azur, Metropolitan France, France",France,"Nice, Maritime Alps, Provence-Alpes-Côte d'Azur, Metropolitan France, France","Nice, Maritime Alps, Provence-Alpes-Côte d'Azur, Metropolitan France, France",43.7009358,7.2683912,"Nice, Maritime Alps, Provence-Alpes-Côte d'Azur, Metropolitan France, France","Nice, Provence-Alpes-Côte d'Azur, France",France
258,554,The Sisters Brothers,Patrick deWitt,Oregon City,Canada,The Sisters Brothers,"Oregon City, Canada","Oregon City, Clackamas County, Oregon, 97045, United States",Canada,"Oregon Trail, Eatonville, Etobicoke Centre, Etobicoke, Toronto, Golden Horseshoe, Ontario, M9B 3Z8, Canada","Oregon Trail, Eatonville, Etobicoke Centre, Etobicoke, Toronto, Golden Horseshoe, Ontario, M9B 3Z8, Canada",43.6398586,-79.55372,"Oregon Trail, Eatonville, Etobicoke Centre, Etobicoke, Toronto, Golden Horseshoe, Ontario, M9B 3Z8, Canada","Toronto, Ontario, Canada",Canada
259,555,The Blood of Lorraine,Barbara Corrado Pope,France (Belle Époque),France,The Blood of Lorraine,"France (Belle Époque), France","Belle Époque, Rue Dangon, Serin, 4th Arrondissement, Lyon, Métropole de Lyon, Rhône, Auvergne-Rhône-Alpes, Metropolitan France, 69004, France",France,,"Belle Époque, Rue Dangon, Serin, 4th Arrondissement, Lyon, Métropole de Lyon, Rhône, Auvergne-Rhône-Alpes, Metropolitan France, 69004, France",45.7776541,4.8201862,"Belle Époque, Rue Dangon, Serin, 4th Arrondissement, Lyon, Métropole de Lyon, Rhône, Auvergne-Rhône-Alpes, Metropolitan France, 69004, France","Lyon, Auvergne-Rhône-Alpes, France",France
260,556,Pharaoh,Bolesław Prus,Egypt,Egypt,Pharaoh (Prus novel),"Egypt, Egypt",Egypt,Egypt,Egypt,Egypt,26.2540493,29.2675469,Egypt,Egypt,Egypt
261,558,The Ministry of Utmost Happiness,Arundhati Roy,Delhi and Kashmir,India,The Ministry of Utmost Happiness,"Delhi and Kashmir, India","Jammu and Kashmir house, Niti Marg, Chanakyapuri, Chanakya Puri Tehsil, New Delhi, Delhi, 110021, India",India,"Delhi Public School Srinagar, MA Road, Lasjan, Srinagar, Srīnagar, Srinagar, Jammu and Kashmir, 190004, India","Delhi Public School Srinagar, MA Road, Lasjan, Srinagar, Srīnagar, Srinagar, Jammu and Kashmir, 190004, India",34.0411016,74.87946013678442,"Delhi Public School Srinagar, MA Road, Lasjan, Srinagar, Srīnagar, Srinagar, Jammu and Kashmir, 190004, India","Srinagar, Jammu and Kashmir, India",India
262,559,Bano,Razia Butt,Ludhiana,Pakistan,Bano (novel),"Ludhiana, Pakistan","Ludhiana, Ludhiana (West) Tahsil, Ludhiana, Punjab, 141001, India",Pakistan,"Ludhiana Foods, Katchary Bazar, Katchary Bazaar, Faisalabad City Tehsil, Faisalabad District, Faisalabad Division, Punjab, 38900, Pakistan","Ludhiana Foods, Katchary Bazar, Katchary Bazaar, Faisalabad City Tehsil, Faisalabad District, Faisalabad Division, Punjab, 38900, Pakistan",31.4188805,73.079445,"Ludhiana Foods, Katchary Bazar, Katchary Bazaar, Faisalabad City Tehsil, Faisalabad District, Faisalabad Division, Punjab, 38900, Pakistan","Faisalabad City Tehsil, Punjab, Pakistan",Pakistan
264,562,An Angel in Australia,Thomas Keneally,Sydney,Australia,An Angel in Australia,"Sydney, Australia","Sydney, Council of the City of Sydney, New South Wales, Australia",Australia,"Sydney, Council of the City of Sydney, New South Wales, Australia","Sydney, Council of the City of Sydney, New South Wales, Australia",-33.8698439,151.2082848,"Sydney, Council of the City of Sydney, New South Wales, Australia","Sydney, New South Wales, Australia",Australia
265,563,The Glass Room,Simon Mawer,Brno,Czechoslovakia,The Glass Room,"Brno, Czechoslovakia","Brno, okres Brno-město, South Moravian Region, Southeast, Czechia","Czechoslovakia, Kardenweg, Mauthausen, Bezirk Perg, Upper Austria, 4310, Austria",,"Brno, okres Brno-město, South Moravian Region, Southeast, Czechia",49.1922443,16.6113382,"Brno, okres Brno-město, South Moravian Region, Southeast, Czechia","Brno, Southeast, Czechia",Czechia
266,566,A Place in England,Melvyn Bragg,Wigton,England,A Place in England,"Wigton, England","Wigton, Cumberland, England, United Kingdom","England, United Kingdom","Wigton, Cumberland, England, United Kingdom","Wigton, Cumberland, England, United Kingdom",54.8246802,-3.1610942,"Wigton, Cumberland, England, United Kingdom","England, United Kingdom",United Kingdom
267,574,The Killer Angels,Michael Shaara,Gettysburg,United States,The Killer Angels,"Gettysburg, United States","Gettysburg, Adams County, Pennsylvania, 17325, United States",United States,"Gettysburg, Adams County, Pennsylvania, 17325, United States","Gettysburg, Adams County, Pennsylvania, 17325, United States",39.8308973,-77.231012,"Gettysburg, Adams County, Pennsylvania, 17325, United States","Pennsylvania, United States",United States
268,577,In Ascension,Martin MacInnes,Rotterdam,Netherlands,In Ascension,"Rotterdam, Netherlands","Rotterdam, South Holland, Netherlands",Netherlands,"Rotterdam, South Holland, Netherlands","Rotterdam, South Holland, Netherlands",51.9244424,4.47775,"Rotterdam, South Holland, Netherlands","Rotterdam, South Holland, Netherlands",Netherlands
269,580,The Warsaw Anagrams,Richard Zimler,Warsaw,Poland,The Warsaw Anagrams,"Warsaw, Poland","Warsaw, Masovian Voivodeship, Poland",Poland,"Warsaw, Masovian Voivodeship, Poland","Warsaw, Masovian Voivodeship, Poland",52.2337172,21.071432235636493,"Warsaw, Masovian Voivodeship, Poland","Masovian Voivodeship, Poland",Poland
270,584,The Death of Vishnu,Manil Suri,Bombay,India,The Death of Vishnu,"Bombay, India","Mumbai, Maharashtra, India",India,"Mumbai, Maharashtra, India","Mumbai, Maharashtra, India",18.9733536,72.82810491917377,"Mumbai, Maharashtra, India","Mumbai, Maharashtra, India",India
271,586,Out of This Furnace,Thomas Bell,Braddock,United States,Out of This Furnace,"Braddock, United States","Braddock, Emmons County, North Dakota, United States",United States,"Braddock, Emmons County, North Dakota, United States","Braddock, Emmons County, North Dakota, United States",46.5644311,-100.0909421,"Braddock, Emmons County, North Dakota, United States","Braddock, North Dakota, United States",United States
272,587,The Clothes on Their Backs,Linda Grant,London,United Kingdom,The Clothes on Their Backs,"London, United Kingdom","London, Greater London, England, United Kingdom",United Kingdom,"London, Greater London, England, United Kingdom","London, Greater London, England, United Kingdom",51.4893335,-0.1440550845276872,"London, Greater London, England, United Kingdom","London, England, United Kingdom",United Kingdom
273,594,The Adventurer,Mika Waltari,Turku,Finland,The Adventurer (novel),"Turku, Finland","Turku, Turku sub-region, Southwest Finland, South-Western Finland, Mainland Finland, Finland",Finland,"Turku, Turku sub-region, Southwest Finland, South-Western Finland, Mainland Finland, Finland","Turku, Turku sub-region, Southwest Finland, South-Western Finland, Mainland Finland, Finland",60.4517531,22.2670522,"Turku, Turku sub-region, Southwest Finland, South-Western Finland, Mainland Finland, Finland","Turku, Finland",Finland
274,596,Winter in Madrid,C. J. Sansom,Madrid,Spain,Winter in Madrid,"Madrid, Spain","Madrid, Community of Madrid, Spain",Spain,"Madrid, Community of Madrid, Spain","Madrid, Community of Madrid, Spain",40.4167047,-3.7035825,"Madrid, Community of Madrid, Spain","Madrid, Community of Madrid, Spain",Spain
275,597,The Hunchback of Notre Dame,Victor Hugo,Paris,France,The Hunchback of Notre Dame,"Paris, France","Paris, Ile-de-France, Metropolitan France, France",France,"Paris, Ile-de-France, Metropolitan France, France","Paris, Ile-de-France, Metropolitan France, France",48.8588897,2.3200410217200766,"Paris, Ile-de-France, Metropolitan France, France","Paris, Ile-de-France, France",France
276,600,Alias Grace,Margaret Atwood,Upper Canada,Canada,Alias Grace,"Upper Canada, Canada","Upper Canada, Hutton, North Somerset, England, BS24 9UT, United Kingdom",Canada,,"Upper Canada, Hutton, North Somerset, England, BS24 9UT, United Kingdom",51.3199525,-2.9162048,"Upper Canada, Hutton, North Somerset, England, BS24 9UT, United Kingdom","England, United Kingdom",United Kingdom
278,605,The Secret Scripture,Sebastian Barry,Sligo,Ireland,The Secret Scripture,"Sligo, Ireland","County Sligo, Connacht, Ireland",Ireland,"County Sligo, Connacht, Ireland","County Sligo, Connacht, Ireland",54.19298605,-8.7305426729522,"County Sligo, Connacht, Ireland",Ireland,Ireland
279,610,The City Beautiful,Aden Polydoros,Chicago,United States,The City Beautiful (novel),"Chicago, United States","Chicago, Cook County, Illinois, United States",United States,"Chicago, Cook County, Illinois, United States","Chicago, Cook County, Illinois, United States",41.8755616,-87.6244212,"Chicago, Cook County, Illinois, United States","Chicago, Illinois, United States",United States
280,613,The Miniaturist,Jessica Burton,Amsterdam,Netherlands,The Miniaturist,"Amsterdam, Netherlands","Amsterdam, North Holland, Netherlands",Netherlands,"Amsterdam, North Holland, Netherlands","Amsterdam, North Holland, Netherlands",52.3730796,4.8924534,"Amsterdam, North Holland, Netherlands","Amsterdam, North Holland, Netherlands",Netherlands
281,614,Royal Escape,Georgette Heyer,"Worcester, Shoreham (and NA)",England,Royal Escape,"Worcester, Shoreham (and NA), England",,"England, United Kingdom",,"England, United Kingdom",52.5310214,-1.2649062,"England, United Kingdom","England, United Kingdom",United Kingdom
282,615,The Samurai,Shusaku Endo,Acapulco,Mexico,The Samurai (novel),"Acapulco, Mexico","Acapulco, Acapulco de Juárez, Guerrero, 39300, Mexico",Mexico,"Acapulco, Acapulco de Juárez, Guerrero, 39300, Mexico","Acapulco, Acapulco de Juárez, Guerrero, 39300, Mexico",16.8680495,-99.8940182,"Acapulco, Acapulco de Juárez, Guerrero, 39300, Mexico","Acapulco, Guerrero, Mexico",Mexico
283,617,A Journal of the Plague Year,Daniel Defoe,London,England,A Journal of the Plague Year,"London, England","London, Greater London, England, United Kingdom","England, United Kingdom","London, Greater London, England, United Kingdom","London, Greater London, England, United Kingdom",51.4893335,-0.1440550845276872,"London, Greater London, England, United Kingdom","London, England, United Kingdom",United Kingdom
284,619,The Bedlam Stacks,Robert Hensher,Kabul,Afghanistan,The Mulberry Empire,"Kabul, Afghanistan","Kabul, Kabul District, Kabul Province, 1001, Afghanistan",Afghanistan,"Kabul, Kabul District, Kabul Province, 1001, Afghanistan","Kabul, Kabul District, Kabul Province, 1001, Afghanistan",34.5260109,69.1776838,"Kabul, Kabul District, Kabul Province, 1001, Afghanistan","Kabul, Kabul Province, Afghanistan",Afghanistan
285,620,The Pillars of the Earth,Ken Follett,Toledo,Spain,The Pillars of the Earth,"Toledo, Spain","Toledo, Castile-La Mancha, Spain",Spain,"Toledo, Castile-La Mancha, Spain","Toledo, Castile-La Mancha, Spain",39.8560597,-4.0239356,"Toledo, Castile-La Mancha, Spain","Toledo, Toledo, Castile-La Mancha, Spain",Spain
286,621,The Northern Clemency,Philip Hensher,Sheffield,England,The Northern Clemency,"Sheffield, England","Sheffield, South Yorkshire, England, United Kingdom","England, United Kingdom","Sheffield, South Yorkshire, England, United Kingdom","Sheffield, South Yorkshire, England, United Kingdom",53.3806626,-1.4702278,"Sheffield, South Yorkshire, England, United Kingdom","Sheffield, England, United Kingdom",United Kingdom
287,623,Dublin: Foundation,Edward Rutherfurd,Dublin,Ireland,Dublin: Foundation,"Dublin, Ireland","Dublin, County Dublin, Leinster, Ireland",Ireland,"Dublin, County Dublin, Leinster, Ireland","Dublin, County Dublin, Leinster, Ireland",53.3493795,-6.2605593,"Dublin, County Dublin, Leinster, Ireland","Dublin, Ireland",Ireland
288,627,Thaddeus of Warsaw,Jane Porter,Warsaw,Poland,Thaddeus of Warsaw,"Warsaw, Poland","Warsaw, Masovian Voivodeship, Poland",Poland,"Warsaw, Masovian Voivodeship, Poland","Warsaw, Masovian Voivodeship, Poland",52.2337172,21.071432235636493,"Warsaw, Masovian Voivodeship, Poland","Masovian Voivodeship, Poland",Poland
290,629,The Journeyer,Gary Jennings,Venice,Italy,The Journeyer,"Venice, Italy","Venice, Venezia, Veneto, 30121-30176, Italy",Italy,"Venice, Venezia, Veneto, 30121-30176, Italy","Venice, Venezia, Veneto, 30121-30176, Italy",45.4371908,12.3345898,"Venice, Venezia, Veneto, 30121-30176, Italy","Venice, Veneto, Italy",Italy
291,632,The Autograph Man,Zadie Smith,Mountjoy (fictional),England,The Autograph Man,"Mountjoy (fictional), England",,"England, United Kingdom",,"England, United Kingdom",52.5310214,-1.2649062,"England, United Kingdom","England, United Kingdom",United Kingdom
292,635,A Tale for the Time Being,Ruth Ozeki,Tokyo,Japan,A Tale for the Time Being,"Tokyo, Japan","Tokyo, Japan",Japan,"Tokyo, Japan","Tokyo, Japan",35.6821936,139.762221,"Tokyo, Japan","Tokyo, Japan",Japan
293,638,The Story of Lucy Gault,William Trevor,Cork,Ireland,The Story of Lucy Gault,"Cork, Ireland","Cork, County Cork, Munster, Ireland",Ireland,"Cork, County Cork, Munster, Ireland","Cork, County Cork, Munster, Ireland",51.897077,-8.4654674,"Cork, County Cork, Munster, Ireland","Cork, Ireland",Ireland
294,640,The Coffee Trader,David Liss,Amsterdam,Netherlands,The Coffee Trader,"Amsterdam, Netherlands","Amsterdam, North Holland, Netherlands",Netherlands,"Amsterdam, North Holland, Netherlands","Amsterdam, North Holland, Netherlands",52.3730796,4.8924534,"Amsterdam, North Holland, Netherlands","Amsterdam, North Holland, Netherlands",Netherlands
295,643,Diary of an Ordinary Woman,Margaret Forster,London,England,Diary of an Ordinary Woman,"London, England","London, Greater London, England, United Kingdom","England, United Kingdom","London, Greater London, England, United Kingdom","London, Greater London, England, United Kingdom",51.4893335,-0.1440550845276872,"London, Greater London, England, United Kingdom","London, England, United Kingdom",United Kingdom
296,645,The Gift of Rain,Tan Twan Eng,Penang,Malaysia,The Gift of Rain,"Penang, Malaysia","Penang, Malaysia",Malaysia,"Penang, Malaysia","Penang, Malaysia",5.4065013,100.2559077,"Penang, Malaysia","Penang, Malaysia",Malaysia
297,648,El Sol de Breda,Arturo Pérez-Reverte,Venice,Spain,Captain Alatriste,"Venice, Spain","Venice, Venezia, Veneto, 30121-30176, Italy",Spain,"Venice, Calle Cervantes, Huerta del Rey, Tarifa, Campo de Gibraltar, Cádiz, Andalusia, 11380, Spain","Venice, Calle Cervantes, Huerta del Rey, Tarifa, Campo de Gibraltar, Cádiz, Andalusia, 11380, Spain",36.0126747,-5.6035962,"Venice, Calle Cervantes, Huerta del Rey, Tarifa, Campo de Gibraltar, Cádiz, Andalusia, 11380, Spain","Cádiz, Andalusia, Spain",Spain
298,652,A Bend in the River,V.S. Naipaul,Kisangani,Zaire,A Bend in the River,"Kisangani, Zaire","Kisangani, Tshopo, Democratic Republic of the Congo","Zaire Province, Angola","Kisangani, Tshopo, Democratic Republic of the Congo","Kisangani, Tshopo, Democratic Republic of the Congo",0.5184021,25.2057292,"Kisangani, Tshopo, Democratic Republic of the Congo","Kisangani, Tshopo, Democratic Republic of the Congo",Democratic Republic of the Congo
299,655,A Spool of Blue Thread,Anne Tyler,Baltimore,USA,A Spool of Blue Thread,"Baltimore, USA","Baltimore, Maryland, United States",United States,"Baltimore, Maryland, United States","Baltimore, Maryland, United States",39.2908816,-76.610759,"Baltimore, Maryland, United States","Baltimore, Maryland, United States",United States
300,656,The House of Niccolò,Dorothy Dunnett,"Multiple cities and locations (e.g., Flanders, Burgundy, Italy, Trebizond, Cyprus, Venice, Portugal, Madeira, Mali, Scotland, Egypt, the Sinai peninsula, Italy, Poland, Crimea, Persia, Russia, and France)","Multiple countries and regions (e.g., Flanders, Burgundy, Italy, Turkey, Greece, Ethiopia, Scotland, England, Wales, Ireland, Africa, Asia)",The House of Niccolò,"Multiple cities and locations (e.g., Flanders, Burgundy, Italy, Trebizond, Cyprus, Venice, Portugal, Madeira, Mali, Scotland, Egypt, the Sinai peninsula, Italy, Poland, Crimea, Persia, Russia, and France), Multiple countries and regions (e.g., Flanders, Burgundy, Italy, Turkey, Greece, Ethiopia, Scotland, England, Wales, Ireland, Africa, Asia)",,,,,,,,,
301,657,The Road to Wellville,T. C. Boyle,Battle Creek,Michigan,The Road to Wellville,"Battle Creek, Michigan","Battle Creek, Calhoun County, Michigan, United States","Michigan, United States","Battle Creek, Calhoun County, Michigan, United States","Battle Creek, Calhoun County, Michigan, United States",42.3192548,-85.1824269,"Battle Creek, Calhoun County, Michigan, United States","Michigan, United States",United States
302,658,Jack Maggs,Peter Carey,London,United Kingdom,Jack Maggs,"London, United Kingdom","London, Greater London, England, United Kingdom",United Kingdom,"London, Greater London, England, United Kingdom","London, Greater London, England, United Kingdom",51.4893335,-0.1440550845276872,"London, Greater London, England, United Kingdom","London, England, United Kingdom",United Kingdom
303,659,The Heart of Mid-Lothian,Walter Scott,Edinburgh,Scotland,The Heart of Mid-Lothian,"Edinburgh, Scotland","City of Edinburgh, Scotland, United Kingdom","Scotland, United Kingdom","City of Edinburgh, Scotland, United Kingdom","City of Edinburgh, Scotland, United Kingdom",55.9533456,-3.1883749,"City of Edinburgh, Scotland, United Kingdom","City of Edinburgh, Scotland, United Kingdom",United Kingdom
304,661,Empress Orchid,Anchee Min,Peking,China,Empress Orchid,"Peking, China","Beijing, China",China,"Beijing, Dongcheng District, Beijing, 100010, China","Beijing, Dongcheng District, Beijing, 100010, China",39.9057136,116.3912972,"Beijing, Dongcheng District, Beijing, 100010, China","Beijing, Beijing, China",China
305,662,Darkmans,Nicola Barker,Ashford,UK,Darkmans,"Ashford, UK","Ashford, Kent, England, United Kingdom",United Kingdom,"Ashford, Kent, England, United Kingdom","Ashford, Kent, England, United Kingdom",51.148555,0.8722566,"Ashford, Kent, England, United Kingdom","England, United Kingdom",United Kingdom
306,664,Quo Vadis,Henryk Sienkiewicz,Rome,Roman Empire,Quo Vadis (novel),"Rome, Roman Empire","Rome, Roma Capitale, Lazio, Italy","New Lotus House, 485, Roman Road, Old Ford, Bow, London Borough of Tower Hamlets, London, Greater London, England, E3 5LX, United Kingdom",,"Rome, Roma Capitale, Lazio, Italy",41.8933203,12.4829321,"Rome, Roma Capitale, Lazio, Italy","Rome, Lazio, Italy",Italy
307,665,Journey,James Michener,"Dawson, Yukon",Canada,Journey (novel),"Dawson, Yukon, Canada","Dawson City, Yukon, Y0B 1G0, Canada",Canada,"Dawson City, Yukon, Y0B 1G0, Canada","Dawson City, Yukon, Y0B 1G0, Canada",64.0606605,-139.431695,"Dawson City, Yukon, Y0B 1G0, Canada","Yukon, Canada",Canada
308,666,Footsteps,Pramoedya Ananta Toer,Batavia (today Indonesia),Indonesia,Jejak Langkah,"Batavia (today Indonesia), Indonesia",,Indonesia,,Indonesia,-2.4833826,117.8902853,Indonesia,Indonesia,Indonesia
309,667,The Rotters' Club,Jonathan Coe,Birmingham,United Kingdom,The Rotters' Club (novel),"Birmingham, United Kingdom","Birmingham, West Midlands Combined Authority, England, United Kingdom",United Kingdom,"Birmingham, West Midlands Combined Authority, England, United Kingdom","Birmingham, West Midlands Combined Authority, England, United Kingdom",52.4796992,-1.9026911,"Birmingham, West Midlands Combined Authority, England, United Kingdom","Birmingham, England, United Kingdom",United Kingdom
310,669,Disgrace,J. M. Coetzee,Cape Town,South Africa,Disgrace,"Cape Town, South Africa","Cape Town, City of Cape Town, Western Cape, 8001, South Africa",South Africa,"Cape Town, City of Cape Town, Western Cape, 8001, South Africa","Cape Town, City of Cape Town, Western Cape, 8001, South Africa",-33.928992,18.417396,"Cape Town, City of Cape Town, Western Cape, 8001, South Africa","Cape Town, Western Cape, South Africa",South Africa
311,670,The Battle of Pollocks Crossing,J.L. Carr,Huron,United States,The Battle of Pollocks Crossing,"Huron, United States","Huron County, Ohio, United States",United States,"Huron County, Ohio, United States","Huron County, Ohio, United States",41.1305303,-82.591828,"Huron County, Ohio, United States","Ohio, United States",United States
312,0,"Ducks, Newburyport",Lucy Ellmann,Newburyport,,"Ducks, Newburyport",,"Newburyport, Essex County, Massachusetts, 01950, United States",,,"Newburyport, Essex County, Massachusetts, 01950, United States",42.8132845,-70.8819188,"Newburyport, Essex County, Massachusetts, 01950, United States","Massachusetts, United States",United States
313,20,The Comfort of Strangers,Ian McEwan,Venice,,The Comfort of Strangers,,"Venice, Venezia, Veneto, 30121-30176, Italy",,,"Venice, Venezia, Veneto, 30121-30176, Italy",45.4371908,12.3345898,"Venice, Venezia, Veneto, 30121-30176, Italy","Venice, Veneto, Italy",Italy
314,29,The Unlikely Pilgrimage of Harold Fry,Rachel Joyce,Berwick,,The Unlikely Pilgrimage of Harold Fry,,"Berwick-upon-Tweed, Northumberland, North of Tyne, England, United Kingdom",,,"Berwick-upon-Tweed, Northumberland, North of Tyne, England, United Kingdom",55.7692442,-2.0026472,"Berwick-upon-Tweed, Northumberland, North of Tyne, England, United Kingdom","England, United Kingdom",United Kingdom
315,46,If Nobody Speaks of Remarkable Things,Jon McGregor,Bradford,,If Nobody Speaks of Remarkable Things,,"Bradford, West Yorkshire, England, United Kingdom",,,"Bradford, West Yorkshire, England, United Kingdom",53.7944229,-1.7519186,"Bradford, West Yorkshire, England, United Kingdom","Bradford, England, United Kingdom",United Kingdom
316,68,The Birds on the Trees,Nina Bawden,London,,The Birds on the Trees,,"London, Greater London, England, United Kingdom",,,"London, Greater London, England, United Kingdom",51.4893335,-0.1440550845276872,"London, Greater London, England, United Kingdom","London, England, United Kingdom",United Kingdom
317,90,The Fortune Men,Nadifa Mohamed,Cardiff,,The Fortune Men,,"Cardiff, Wales, CF10 2AF, United Kingdom",,,"Cardiff, Wales, CF10 2AF, United Kingdom",51.4816546,-3.1791934,"Cardiff, Wales, CF10 2AF, United Kingdom","Cardiff, Wales, United Kingdom",United Kingdom
318,95,Nice Work,David Lodge,Rummidge,,Nice Work,,,,,,,,,,
319,117,Breakfast on Pluto,Patrick McCabe,Piccadilly Circus,,Breakfast on Pluto,,"Piccadilly Circus, Regent Street St James's, St. James's, Mayfair, City of Westminster, Greater London, England, SW1Y 4ND, United Kingdom",,,"Piccadilly Circus, Regent Street St James's, St. James's, Mayfair, City of Westminster, Greater London, England, SW1Y 4ND, United Kingdom",51.5097922,-0.1344288363459529,"Piccadilly Circus, Regent Street St James's, St. James's, Mayfair, City of Westminster, Greater London, England, SW1Y 4ND, United Kingdom","City of Westminster, England, United Kingdom",United Kingdom
320,130,Bruno's Dream,Iris Murdoch,London,,Bruno's Dream,,"London, Greater London, England, United Kingdom",,,"London, Greater London, England, United Kingdom",51.4893335,-0.1440550845276872,"London, Greater London, England, United Kingdom","London, England, United Kingdom",United Kingdom
321,173,I'll Go to Bed at Noon,Gerard Woodward,Palmers Green,,I'll Go to Bed at Noon,,"Palmers Green, London Borough of Enfield, London, Greater London, England, N13 4PX, United Kingdom",,,"Palmers Green, London Borough of Enfield, London, Greater London, England, N13 4PX, United Kingdom",51.6222544,-0.1127378,"Palmers Green, London Borough of Enfield, London, Greater London, England, N13 4PX, United Kingdom","London, England, United Kingdom",United Kingdom
322,198,His Bloody Project: Documents relating to the case of Roderick Macrae,Graeme Macrae Burnet,Culduie,,His Bloody Project,,"Culduie, Highland, Scotland, IV54 8LX, United Kingdom",,,"Culduie, Highland, Scotland, IV54 8LX, United Kingdom",57.3960516,-5.8030235,"Culduie, Highland, Scotland, IV54 8LX, United Kingdom","Scotland, United Kingdom",United Kingdom
323,211,The Children of Dynmouth,William Trevor,Dynmouth,,The Children of Dynmouth,,,,,,,,,,
324,223,Woodstock,Sir Walter Scott,Woodstock,,Woodstock (novel),,"Woodstock, McHenry County, Illinois, 60098, United States",,,"Woodstock, McHenry County, Illinois, 60098, United States",42.3147529,-88.4474302,"Woodstock, McHenry County, Illinois, 60098, United States","Illinois, United States",United States
325,226,An Instance of the Fingerpost,Iain Pears,Oxford,,An Instance of the Fingerpost,,"Oxford, Oxfordshire, England, United Kingdom",,,"Oxford, Oxfordshire, England, United Kingdom",51.7520131,-1.2578499,"Oxford, Oxfordshire, England, United Kingdom","Oxford, England, United Kingdom",United Kingdom
326,249,The Finkler Question,Howard Jacobson,London,,The Finkler Question,,"London, Greater London, England, United Kingdom",,,"London, Greater London, England, United Kingdom",51.4893335,-0.1440550845276872,"London, Greater London, England, United Kingdom","London, England, United Kingdom",United Kingdom
327,293,On Chesil Beach,Ian McEwan,Dorset,,On Chesil Beach,,"Dorset, England, United Kingdom",,,"Dorset, England, United Kingdom",50.79683685,-2.34473226124306,"Dorset, England, United Kingdom","England, United Kingdom",United Kingdom
328,294,I'm the King of the Castle,Susan Hill,Leydell,,I'm the King of the Castle,,,,,,,,,,
329,339,The Good Apprentice,Iris Murdoch,London,,The Good Apprentice,,"London, Greater London, England, United Kingdom",,,"London, Greater London, England, United Kingdom",51.4893335,-0.1440550845276872,"London, Greater London, England, United Kingdom","London, England, United Kingdom",United Kingdom
330,341,Thyl Ulenspiegel,Joost van der Vondel,Damme,,The Legend of Thyl Ulenspiegel and Lamme Goedzak,,"Damme, Brugge, West Flanders, Belgium",,,"Damme, Brugge, West Flanders, Belgium",51.2553021,3.2920911130761956,"Damme, Brugge, West Flanders, Belgium","West Flanders, Belgium",Belgium
331,346,The Old Devils,Kingsley Amis,Wales,,The Old Devils,,"Wales, United Kingdom",,,"Wales, United Kingdom",52.2928116,-3.73893,"Wales, United Kingdom","Wales, United Kingdom",United Kingdom
332,354,The Count of Monte Cristo,Alexandre Dumas,Paris,,The Count of Monte Cristo,,"Paris, Ile-de-France, Metropolitan France, France",,,"Paris, Ile-de-France, Metropolitan France, France",48.8534951,2.3483915,"Paris, Ile-de-France, Metropolitan France, France","Paris, Ile-de-France, France",France
333,368,Nightcrawling,Leila Mottley,Oakland,,Nightcrawling,,"Oakland, Alameda County, California, United States",,,"Oakland, Alameda County, California, United States",37.8044557,-122.271356,"Oakland, Alameda County, California, United States","Oakland, California, United States",United States
334,399,To Rise Again at a Decent Hour,Joshua Ferris,New York City,,To Rise Again at a Decent Hour,,"New York, United States",,,"New York, United States",40.7127281,-74.0060152,"New York, United States","New York, New York, United States",United States
335,406,Vernon God Little,DBC Pierre,Martirio,,Vernon God Little,,"Martirio, San Borja, General José Ballivián Segurola, Beni, Bolivia",,,"Martirio, San Borja, General José Ballivián Segurola, Beni, Bolivia",-15.0303426,-66.7796697,"Martirio, San Borja, General José Ballivián Segurola, Beni, Bolivia","San Borja, Beni, Bolivia",Bolivia
336,453,Loitering with Intent,Muriel Spark,London,,Loitering with Intent,,"London, Greater London, England, United Kingdom",,,"London, Greater London, England, United Kingdom",51.4893335,-0.1440550845276872,"London, Greater London, England, United Kingdom","London, England, United Kingdom",United Kingdom
337,479,A Body in the Bath House,Lindsey Davis,Rome and Britannia,,A Body in the Bath House,,,,,,,,,,
338,528,The Road To Lichfield,Penelope Lively,Lichfield,,The Road to Lichfield,,"Lichfield, Staffordshire, England, United Kingdom",,,"Lichfield, Staffordshire, England, United Kingdom",52.68064,-1.8243991722405983,"Lichfield, Staffordshire, England, United Kingdom","Lichfield, England, United Kingdom",United Kingdom
339,570,A Long Long Way,Sebastian Barry,Flanders,,A Long Long Way,,"Flanders, Belgium",,,"Flanders, Belgium",51.0962462,4.178629103169916,"Flanders, Belgium",Belgium,Belgium
340,589,Il gattopardo,Giuseppe Tomasi di Lampedusa,Palma di Montechiaro,,The Leopard,,"Palma di Montechiaro, Agrigento, Sicily, 92044, Italy",,,"Palma di Montechiaro, Agrigento, Sicily, 92044, Italy",37.1916637,13.7637141,"Palma di Montechiaro, Agrigento, Sicily, 92044, Italy","Sicily, Italy",Italy
341,591,Hotel du Lac,Anita Brookner,Lake Geneva,,Hotel du Lac,,"Lake Geneva, Upper Savoy, Auvergne-Rhône-Alpes, Metropolitan France, France",,,"Lake Geneva, Upper Savoy, Auvergne-Rhône-Alpes, Metropolitan France, France",46.3613502,6.393247037248148,"Lake Geneva, Upper Savoy, Auvergne-Rhône-Alpes, Metropolitan France, France","Auvergne-Rhône-Alpes, France",France
342,612,A fekete város,Kálmán Mikszáth,Levoča,,A fekete város,,"Levoča, District of Levoča, Region of Prešov, Eastern Slovakia, 054 01, Slovakia",,,"Levoča, District of Levoča, Region of Prešov, Eastern Slovakia, 054 01, Slovakia",49.0251116,20.587999,"Levoča, District of Levoča, Region of Prešov, Eastern Slovakia, 054 01, Slovakia","Region of Prešov, Slovakia",Slovakia
343,633,Judith,Brian Cleeve,London,,Judith (novel),,"London, Greater London, England, United Kingdom",,,"London, Greater London, England, United Kingdom",51.4893335,-0.1440550845276872,"London, Greater London, England, United Kingdom","London, England, United Kingdom",United Kingdom
344,641,Grace Notes,Bernard MacLaverty,Scotland,,Grace Notes,,"Scotland, United Kingdom",,,"Scotland, United Kingdom",56.7861112,-4.1140518,"Scotland, United Kingdom","Scotland, United Kingdom",United Kingdom
345,647,Barnaby Rudge,Charles Dickens,London,,Barnaby Rudge: A Tale of the Riots of 'Eighty,,"London, Greater London, England, United Kingdom",,,"London, Greater London, England, United Kingdom",51.4893335,-0.1440550845276872,"London, Greater London, England, United Kingdom","London, England, United Kingdom",United Kingdom
346,671,The Essence of the Thing,Madeleine St John,London,,The Essence of the Thing,,"London, Greater London, England, United Kingdom",,,"London, Greater London, England, United Kingdom",51.4893335,-0.1440550845276872,"London, Greater London, England, United Kingdom","London, England, United Kingdom",United Kingdom
347,3,The Famished Road,Ben Okri,,Nigeria,The Famished Road,,,Nigeria,,Nigeria,9.6000359,7.9999721,Nigeria,Nigeria,Nigeria
348,6,Bring Larks and Heroes,Thomas Keneally,,Australia,Bring Larks and Heroes,,,Australia,,Australia,-24.7761086,134.755,Australia,Australia,Australia
349,10,The Colour of Blood,Brian Moore,,Poland,The Colour of Blood,,,Poland,,Poland,52.215933,19.134422,Poland,Poland,Poland
350,14,The Last Empress,Anchee Min,,China,The Last Empress (novel),,,China,,China,35.000074,104.999927,China,China,China
351,15,"Fasting, Feasting",Anita Desai,,India,"Fasting, Feasting",,,India,,India,22.3511148,78.6677428,India,India,India
352,36,As minas de prata,José de Alencar,,Brazil,As Minas de Prata,,,Brazil,,Brazil,-10.3333333,-53.2,Brazil,Brazil,Brazil
353,40,Shahab Nama,Qudrat Ullah Shahab,,Pakistan,Shahab Nama,,,Pakistan,,Pakistan,30.3308401,71.247499,Pakistan,Pakistan,Pakistan
354,43,Devil's Brood,Sharon Kay Penman,,England,The Devil's Brood,,,"England, United Kingdom",,"England, United Kingdom",52.5310214,-1.2649062,"England, United Kingdom","England, United Kingdom",United Kingdom
355,45,The Family,Mario Puzo,,Italy,The Family (Mario Puzo novel),,,Italy,,Italy,42.6384261,12.674297,Italy,Italy,Italy
356,47,Angélique,Anne Golon,,France,Angelique (French series),,,France,,France,46.603354,1.8883335,France,France,France
357,53,Lies of Silence,Brian Moore,,Northern Ireland,Lies of Silence,,,"Northern Ireland, United Kingdom",,"Northern Ireland, United Kingdom",54.5859836,-6.9591554,"Northern Ireland, United Kingdom","Northern Ireland, United Kingdom",United Kingdom
358,55,The Memoirs of Cleopatra,Margaret George,,Egypt,The Memoirs of Cleopatra,,,Egypt,,Egypt,26.2540493,29.2675469,Egypt,Egypt,Egypt
359,56,The Baroque Cycle,Neal Stephenson,,Europe,The Baroque Cycle,,,Europe,,Europe,51.0,10.0,Europe,,
360,59,The Woman Who Had Two Navels,Nick Joaquín,,Philippines,The Woman Who had Two Navels,,,Philippines,,Philippines,12.7503486,122.7312101,Philippines,Philippines,Philippines
361,60,The Afghan Campaign,Steven Pressfield,,Afghanistan,The Afghan Campaign,,,Afghanistan,,Afghanistan,33.7680065,66.2385139,Afghanistan,Afghanistan,Afghanistan
362,67,The Redundancy of Courage,Timothy Mo,,Danu,The Redundancy of Courage,,,"Danu, Glodeni District, Moldova",,"Danu, Glodeni District, Moldova",47.8316848,27.5003506,"Danu, Glodeni District, Moldova",Moldova,Moldova
363,70,The Forest House,Marion Zimmer Bradley and Diana L. Paxson,,Britain,The Forest House,,,"Great Britain, United Kingdom",,"Great Britain, United Kingdom",54.3151594,-1.918153211148788,"Great Britain, United Kingdom",United Kingdom,United Kingdom
364,72,The Lotus Eaters,Tatjana Soli,,Vietnam,The Lotus Eaters (novel),,,Vietnam,,Vietnam,15.9266657,107.9650855,Vietnam,Vietnam,Vietnam
365,77,The Spinning Heart,Donal Ryan,,Ireland,The Spinning Heart,,,Ireland,,Ireland,52.865196,-7.9794599,Ireland,Ireland,Ireland
366,79,Jalna,Mazo de la Roche,,Canada,Jalna (novel series),,,Canada,,Canada,61.0666922,-107.991707,Canada,Canada,Canada
367,81,The March: A Novel,E. L. Doctorow,,United States,The March (novel),,,United States,,United States,39.7837304,-100.445882,United States,United States,United States
368,84,The Curious Incident of the Dog in the Night-Time,Mark Haddon,,UK,The Curious Incident of the Dog in the Night-Time,,,United Kingdom,,United Kingdom,54.7023545,-3.2765753,United Kingdom,United Kingdom,United Kingdom
369,85,Solomon Gursky Was Here,Mordecai Richler,,Canada,Solomon Gursky Was Here,,,Canada,,Canada,61.0666922,-107.991707,Canada,Canada,Canada
370,88,Unless,Carol Shields,,Canada,Unless,,,Canada,,Canada,61.0666922,-107.991707,Canada,Canada,Canada
371,89,We Need New Names,NoViolet Bulawayo,,Zimbabwe,We Need New Names,,,Zimbabwe,,Zimbabwe,-18.4554963,29.7468414,Zimbabwe,Zimbabwe,Zimbabwe
372,91,Dirt Music,Tim Winton,,Australia,Dirt Music,,,Australia,,Australia,-24.7761086,134.755,Australia,Australia,Australia
373,94,The English Patient,Michael Ondaatje,,North Africa,The English Patient,,,"North Africa, Carrer de Can Valero, Montjuïc, el Poble-sec, Sants-Montjuïc, Barcelona, Barcelonès, Barcelona, Catalonia, 08001, Spain",,"North Africa, Carrer de Can Valero, Montjuïc, el Poble-sec, Sants-Montjuïc, Barcelona, Barcelonès, Barcelona, Catalonia, 08001, Spain",41.36259895,2.1596649904253766,"North Africa, Carrer de Can Valero, Montjuïc, el Poble-sec, Sants-Montjuïc, Barcelona, Barcelonès, Barcelona, Catalonia, 08001, Spain","Barcelona, Barcelona, Catalonia, Spain",Spain
374,96,The Islands of Unwisdom,Robert Graves,,Solomon Islands,The Islands of Unwisdom,,,Solomon Islands,,Solomon Islands,-8.7053941,159.1070693851845,Solomon Islands,Solomon Islands,Solomon Islands
375,97,Theft: A Love Story,Peter Carey,,Australia,Theft: A Love Story,,,Australia,,Australia,-24.7761086,134.755,Australia,Australia,Australia
376,99,Max Havelaar of De koffiveilingen der Nederlandsche Handelmaatschappij,Multatuli,,Netherlands,Max Havelaar,,,Netherlands,,Netherlands,52.2434979,5.6343227,Netherlands,Netherlands,Netherlands
377,100,An Instant in the Wind,André Brink,,South Africa,An Instant in the Wind,,,South Africa,,South Africa,-28.8166236,24.991639,South Africa,South Africa,South Africa
378,105,Shōgun,James Clavell,,Japan,Shōgun (novel),,,Japan,,Japan,36.5748441,139.2394179,Japan,Japan,Japan
379,109,Child 44,Tom Rob Smith,,Soviet Union,Child 44,,,"Soviet Union, Kardenweg, Mauthausen, Bezirk Perg, Upper Austria, 4310, Austria",,"Soviet Union, Kardenweg, Mauthausen, Bezirk Perg, Upper Austria, 4310, Austria",48.2582473,14.5007542,"Soviet Union, Kardenweg, Mauthausen, Bezirk Perg, Upper Austria, 4310, Austria","Upper Austria, Austria",Austria
380,113,Jonathan Strange & Mr Norrell,Susanna Clarke,,England,Jonathan Strange & Mr Norrell,,,"England, United Kingdom",,"England, United Kingdom",52.5310214,-1.2649062,"England, United Kingdom","England, United Kingdom",United Kingdom
381,114,Hunger's Brides,W. Paul Anderson,,Mexico,Hunger's Brides,,,Mexico,,Mexico,23.6585116,-102.0077097,Mexico,Mexico,Mexico
382,115,Here Be Dragons,Sharon Kay Penman,,Wales,Here Be Dragons,,,"Wales, United Kingdom",,"Wales, United Kingdom",52.2928116,-3.73893,"Wales, United Kingdom","Wales, United Kingdom",United Kingdom
383,118,Illywhacker,Peter Carey,,Australia,Illywhacker,,,Australia,,Australia,-24.7761086,134.755,Australia,Australia,Australia
384,119,Cold Mountain,Charles Frazier,,USA,Cold Mountain (novel),,,United States,,United States,39.7837304,-100.445882,United States,United States,United States
385,125,Anthills of the Savannah,Chinua Achebe,,West Africa,Anthills of the Savannah,,,"West Africa, Rue d'Auxonne, Faubourg Saint-Pierre, Université, Dijon, Côte-d'Or, Bourgogne – Franche-Comté, Metropolitan France, 21000, France",,"West Africa, Rue d'Auxonne, Faubourg Saint-Pierre, Université, Dijon, Côte-d'Or, Bourgogne – Franche-Comté, Metropolitan France, 21000, France",47.3138746,5.0488196,"West Africa, Rue d'Auxonne, Faubourg Saint-Pierre, Université, Dijon, Côte-d'Or, Bourgogne – Franche-Comté, Metropolitan France, 21000, France","Dijon, Bourgogne – Franche-Comté, France",France
386,133,Memoirs of Hadrian,Marguerite Yourcenar,,Roman Empire,Memoirs of Hadrian,,,"New Lotus House, 485, Roman Road, Old Ford, Bow, London Borough of Tower Hamlets, London, Greater London, England, E3 5LX, United Kingdom",,"New Lotus House, 485, Roman Road, Old Ford, Bow, London Borough of Tower Hamlets, London, Greater London, England, E3 5LX, United Kingdom",51.5322382,-0.033679,"New Lotus House, 485, Roman Road, Old Ford, Bow, London Borough of Tower Hamlets, London, Greater London, England, E3 5LX, United Kingdom","London, England, United Kingdom",United Kingdom
387,138,Small Things like These,Claire Keegan,,Ireland,Small Things Like These,,,Ireland,,Ireland,52.865196,-7.9794599,Ireland,Ireland,Ireland
388,144,Empire of the Moghul,Alex Rutherford (pen name for Diana and Michael Preston),,India,Empire of the Moghul,,,India,,India,22.3511148,78.6677428,India,India,India
389,148,The Dream of the Red Chamber,Cao Xueqin,,China,The Story of the Stone,,,China,,China,35.000074,104.999927,China,China,China
390,151,The Deer and the Cauldron,Jin Yong,,China,The Deer and the Cauldron,,,China,,China,35.000074,104.999927,China,China,China
391,156,If I Survive You,Jonathan Escoffery,,United States,If I Survive You,,,United States,,United States,39.7837304,-100.445882,United States,United States,United States
392,160,Cartucho,Nellie Campobello,,Mexico,Cartucho,,,Mexico,,Mexico,23.6585116,-102.0077097,Mexico,Mexico,Mexico
393,167,The Knights of the Cross,Henryk Sienkiewicz,,Poland,The Knights of the Cross,,,Poland,,Poland,52.215933,19.134422,Poland,Poland,Poland
394,176,The Greenlanders,Jane Smiley,,Greenland,The Greenlanders,,,Greenland,,Greenland,71.81717990000001,-40.42631787355845,Greenland,Greenland,Greenland
395,178,The Home and the World,Rabindranath Tagore,,India,The Home and the World,,,India,,India,22.3511148,78.6677428,India,India,India
396,183,Les Misérables,"{'name': 'The author of this book had in his hands, in 1848, the special report on this subject made to the Prefect of Police in 1832.'}",,France,Les Misérables,,,France,,France,46.603354,1.8883335,France,France,France
397,186,The Life of Klim Samgin,Maksim Gorky,,Russia,The Life of Klim Samgin,,,Russia,,Russia,64.6863136,97.7453061,Russia,Russia,Russia
398,187,The Orenda,Joseph Boyden,,Canada,The Orenda,,,Canada,,Canada,61.0666922,-107.991707,Canada,Canada,Canada
399,188,The Glory,Herman Wouk,,Israel,The Glory,,,Israel,,Israel,30.8124247,34.8594762,Israel,Israel,Israel
400,190,Russka,Edward Rutherfurd,,Russia,Russka (novel),,,Russia,,Russia,64.6863136,97.7453061,Russia,Russia,Russia
401,192,Silence,Shūsaku Endō,,Japan,Silence (Endō novel),,,Japan,,Japan,36.5748441,139.2394179,Japan,Japan,Japan
402,207,The Red Badge of Courage,Stephen Crane,,United States,The Red Badge of Courage,,,United States,,United States,39.7837304,-100.445882,United States,United States,United States
403,209,The Hope,Herman Wouk,,Israel,The Hope (novel),,,Israel,,Israel,30.8124247,34.8594762,Israel,Israel,Israel
404,210,And Quiet Flows the Don,Mikhail Aleksandrovich Sholokhov,,Russia,And Quiet Flows the Don,,,Russia,,Russia,64.6863136,97.7453061,Russia,Russia,Russia
405,212,The Fort,Bernard Cornwell,,United States,The Fort (novel),,,United States,,United States,39.7837304,-100.445882,United States,United States,United States
406,214,The Haj,Leon Uris,,Near East,The Haj (novel),,,"Near East, Girne Caddesi, İplik Pazarı - Korkut Efendi, Kumsal, Lefkoşa, Lefkoşa Türk Belediyesi, Lefkoşa District, Northern Cyprus, 99010, Cyprus",,"Near East, Girne Caddesi, İplik Pazarı - Korkut Efendi, Kumsal, Lefkoşa, Lefkoşa Türk Belediyesi, Lefkoşa District, Northern Cyprus, 99010, Cyprus",35.1779199,33.3606891,"Near East, Girne Caddesi, İplik Pazarı - Korkut Efendi, Kumsal, Lefkoşa, Lefkoşa Türk Belediyesi, Lefkoşa District, Northern Cyprus, 99010, Cyprus","Lefkoşa, Northern Cyprus",Northern Cyprus
407,224,English Passengers,Matthew Kneale,,Tasmania,English Passengers,,,"Tasmania, Australia",,"Tasmania, Australia",-42.035067,146.6366887,"Tasmania, Australia","Tasmania, Australia",Australia
408,225,Redgauntlet,Walter Scott,,Scotland,Redgauntlet,,,"Scotland, United Kingdom",,"Scotland, United Kingdom",56.7861112,-4.1140518,"Scotland, United Kingdom","Scotland, United Kingdom",United Kingdom
409,242,The Book of Evidence,John Banville,,Ireland,The Book of Evidence,,,Ireland,,Ireland,52.865196,-7.9794599,Ireland,Ireland,Ireland
410,244,In a Strange Room,Damon Galgut,,South Africa,In a Strange Room,,,South Africa,,South Africa,-28.8166236,24.991639,South Africa,South Africa,South Africa
411,246,War and Peace,Leo Tolstoy,,Russia,War and Peace,,,Russia,,Russia,64.6863136,97.7453061,Russia,Russia,Russia
412,250,"Life in the Argentine Republic in the Days of the Tyrants; or, Civilization and Barbarism",Domingo Sarmiento,,Argentina,Facundo,,,Argentina,,Argentina,-34.9964963,-64.9672817,Argentina,Argentina,Argentina
413,253,The Riders,Tim Winton,,Ireland,The Riders,,,Ireland,,Ireland,52.865196,-7.9794599,Ireland,Ireland,Ireland
414,254,Child of All Nations,Pramoedya Ananta Toer,,Indonesia,Anak Semua Bangsa,,,Indonesia,,Indonesia,-2.4833826,117.8902853,Indonesia,Indonesia,Indonesia
415,258,El Conde Lucanor,Don Juan Manuel,,Spain,Tales of Count Lucanor,,,Spain,,Spain,39.3260685,-4.8379791,Spain,Spain,Spain
416,259,River God,Wilbur Smith,,Egypt,River God,,,Egypt,,Egypt,26.2540493,29.2675469,Egypt,Egypt,Egypt
417,260,The Remains of the Day,Kazuo Ishiguro,,United Kingdom,The Remains of the Day,,,United Kingdom,,United Kingdom,54.7023545,-3.2765753,United Kingdom,United Kingdom,United Kingdom
418,263,Figures in a Landscape,Barry England,,Unnamed country in the tropics,Figures in a Landscape,,,,,,,,,,
419,264,The Big Chapel,Thomas Kilroy,,Ireland,The Big Chapel,,,Ireland,,Ireland,52.865196,-7.9794599,Ireland,Ireland,Ireland
420,267,The Tale of the Heike,Unknown (Wikipedia article about a book),,Japan,The Tale of the Heike,,,Japan,,Japan,36.5748441,139.2394179,Japan,Japan,Japan
421,274,Captain Blood,Rafael Sabatini,,Caribbean,Captain Blood (novel),,,"Caribbean, Haiti",,"Caribbean, Haiti",18.4,-75.0,"Caribbean, Haiti",Haiti,Haiti
422,287,Iracema,José de Alencar,,Brazil,Iracema,,,Brazil,,Brazil,-10.3333333,-53.2,Brazil,Brazil,Brazil
423,289,Les Rois maudits,Maurice Druon,,France,Les Rois maudits,,,France,,France,46.603354,1.8883335,France,France,France
424,304,Count Belisarius,Robert Graves,,Byzantine Empire,Count Belisarius,,,,,,,,,,
425,309,An Artist of the Floating World,Kazuo Ishiguro,,Japan,An Artist of the Floating World,,,Japan,,Japan,36.5748441,139.2394179,Japan,Japan,Japan
426,312,My Theodosia,Anya Seton,,United States,My Theodosia,,,United States,,United States,39.7837304,-100.445882,United States,United States,United States
427,314,The Lost Dog,Michelle de Kretser,,Australia,The Lost Dog,,,Australia,,Australia,-24.7761086,134.755,Australia,Australia,Australia
428,316,Ninety-Three,Victor Hugo,,France,Ninety-Three,,,France,,France,46.603354,1.8883335,France,France,France
429,317,Kristin Lavransdatter,Sigrid Undset,,Norway,Kristin Lavransdatter,,,Norway,,Norway,61.1529386,8.7876653,Norway,Norway,Norway
431,324,Rumours of Rain,André Brink,,South Africa,Rumours of Rain,,,South Africa,,South Africa,-28.8166236,24.991639,South Africa,South Africa,South Africa
433,340,A Place of Greater Safety,Hilary Mantel,,France,A Place of Greater Safety,,,France,,France,46.603354,1.8883335,France,France,France
434,351,Whirlwind,James Clavell,,Iran,Whirlwind (novel),,,Iran,,Iran,32.6475314,54.5643516,Iran,Iran,Iran
435,359,A Spell of Good Things,Ayọ̀bámi Adébáyọ̀,,Nigeria,A Spell of Good Things,,,Nigeria,,Nigeria,9.6000359,7.9999721,Nigeria,Nigeria,Nigeria
436,360,The Seven Moons of Maali Almeida,Shehan Karunatilaka,,Sri Lanka,The Seven Moons of Maali Almeida,,,Sri Lanka,,Sri Lanka,7.5554942,80.7137847,Sri Lanka,Sri Lanka,Sri Lanka
437,361,The Fencing Master,Arturo Pérez-Reverte,,Spain,The Fencing Master,,,Spain,,Spain,39.3260685,-4.8379791,Spain,Spain,Spain
438,362,Black Dogs,Ian McEwan,,France,Black Dogs,,,France,,France,46.603354,1.8883335,France,France,France
439,376,Cézanne's Quarry,Barbara Corrado Pope,,France,Cézanne’s Quarry,,,France,,France,46.603354,1.8883335,France,France,France
440,379,Royal Flash,George MacDonald Fraser,,Asia,Flashman (novel),,,Asia,,Asia,51.2086975,89.2343748,Asia,,
441,382,The Sunne in Splendour,Sharon Kay Penman,,England,The Sunne in Splendour,,,"England, United Kingdom",,"England, United Kingdom",52.5310214,-1.2649062,"England, United Kingdom","England, United Kingdom",United Kingdom
442,401,The Red Wheel,Aleksandr Solzhenitsyn,,Russia,The Red Wheel,,,Russia,,Russia,64.6863136,97.7453061,Russia,Russia,Russia
443,405,Musashi,Eiji Yoshikawa,,Japan,Musashi (novel),,,Japan,,Japan,36.5748441,139.2394179,Japan,Japan,Japan
444,407,I promessi sposi,Alessandro Manzoni,,Italy,The Betrothed (Manzoni novel),,,Italy,,Italy,42.6384261,12.674297,Italy,Italy,Italy
445,408,The Episodios Nacionales,Benito Pérez Galdós,,Spain,Episodios Nacionales,,,Spain,,Spain,39.3260685,-4.8379791,Spain,Spain,Spain
446,410,A Brief History of Seven Killings,Marlon James,,Jamaica,A Brief History of Seven Killings,,,Jamaica,,Jamaica,18.1850507,-77.3947693,Jamaica,Jamaica,Jamaica
447,411,Lion of Ireland,Morgan Llywelyn,,Ireland,Lion of Ireland,,,Ireland,,Ireland,52.865196,-7.9794599,Ireland,Ireland,Ireland
448,414,Khaak Aur Khoon,Nasīm Ḥijāzī,,Pakistan,Khaak aur Khoon,,,Pakistan,,Pakistan,30.3308401,71.247499,Pakistan,Pakistan,Pakistan
449,419,Masters of Rome,Colleen McCullough,,Rome,Masters of Rome,,,"Rome, Roma Capitale, Lazio, Italy",,"Rome, Roma Capitale, Lazio, Italy",41.8933203,12.4829321,"Rome, Roma Capitale, Lazio, Italy","Rome, Lazio, Italy",Italy
450,441,Shadow Sisters,unknown (as per Wikipedia article),,China,Chia Black Dragon,,,China,,China,35.000074,104.999927,China,China,China
451,442,God on the Rocks,Jane Gardam,,England,God on the Rocks,,,"England, United Kingdom",,"England, United Kingdom",52.5310214,-1.2649062,"England, United Kingdom","England, United Kingdom",United Kingdom
452,455,Wolf Hall,Hilary Mantel,,England,Wolf Hall,,,"England, United Kingdom",,"England, United Kingdom",52.5310214,-1.2649062,"England, United Kingdom","England, United Kingdom",United Kingdom
453,456,Maps for Lost Lovers,Nadeem Aslam,,England,Maps for Lost Lovers,,,"England, United Kingdom",,"England, United Kingdom",52.5310214,-1.2649062,"England, United Kingdom","England, United Kingdom",United Kingdom
454,458,The Year of the Runaways,Sunjeev Sahota,,UK,The Year of the Runaways,,,United Kingdom,,United Kingdom,54.7023545,-3.2765753,United Kingdom,United Kingdom,United Kingdom
455,459,Babouk,Guy Endore,,US,Babouk,,,United States,,United States,39.7837304,-100.445882,United States,United States,United States
456,461,The Colony of Unrequited Dreams,Wayne Johnston,,Canada,The Colony of Unrequited Dreams,,,Canada,,Canada,61.0666922,-107.991707,Canada,Canada,Canada
457,471,Chanakya's Chant,Ashwin Sanghi,,India,Chanakya's Chant,,,India,,India,22.3511148,78.6677428,India,India,India
458,474,Romance of the Three Kingdoms,Luo Guanzhong,,China,Romance of the Three Kingdoms,,,China,,China,35.000074,104.999927,China,China,China
459,478,The Master of Hestviken,Sigrid Undset,,Norway,The Master of Hestviken,,,Norway,,Norway,61.1529386,8.7876653,Norway,Norway,Norway
460,482,Aangan,Khadija Mastoor,,Pakistan,Aangan (novel),,,Pakistan,,Pakistan,30.3308401,71.247499,Pakistan,Pakistan,Pakistan
461,487,Baltasar and Blimunda,José Saramago,,Portugal,Baltasar and Blimunda,,,Portugal,,Portugal,39.6621648,-8.1353519,Portugal,Portugal,Portugal
462,495,The Pickup,Nadine Gordimer,,South Africa,The Pickup,,,South Africa,,South Africa,-28.8166236,24.991639,South Africa,South Africa,South Africa
463,501,The Vivisector,Patrick White,,Australia,The Vivisector,,,Australia,,Australia,-24.7761086,134.755,Australia,Australia,Australia
464,503,The Chant of Jimmie Blacksmith,Thomas Keneally,,Australia,The Chant of Jimmie Blacksmith,,,Australia,,Australia,-24.7761086,134.755,Australia,Australia,Australia
465,505,The Ghost Road,Pat Barker,,Melanesia,The Ghost Road,,,"Melanesia, Western, Solomon Islands",,"Melanesia, Western, Solomon Islands",-9.05,158.75,"Melanesia, Western, Solomon Islands","Western, Solomon Islands",Solomon Islands
466,508,The Death of Crispin Dingle,Peter Carey,,Australia,Remembering Babylon,,,Australia,,Australia,-24.7761086,134.755,Australia,Australia,Australia
467,515,This Earth of Mankind,Pramoedya Ananta Toer,,Indonesia,Bumi Manusia,,,Indonesia,,Indonesia,-2.4833826,117.8902853,Indonesia,Indonesia,Indonesia
468,540,Season of the Jew,Maurice Shadbolt,,New Zealand,Season of the Jew,,,New Zealand,,New Zealand,-41.5000831,172.8344077,New Zealand,New Zealand,New Zealand
469,546,Texas,James Michener,,United States,Texas (novel),,,United States,,United States,39.7837304,-100.445882,United States,United States,United States
470,551,Santa Evita,Tomás Eloy Martínez,,Argentina,Santa Evita,,,Argentina,,Argentina,-34.9964963,-64.9672817,Argentina,Argentina,Argentina
471,568,Imperial Woman,Pearl S. Buck,,China,Imperial Woman,,,China,,China,35.000074,104.999927,China,China,China
472,569,Vengeance,George Jonas,,Israel,Vengeance (Jonas book),,,Israel,,Israel,30.8124247,34.8594762,Israel,Israel,Israel
473,575,The Restraint of Beasts,Magnus Mills,,Scotland,The Restraint of Beasts,,,"Scotland, United Kingdom",,"Scotland, United Kingdom",56.7861112,-4.1140518,"Scotland, United Kingdom","Scotland, United Kingdom",United Kingdom
474,576,The Black Coat,Neamat Imam,,Bangladesh,The Black Coat,,,Bangladesh,,Bangladesh,24.4769288,90.2934413,Bangladesh,Bangladesh,Bangladesh
475,578,The Luminaries,Eleanor Catton,,New Zealand,The Luminaries,,,New Zealand,,New Zealand,-41.5000831,172.8344077,New Zealand,New Zealand,New Zealand
476,592,Caballero: A Historical Novel,Jovita González and Eve Raleigh,,Mexico,Caballero: A Historical Novel,,,Mexico,,Mexico,23.6585116,-102.0077097,Mexico,Mexico,Mexico
477,593,The Sorrow of War,Bảo Ninh,,Vietnam,The Sorrow of War,,,Vietnam,,Vietnam,15.9266657,107.9650855,Vietnam,Vietnam,Vietnam
478,598,The Long Song,Andrea Levy,,Jamaica,The Long Song,,,Jamaica,,Jamaica,18.1850507,-77.3947693,Jamaica,Jamaica,Jamaica
479,599,The Conservationist,Nadine Gordimer,,South Africa,The Conservationist,,,South Africa,,South Africa,-28.8166236,24.991639,South Africa,South Africa,South Africa
480,602,Sixty Lights,Gail Jones,,Australia,Sixty Lights,,,Australia,,Australia,-24.7761086,134.755,Australia,Australia,Australia
481,604,The Long Take,Robin Robertson,,United States,The Long Take,,,United States,,United States,39.7837304,-100.445882,United States,United States,United States
482,606,the bone people,Keri Hulme,,New Zealand,The Bone People,,,New Zealand,,New Zealand,-41.5000831,172.8344077,New Zealand,New Zealand,New Zealand
483,626,The Little Stranger,Sarah Waters,,United Kingdom,The Little Stranger,,,United Kingdom,,United Kingdom,54.7023545,-3.2765753,United Kingdom,United Kingdom,United Kingdom
484,631,The Testaments,Margaret Atwood,,Canada,The Testaments,,,Canada,,Canada,61.0666922,-107.991707,Canada,Canada,Canada
485,634,Skios,Michael Frayn,,Greece,Skios,,,Greece,,Greece,38.9953683,21.9877132,Greece,Greece,Greece
486,637,Katherine,Anya Seton,,England,Katherine (Seton novel),,,"England, United Kingdom",,"England, United Kingdom",52.5310214,-1.2649062,"England, United Kingdom","England, United Kingdom",United Kingdom
487,639,La vida y hechos de Estebanillo González,Unknown,,Spain,Estebanillo González,,,Spain,,Spain,39.3260685,-4.8379791,Spain,Spain,Spain
488,642,What's Bred in the Bone,Robertson Davies,,Canada,What's Bred in the Bone,,,Canada,,Canada,61.0666922,-107.991707,Canada,Canada,Canada
489,646,The Wake,Paul Kingsnorth,,England,The Wake (novel),,,"England, United Kingdom",,"England, United Kingdom",52.5310214,-1.2649062,"England, United Kingdom","England, United Kingdom",United Kingdom
490,650,Bring Up the Bodies,Hilary Mantel,,England,Bring Up the Bodies,,,"England, United Kingdom",,"England, United Kingdom",52.5310214,-1.2649062,"England, United Kingdom","England, United Kingdom",United Kingdom
491,651,Under the Frog,Tibor Fischer,,Hungary,Under the Frog,,,Hungary,,Hungary,47.1817585,19.5060937,Hungary,Hungary,Hungary
492,654,Lost Children Archive,Valeria Luiselli,,U.S.,Lost Children Archive,,,"U&S, 61, Bahnhofstraße, Wiesenviertel, Witten-Mitte, Witten, Ennepe-Ruhr-Kreis, North Rhine-Westphalia, 58452, Germany",,"U&S, 61, Bahnhofstraße, Wiesenviertel, Witten-Mitte, Witten, Ennepe-Ruhr-Kreis, North Rhine-Westphalia, 58452, Germany",51.4376108,7.3303862,"U&S, 61, Bahnhofstraße, Wiesenviertel, Witten-Mitte, Witten, Ennepe-Ruhr-Kreis, North Rhine-Westphalia, 58452, Germany","North Rhine-Westphalia, Germany",Germany
493,663,From Scenes Like These,Gordon Williams,,Scotland,From Scenes Like These,,,"Scotland, United Kingdom",,"Scotland, United Kingdom",56.7861112,-4.1140518,"Scotland, United Kingdom","Scotland, United Kingdom",United Kingdom
494,672,Aag Ka Darya,Qurratulain Hyder,,India,Aag Ka Darya,,,India,,India,22.3511148,78.6677428,India,India,India
495,675,The Kingdom of This World,Alejo Carpentier,,Haiti,The Kingdom of This World,,,Haiti,,Haiti,19.1399952,-72.3570972,Haiti,Haiti,Haiti
